STN$723965*DATE$2021-02-04*TIME$12:55:31*TEMP$2.1*DEWP$-3.1*STP$1018.5*SLP$1019.4*VISIB$20.9*WDSP$10.6*PRCP$0.09*SNDP$0.0*FRSHTT$010000*CLDC$62.2*WNDDIR$251
STN$306690*DATE$2021-02-04*TIME$12:55:31*TEMP$-28.1*DEWP$-31.8*STP$1038.5*SLP$1029.3*VISIB$44.2*WDSP$5.5*PRCP$0.00*SNDP$2.5*FRSHTT$101000*CLDC$63.2*WNDDIR$32
STN$12120*DATE$2021-02-04*TIME$12:55:31*TEMP$0.9*DEWP$-2.6*STP$1002.3*SLP$1001.9*VISIB$31.8*WDSP$39.1*PRCP$0.37*SNDP$1.6*FRSHTT$011000*CLDC$50.2*WNDDIR$190
STN$234450*DATE$2021-02-04*TIME$12:55:31*TEMP$-26.4*DEWP$-25.1*STP$1033.6*SLP$1017.2*VISIB$4.5*WDSP$4.4*PRCP$0.00*SNDP$36.1*FRSHTT$101000*CLDC$94.1*WNDDIR$150
STN$164050*DATE$2021-02-04*TIME$12:55:31*TEMP$7.9*DEWP$2.8*STP$1017.2*SLP$1017.1*VISIB$10.9*WDSP$14.4*PRCP$0.03*SNDP$0.0*FRSHTT$010000*CLDC$51.9*WNDDIR$272
STN$27550*DATE$2021-02-04*TIME$12:55:31*TEMP$-8.7*DEWP$-8.3*STP$1004.1*SLP$1014.0*VISIB$14.6*WDSP$5.4*PRCP$0.00*SNDP$0.0*FRSHTT$100000*CLDC$93.7*WNDDIR$286
STN$723940*DATE$2021-02-04*TIME$12:55:31*TEMP$1.7*DEWP$-4.5*STP$1009.5*SLP$1018.7*VISIB$28.6*WDSP$12.4*PRCP$0.17*SNDP$0.0*FRSHTT$010000*CLDC$50.9*WNDDIR$18
STN$287560*DATE$2021-02-04*TIME$12:55:31*TEMP$-11.4*DEWP$-14.5*STP$1022.3*SLP$1017.7*VISIB$16.8*WDSP$14.9*PRCP$0.02*SNDP$3.6*FRSHTT$111000*CLDC$50.6*WNDDIR$253
STN$586660*DATE$2021-02-04*TIME$12:55:31*TEMP$4.6*DEWP$0.9*STP$1020.7*SLP$1024.4*VISIB$13.1*WDSP$29.3*PRCP$0.11*SNDP$0.0*FRSHTT$010000*CLDC$51.6*WNDDIR$124
STN$983280*DATE$2021-02-04*TIME$12:55:31*TEMP$6.0*DEWP$1.3*STP$905.9*SLP$1012.0*VISIB$11.1*WDSP$5.4*PRCP$0.00*SNDP$0.0*FRSHTT$000000*CLDC$10.2*WNDDIR$346
STN$637200*DATE$2021-02-04*TIME$12:55:31*TEMP$5.0*DEWP$-6.7*STP$977.0*SLP$980.2*VISIB$27.5*WDSP$4.2*PRCP$0.00*SNDP$0.0*FRSHTT$000000*CLDC$19.8*WNDDIR$218
STN$726686*DATE$2021-02-04*TIME$12:55:31*TEMP$-3.3*DEWP$-8.5*STP$975.5*SLP$1024.1*VISIB$23.0*WDSP$16.5*PRCP$0.05*SNDP$1.5*FRSHTT$111000*CLDC$50.3*WNDDIR$208
STN$726685*DATE$2021-02-04*TIME$12:55:31*TEMP$-8.1*DEWP$-12.6*STP$1020.4*SLP$1025.5*VISIB$20.9*WDSP$16.4*PRCP$0.02*SNDP$2.4*FRSHTT$111000*CLDC$50.6*WNDDIR$63
STN$726682*DATE$2021-02-04*TIME$12:55:31*TEMP$-16.5*DEWP$-19.8*STP$996.6*SLP$983.2*VISIB$10.7*WDSP$8.7*PRCP$0.00*SNDP$0.0*FRSHTT$100000*CLDC$50.0*WNDDIR$303
STN$478000*DATE$2021-02-04*TIME$12:55:31*TEMP$2.5*DEWP$-5.0*STP$1023.5*SLP$1021.6*VISIB$23.9*WDSP$17.0*PRCP$0.05*SNDP$0.0*FRSHTT$010000*CLDC$79.5*WNDDIR$351
STN$91620*DATE$2021-02-04*TIME$12:55:31*TEMP$-1.7*DEWP$-5.0*STP$1018.5*SLP$1014.5*VISIB$7.7*WDSP$19.0*PRCP$0.07*SNDP$0.3*FRSHTT$111000*CLDC$50.7*WNDDIR$303
STN$726680*DATE$2021-02-04*TIME$12:55:31*TEMP$-9.8*DEWP$-13.7*STP$1019.0*SLP$1029.5*VISIB$5.8*WDSP$22.3*PRCP$0.00*SNDP$8.1*FRSHTT$101000*CLDC$50.8*WNDDIR$327
STN$726679*DATE$2021-02-04*TIME$12:55:31*TEMP$-18.7*DEWP$-22.9*STP$1005.1*SLP$1016.4*VISIB$15.9*WDSP$9.7*PRCP$0.00*SNDP$0.0*FRSHTT$100000*CLDC$0.8*WNDDIR$198
STN$726676*DATE$2021-02-04*TIME$12:55:31*TEMP$-5.4*DEWP$-6.9*STP$1007.1*SLP$1020.5*VISIB$14.1*WDSP$18.2*PRCP$0.00*SNDP$0.0*FRSHTT$100000*CLDC$82.0*WNDDIR$279
STN$726675*DATE$2021-02-04*TIME$12:55:31*TEMP$-8.3*DEWP$-11.5*STP$927.9*SLP$1026.2*VISIB$19.5*WDSP$19.7*PRCP$0.02*SNDP$4.0*FRSHTT$111000*CLDC$97.6*WNDDIR$206
STN$286420*DATE$2021-02-04*TIME$12:55:31*TEMP$-11.1*DEWP$-13.8*STP$1012.7*SLP$1019.1*VISIB$2.6*WDSP$15.9*PRCP$0.02*SNDP$4.7*FRSHTT$111000*CLDC$50.7*WNDDIR$206
STN$330001*DATE$2021-02-04*TIME$12:55:31*TEMP$0.1*DEWP$-1.8*STP$988.3*SLP$989.8*VISIB$9.1*WDSP$5.3*PRCP$0.00*SNDP$0.0*FRSHTT$100000*CLDC$44.2*WNDDIR$117
STN$680380*DATE$2021-02-04*TIME$12:55:31*TEMP$15.0*DEWP$8.7*STP$1018.0*SLP$1010.8*VISIB$10.5*WDSP$16.4*PRCP$0.00*SNDP$0.0*FRSHTT$000000*CLDC$99.7*WNDDIR$264
STN$944480*DATE$2021-02-04*TIME$12:55:31*TEMP$14.0*DEWP$-0.2*STP$967.0*SLP$1009.4*VISIB$33.9*WDSP$10.1*PRCP$0.06*SNDP$0.0*FRSHTT$010000*CLDC$54.0*WNDDIR$23
STN$347590*DATE$2021-02-04*TIME$12:55:31*TEMP$-3.4*DEWP$-5.6*STP$1014.2*SLP$1021.5*VISIB$8.8*WDSP$15.8*PRCP$0.03*SNDP$2.3*FRSHTT$111000*CLDC$50.8*WNDDIR$309
STN$317250*DATE$2021-02-04*TIME$12:55:31*TEMP$-26.9*DEWP$-28.6*STP$1016.0*SLP$1020.0*VISIB$19.3*WDSP$8.7*PRCP$0.01*SNDP$2.0*FRSHTT$111000*CLDC$50.4*WNDDIR$229
STN$408590*DATE$2021-02-04*TIME$12:55:31*TEMP$6.0*DEWP$5.1*STP$872.1*SLP$1016.9*VISIB$10.2*WDSP$0.1*PRCP$1.83*SNDP$0.0*FRSHTT$010000*CLDC$73.3*WNDDIR$185
STN$577070*DATE$2021-02-04*TIME$12:55:31*TEMP$0.8*DEWP$-1.2*STP$852.5*SLP$852.2*VISIB$4.5*WDSP$4.5*PRCP$0.02*SNDP$0.0*FRSHTT$010000*CLDC$66.3*WNDDIR$62
STN$408580*DATE$2021-02-04*TIME$12:55:31*TEMP$13.9*DEWP$9.6*STP$1002.3*SLP$1004.3*VISIB$12.1*WDSP$10.0*PRCP$0.00*SNDP$0.0*FRSHTT$000000*CLDC$86.8*WNDDIR$238
STN$39760*DATE$2021-02-04*TIME$12:55:31*TEMP$2.7*DEWP$0.3*STP$1005.5*SLP$1008.7*VISIB$23.9*WDSP$23.5*PRCP$0.24*SNDP$0.0*FRSHTT$010000*CLDC$51.3*WNDDIR$6
STN$31770*DATE$2021-02-04*TIME$12:55:31*TEMP$1.6*DEWP$-1.7*STP$1010.6*SLP$1007.2*VISIB$25.0*WDSP$28.8*PRCP$0.00*SNDP$0.0*FRSHTT$000000*CLDC$42.0*WNDDIR$178
STN$93980*DATE$2021-02-04*TIME$12:55:31*TEMP$-7.4*DEWP$-8.2*STP$1018.0*SLP$1018.9*VISIB$4.4*WDSP$9.5*PRCP$0.00*SNDP$0.0*FRSHTT$100000*CLDC$71.2*WNDDIR$129
STN$728160*DATE$2021-02-04*TIME$12:55:31*TEMP$-18.1*DEWP$-26.3*STP$994.8*SLP$1001.1*VISIB$29.7*WDSP$31.8*PRCP$0.00*SNDP$58.7*FRSHTT$101000*CLDC$56.5*WNDDIR$213
STN$107100*DATE$2021-02-04*TIME$12:55:31*TEMP$-3.1*DEWP$-2.9*STP$1018.9*SLP$1034.9*VISIB$2.9*WDSP$42.5*PRCP$0.03*SNDP$0.0*FRSHTT$110000*CLDC$52.9*WNDDIR$114
STN$31760*DATE$2021-02-04*TIME$12:55:31*TEMP$0.8*DEWP$-0.3*STP$990.4*SLP$1015.3*VISIB$23.4*WDSP$5.2*PRCP$0.00*SNDP$0.0*FRSHTT$000000*CLDC$99.6*WNDDIR$233
STN$728170*DATE$2021-02-04*TIME$12:55:31*TEMP$-24.4*DEWP$-27.4*STP$1005.7*SLP$1004.5*VISIB$26.0*WDSP$21.3*PRCP$0.00*SNDP$9.7*FRSHTT$101000*CLDC$60.2*WNDDIR$290
STN$728180*DATE$2021-02-04*TIME$12:55:31*TEMP$-16.2*DEWP$-21.2*STP$995.4*SLP$995.8*VISIB$23.3*WDSP$33.4*PRCP$0.00*SNDP$43.6*FRSHTT$101000*CLDC$52.0*WNDDIR$136
STN$107080*DATE$2021-02-04*TIME$12:55:31*TEMP$-0.3*DEWP$-2.9*STP$1005.2*SLP$1019.3*VISIB$6.6*WDSP$10.9*PRCP$0.13*SNDP$0.0*FRSHTT$110000*CLDC$50.7*WNDDIR$267
STN$354260*DATE$2021-02-04*TIME$12:55:31*TEMP$-6.9*DEWP$-8.6*STP$1010.6*SLP$1025.4*VISIB$34.9*WDSP$8.5*PRCP$0.01*SNDP$6.3*FRSHTT$111000*CLDC$80.1*WNDDIR$7
STN$309650*DATE$2021-02-04*TIME$12:55:31*TEMP$-30.3*DEWP$-34.8*STP$1008.0*SLP$1028.1*VISIB$35.1*WDSP$8.4*PRCP$0.00*SNDP$2.2*FRSHTT$101000*CLDC$50.4*WNDDIR$73
STN$722054*DATE$2021-02-04*TIME$12:55:31*TEMP$-3.1*DEWP$-9.9*STP$1048.7*SLP$1031.5*VISIB$17.1*WDSP$9.5*PRCP$0.00*SNDP$0.0*FRSHTT$100000*CLDC$16.8*WNDDIR$16
STN$722053*DATE$2021-02-04*TIME$12:55:31*TEMP$12.1*DEWP$6.3*STP$1015.2*SLP$1005.4*VISIB$13.1*WDSP$13.0*PRCP$0.05*SNDP$0.0*FRSHTT$010000*CLDC$91.1*WNDDIR$107
STN$722052*DATE$2021-02-04*TIME$12:55:31*TEMP$-2.0*DEWP$-10.6*STP$1003.0*SLP$990.7*VISIB$17.3*WDSP$17.7*PRCP$0.00*SNDP$0.0*FRSHTT$100000*CLDC$12.0*WNDDIR$283
STN$722037*DATE$2021-02-04*TIME$12:55:31*TEMP$17.0*DEWP$15.2*STP$1036.1*SLP$1023.0*VISIB$15.6*WDSP$17.9*PRCP$0.08*SNDP$0.0*FRSHTT$010000*CLDC$78.8*WNDDIR$128
STN$722039*DATE$2021-02-04*TIME$12:55:31*TEMP$14.6*DEWP$10.3*STP$1026.7*SLP$1020.6*VISIB$14.3*WDSP$12.0*PRCP$0.01*SNDP$0.0*FRSHTT$010000*CLDC$50.1*WNDDIR$190
STN$722038*DATE$2021-02-04*TIME$12:55:31*TEMP$13.7*DEWP$10.2*STP$1016.3*SLP$1013.3*VISIB$12.5*WDSP$14.7*PRCP$0.32*SNDP$0.0*FRSHTT$010000*CLDC$56.4*WNDDIR$101
STN$722033*DATE$2021-02-04*TIME$12:55:31*TEMP$-2.9*DEWP$-4.5*STP$999.1*SLP$996.7*VISIB$10.1*WDSP$19.5*PRCP$0.00*SNDP$0.0*FRSHTT$100000*CLDC$99.2*WNDDIR$186
STN$722032*DATE$2021-02-04*TIME$12:55:31*TEMP$-13.5*DEWP$-18.5*STP$1001.2*SLP$1016.0*VISIB$11.1*WDSP$20.2*PRCP$0.00*SNDP$0.0*FRSHTT$100000*CLDC$74.1*WNDDIR$66
STN$711220*DATE$2021-02-04*TIME$12:55:31*TEMP$-8.6*DEWP$-13.6*STP$858.7*SLP$1024.6*VISIB$21.5*WDSP$7.4*PRCP$0.02*SNDP$16.9*FRSHTT$111000*CLDC$61.9*WNDDIR$161
STN$722034*DATE$2021-02-04*TIME$12:55:31*TEMP$11.0*DEWP$5.6*STP$1013.5*SLP$1026.4*VISIB$13.9*WDSP$25.4*PRCP$0.03*SNDP$0.0*FRSHTT$010000*CLDC$50.2*WNDDIR$50
STN$725450*DATE$2021-02-04*TIME$12:55:31*TEMP$-11.6*DEWP$-15.4*STP$1018.3*SLP$1022.3*VISIB$15.7*WDSP$19.3*PRCP$0.03*SNDP$1.1*FRSHTT$111000*CLDC$80.4*WNDDIR$250
STN$430630*DATE$2021-02-04*TIME$12:55:31*TEMP$26.7*DEWP$16.9*STP$967.7*SLP$1012.9*VISIB$7.0*WDSP$3.0*PRCP$0.00*SNDP$0.0*FRSHTT$000000*CLDC$80.8*WNDDIR$159
STN$725461*DATE$2021-02-04*TIME$12:55:31*TEMP$-11.9*DEWP$-15.2*STP$1019.1*SLP$1021.0*VISIB$11.4*WDSP$14.3*PRCP$0.02*SNDP$0.0*FRSHTT$110000*CLDC$87.4*WNDDIR$64
STN$725460*DATE$2021-02-04*TIME$12:55:31*TEMP$-11.3*DEWP$-15.5*STP$990.9*SLP$1024.4*VISIB$16.6*WDSP$16.5*PRCP$0.06*SNDP$4.5*FRSHTT$111000*CLDC$51.2*WNDDIR$284
STN$29100*DATE$2021-02-04*TIME$12:55:31*TEMP$-6.4*DEWP$-8.5*STP$1011.1*SLP$1008.6*VISIB$17.1*WDSP$27.7*PRCP$0.04*SNDP$7.8*FRSHTT$111000*CLDC$66.2*WNDDIR$160
STN$725462*DATE$2021-02-04*TIME$12:55:31*TEMP$-9.7*DEWP$-13.1*STP$1021.2*SLP$1021.5*VISIB$11.2*WDSP$20.4*PRCP$0.03*SNDP$0.0*FRSHTT$110000*CLDC$61.3*WNDDIR$207
STN$725457*DATE$2021-02-04*TIME$12:55:31*TEMP$-19.6*DEWP$-25.2*STP$1018.4*SLP$1033.1*VISIB$15.0*WDSP$14.0*PRCP$0.00*SNDP$0.0*FRSHTT$100000*CLDC$7.0*WNDDIR$348
STN$725456*DATE$2021-02-04*TIME$12:55:31*TEMP$0.0*DEWP$-1.2*STP$996.7*SLP$1029.8*VISIB$3.7*WDSP$10.4*PRCP$0.00*SNDP$0.0*FRSHTT$000000*CLDC$3.5*WNDDIR$286
STN$725469*DATE$2021-02-04*TIME$12:55:31*TEMP$-9.6*DEWP$-14.9*STP$1015.2*SLP$992.0*VISIB$15.7*WDSP$18.3*PRCP$0.00*SNDP$0.0*FRSHTT$100000*CLDC$42.1*WNDDIR$37
STN$725468*DATE$2021-02-04*TIME$12:55:31*TEMP$-11.8*DEWP$-17.9*STP$990.0*SLP$997.4*VISIB$15.6*WDSP$16.3*PRCP$0.00*SNDP$0.0*FRSHTT$100000*CLDC$66.8*WNDDIR$186
STN$655850*DATE$2021-02-04*TIME$12:55:31*TEMP$15.2*DEWP$10.1*STP$992.6*SLP$1011.5*VISIB$8.7*WDSP$7.7*PRCP$0.05*SNDP$0.0*FRSHTT$010000*CLDC$51.6*WNDDIR$264
STN$725741*DATE$2021-02-04*TIME$12:55:31*TEMP$-21.6*DEWP$-23.9*STP$788.7*SLP$1030.2*VISIB$3.7*WDSP$30.2*PRCP$0.22*SNDP$13.4*FRSHTT$111000*CLDC$51.5*WNDDIR$298
STN$725715*DATE$2021-02-04*TIME$12:55:31*TEMP$-5.5*DEWP$-7.8*STP$995.4*SLP$984.0*VISIB$8.2*WDSP$8.6*PRCP$0.00*SNDP$0.0*FRSHTT$100000*CLDC$34.7*WNDDIR$153
STN$109800*DATE$2021-02-04*TIME$12:55:31*TEMP$-5.0*DEWP$-11.5*STP$892.9*SLP$892.3*VISIB$50.4*WDSP$28.6*PRCP$0.30*SNDP$34.3*FRSHTT$111000*CLDC$50.0*WNDDIR$243
STN$725717*DATE$2021-02-04*TIME$12:55:31*TEMP$-2.9*DEWP$-8.7*STP$1026.6*SLP$1021.5*VISIB$15.9*WDSP$4.3*PRCP$0.02*SNDP$0.0*FRSHTT$110000*CLDC$51.0*WNDDIR$31
STN$479100*DATE$2021-02-04*TIME$12:55:31*TEMP$15.2*DEWP$9.6*STP$1002.3*SLP$1002.0*VISIB$9.3*WDSP$21.3*PRCP$0.00*SNDP$0.0*FRSHTT$000000*CLDC$35.8*WNDDIR$212
STN$725716*DATE$2021-02-04*TIME$12:55:31*TEMP$-3.4*DEWP$-5.0*STP$1006.6*SLP$982.2*VISIB$10.7*WDSP$7.0*PRCP$0.00*SNDP$0.0*FRSHTT$100000*CLDC$56.2*WNDDIR$157
STN$124970*DATE$2021-02-04*TIME$12:55:31*TEMP$-2.2*DEWP$-4.5*STP$1008.7*SLP$1018.2*VISIB$7.3*WDSP$21.4*PRCP$0.02*SNDP$1.1*FRSHTT$111000*CLDC$99.8*WNDDIR$212
STN$479090*DATE$2021-02-04*TIME$12:55:31*TEMP$11.4*DEWP$6.1*STP$1016.5*SLP$1019.9*VISIB$21.5*WDSP$11.6*PRCP$0.35*SNDP$0.0*FRSHTT$010000*CLDC$52.0*WNDDIR$267
STN$509680*DATE$2021-02-04*TIME$12:55:31*TEMP$-24.4*DEWP$-28.8*STP$1025.3*SLP$1025.4*VISIB$16.3*WDSP$8.9*PRCP$0.01*SNDP$0.0*FRSHTT$110000*CLDC$50.6*WNDDIR$327
STN$167540*DATE$2021-02-04*TIME$12:55:31*TEMP$2.8*DEWP$-3.0*STP$1016.4*SLP$1015.1*VISIB$8.7*WDSP$25.0*PRCP$0.11*SNDP$0.0*FRSHTT$010000*CLDC$89.9*WNDDIR$131
STN$167543*DATE$2021-02-04*TIME$12:55:31*TEMP$7.5*DEWP$1.3*STP$996.7*SLP$1008.6*VISIB$11.7*WDSP$27.4*PRCP$0.00*SNDP$0.0*FRSHTT$000000*CLDC$43.2*WNDDIR$356
STN$320610*DATE$2021-02-04*TIME$12:55:31*TEMP$-19.5*DEWP$-22.1*STP$1013.7*SLP$1014.4*VISIB$16.3*WDSP$22.5*PRCP$0.08*SNDP$8.7*FRSHTT$111000*CLDC$51.0*WNDDIR$256
STN$711430*DATE$2021-02-04*TIME$12:55:31*TEMP$-13.4*DEWP$-15.9*STP$989.2*SLP$1023.7*VISIB$19.8*WDSP$7.8*PRCP$0.05*SNDP$21.5*FRSHTT$111000*CLDC$50.0*WNDDIR$17
STN$722243*DATE$2021-02-04*TIME$12:55:31*TEMP$7.0*DEWP$0.0*STP$1010.5*SLP$1009.6*VISIB$13.1*WDSP$6.3*PRCP$0.00*SNDP$0.0*FRSHTT$000000*CLDC$50.2*WNDDIR$287
STN$722252*DATE$2021-02-04*TIME$12:55:31*TEMP$-2.1*DEWP$-2.7*STP$1005.0*SLP$993.7*VISIB$2.4*WDSP$18.2*PRCP$0.00*SNDP$0.0*FRSHTT$100000*CLDC$40.8*WNDDIR$127
STN$722255*DATE$2021-02-04*TIME$12:55:31*TEMP$2.9*DEWP$-3.1*STP$1008.6*SLP$1021.3*VISIB$19.1*WDSP$11.2*PRCP$0.12*SNDP$0.0*FRSHTT$010000*CLDC$50.2*WNDDIR$309
STN$442980*DATE$2021-02-04*TIME$12:55:31*TEMP$-6.4*DEWP$-13.4*STP$1002.1*SLP$1030.2*VISIB$47.5*WDSP$7.9*PRCP$0.00*SNDP$0.0*FRSHTT$100000*CLDC$70.9*WNDDIR$249
STN$722249*DATE$2021-02-04*TIME$12:55:31*TEMP$-15.2*DEWP$-20.8*STP$1009.3*SLP$1037.8*VISIB$13.1*WDSP$16.3*PRCP$0.00*SNDP$0.0*FRSHTT$100000*CLDC$23.3*WNDDIR$240
STN$722250*DATE$2021-02-04*TIME$12:55:31*TEMP$1.9*DEWP$-4.8*STP$1018.0*SLP$1021.4*VISIB$13.4*WDSP$9.6*PRCP$0.09*SNDP$0.0*FRSHTT$010000*CLDC$98.6*WNDDIR$161
STN$355320*DATE$2021-02-04*TIME$12:55:31*TEMP$-9.4*DEWP$-13.3*STP$1047.4*SLP$1021.4*VISIB$15.8*WDSP$12.9*PRCP$0.03*SNDP$10.8*FRSHTT$111000*CLDC$91.4*WNDDIR$310
STN$725080*DATE$2021-02-04*TIME$12:55:31*TEMP$-6.3*DEWP$-12.2*STP$1010.7*SLP$1017.9*VISIB$28.2*WDSP$16.9*PRCP$0.13*SNDP$1.3*FRSHTT$111000*CLDC$68.2*WNDDIR$150
STN$170860*DATE$2021-02-04*TIME$12:55:31*TEMP$-0.6*DEWP$-5.8*STP$945.9*SLP$1019.9*VISIB$14.5*WDSP$5.2*PRCP$0.11*SNDP$1.2*FRSHTT$111000*CLDC$50.3*WNDDIR$198
STN$725079*DATE$2021-02-04*TIME$12:55:31*TEMP$-3.2*DEWP$-9.6*STP$1019.2*SLP$1017.7*VISIB$14.2*WDSP$14.5*PRCP$0.16*SNDP$0.0*FRSHTT$110000*CLDC$72.8*WNDDIR$214
STN$937800*DATE$2021-02-04*TIME$12:55:31*TEMP$10.0*DEWP$3.4*STP$1010.3*SLP$1008.9*VISIB$35.5*WDSP$17.6*PRCP$0.04*SNDP$0.0*FRSHTT$010000*CLDC$50.6*WNDDIR$138
STN$339760*DATE$2021-02-04*TIME$12:55:31*TEMP$-10.3*DEWP$-13.7*STP$1027.3*SLP$1033.3*VISIB$8.0*WDSP$5.9*PRCP$0.00*SNDP$1.6*FRSHTT$101000*CLDC$97.0*WNDDIR$208
STN$725075*DATE$2021-02-04*TIME$12:55:31*TEMP$-3.0*DEWP$-8.2*STP$1017.1*SLP$1016.8*VISIB$14.0*WDSP$19.1*PRCP$0.04*SNDP$0.0*FRSHTT$110000*CLDC$50.4*WNDDIR$286
STN$638940*DATE$2021-02-04*TIME$12:55:31*TEMP$9.7*DEWP$3.9*STP$1004.4*SLP$1010.4*VISIB$15.7*WDSP$20.6*PRCP$0.00*SNDP$0.0*FRSHTT$000000*CLDC$64.7*WNDDIR$264
STN$725073*DATE$2021-02-04*TIME$12:55:31*TEMP$-1.9*DEWP$-5.9*STP$985.3*SLP$971.1*VISIB$14.0*WDSP$7.8*PRCP$0.00*SNDP$0.0*FRSHTT$100000*CLDC$60.4*WNDDIR$221
STN$725070*DATE$2021-02-04*TIME$12:55:31*TEMP$-5.4*DEWP$-12.8*STP$1016.6*SLP$1017.4*VISIB$17.4*WDSP$15.0*PRCP$0.24*SNDP$2.4*FRSHTT$111000*CLDC$50.3*WNDDIR$344
STN$959570*DATE$2021-02-04*TIME$12:55:31*TEMP$7.7*DEWP$-1.0*STP$1022.6*SLP$1024.1*VISIB$51.8*WDSP$12.4*PRCP$0.00*SNDP$0.0*FRSHTT$000000*CLDC$2.1*WNDDIR$181
STN$542660*DATE$2021-02-04*TIME$12:55:31*TEMP$-19.0*DEWP$-23.8*STP$1021.7*SLP$1019.4*VISIB$15.2*WDSP$21.0*PRCP$0.00*SNDP$0.0*FRSHTT$100000*CLDC$10.1*WNDDIR$168
STN$39730*DATE$2021-02-04*TIME$12:55:31*TEMP$1.2*DEWP$-0.4*STP$984.9*SLP$1010.7*VISIB$11.0*WDSP$13.7*PRCP$0.31*SNDP$0.2*FRSHTT$011000*CLDC$59.7*WNDDIR$227
STN$785201*DATE$2021-02-04*TIME$12:55:31*TEMP$18.9*DEWP$13.0*STP$1009.5*SLP$1017.1*VISIB$90.6*WDSP$12.5*PRCP$0.00*SNDP$0.0*FRSHTT$000000*CLDC$98.6*WNDDIR$313
STN$330004*DATE$2021-02-04*TIME$12:55:31*TEMP$-1.5*DEWP$-3.1*STP$1003.2*SLP$976.6*VISIB$0.9*WDSP$9.9*PRCP$0.00*SNDP$0.0*FRSHTT$100000*CLDC$9.1*WNDDIR$34
STN$330005*DATE$2021-02-04*TIME$12:55:31*TEMP$-0.5*DEWP$-0.8*STP$996.2*SLP$1028.0*VISIB$0.2*WDSP$8.2*PRCP$0.00*SNDP$0.0*FRSHTT$100000*CLDC$87.6*WNDDIR$145
STN$785203*DATE$2021-02-04*TIME$12:55:31*TEMP$20.2*DEWP$13.2*STP$1002.9*SLP$995.1*VISIB$19.5*WDSP$14.4*PRCP$0.00*SNDP$0.0*FRSHTT$000000*CLDC$27.5*WNDDIR$204
STN$330002*DATE$2021-02-04*TIME$12:55:31*TEMP$-0.5*DEWP$-1.6*STP$996.2*SLP$998.4*VISIB$3.3*WDSP$12.5*PRCP$0.00*SNDP$0.0*FRSHTT$100000*CLDC$30.6*WNDDIR$65
STN$268820*DATE$2021-02-04*TIME$12:55:31*TEMP$-8.7*DEWP$-13.1*STP$1007.6*SLP$1019.9*VISIB$16.2*WDSP$12.4*PRCP$0.03*SNDP$3.3*FRSHTT$111000*CLDC$50.1*WNDDIR$332
STN$330003*DATE$2021-02-04*TIME$12:55:31*TEMP$-0.8*DEWP$-2.0*STP$996.2*SLP$1008.6*VISIB$1.0*WDSP$7.0*PRCP$0.00*SNDP$0.0*FRSHTT$100000*CLDC$2.6*WNDDIR$115
STN$325940*DATE$2021-02-04*TIME$12:55:31*TEMP$-2.9*DEWP$-12.4*STP$1000.0*SLP$999.3*VISIB$20.6*WDSP$22.6*PRCP$0.11*SNDP$2.3*FRSHTT$111000*CLDC$52.0*WNDDIR$77
STN$727060*DATE$2021-02-04*TIME$12:55:31*TEMP$-12.8*DEWP$-19.6*STP$1006.3*SLP$1013.5*VISIB$17.5*WDSP$22.0*PRCP$0.00*SNDP$1.6*FRSHTT$101000*CLDC$50.4*WNDDIR$135
STN$275530*DATE$2021-02-04*TIME$12:55:31*TEMP$-2.4*DEWP$-4.8*STP$1019.4*SLP$1016.3*VISIB$6.2*WDSP$14.1*PRCP$0.04*SNDP$3.6*FRSHTT$111000*CLDC$51.1*WNDDIR$14
STN$108050*DATE$2021-02-04*TIME$12:55:31*TEMP$-0.2*DEWP$-2.8*STP$1004.9*SLP$1015.0*VISIB$9.7*WDSP$14.6*PRCP$0.03*SNDP$0.0*FRSHTT$110000*CLDC$66.5*WNDDIR$339
STN$476550*DATE$2021-02-04*TIME$12:55:31*TEMP$2.4*DEWP$-5.5*STP$1017.0*SLP$1016.7*VISIB$23.8*WDSP$17.2*PRCP$0.10*SNDP$0.0*FRSHTT$010000*CLDC$50.7*WNDDIR$347
STN$123600*DATE$2021-02-04*TIME$12:55:31*TEMP$-2.8*DEWP$-4.6*STP$1012.5*SLP$1015.3*VISIB$8.7*WDSP$16.8*PRCP$0.04*SNDP$1.5*FRSHTT$111000*CLDC$50.1*WNDDIR$35
STN$61910*DATE$2021-02-04*TIME$12:55:31*TEMP$-0.1*DEWP$-1.4*STP$1022.8*SLP$1018.3*VISIB$14.1*WDSP$34.6*PRCP$0.03*SNDP$0.0*FRSHTT$110000*CLDC$50.7*WNDDIR$104
STN$744672*DATE$2021-02-04*TIME$12:55:31*TEMP$0.0*DEWP$0.0*STP$995.6*SLP$1013.2*VISIB$4.4*WDSP$21.0*PRCP$0.00*SNDP$0.0*FRSHTT$000000*CLDC$66.0*WNDDIR$4
STN$77700*DATE$2021-02-04*TIME$12:55:31*TEMP$4.3*DEWP$1.5*STP$1018.0*SLP$1020.4*VISIB$16.8*WDSP$31.2*PRCP$0.12*SNDP$0.0*FRSHTT$010000*CLDC$56.6*WNDDIR$44
STN$229390*DATE$2021-02-04*TIME$12:55:31*TEMP$-1.0*DEWP$-3.8*STP$982.4*SLP$998.9*VISIB$8.3*WDSP$19.7*PRCP$0.00*SNDP$0.0*FRSHTT$100000*CLDC$87.3*WNDDIR$110
STN$471850*DATE$2021-02-04*TIME$12:55:31*TEMP$4.1*DEWP$-2.2*STP$1013.1*SLP$1023.9*VISIB$22.1*WDSP$36.6*PRCP$0.02*SNDP$0.0*FRSHTT$010000*CLDC$61.2*WNDDIR$68
STN$367780*DATE$2021-02-04*TIME$12:55:31*TEMP$-1.7*DEWP$-4.1*STP$1021.1*SLP$1030.8*VISIB$21.4*WDSP$7.0*PRCP$0.00*SNDP$0.0*FRSHTT$100000*CLDC$85.6*WNDDIR$288
STN$172400*DATE$2021-02-04*TIME$12:55:31*TEMP$-1.7*DEWP$-6.7*STP$951.4*SLP$1018.2*VISIB$24.3*WDSP$10.2*PRCP$0.05*SNDP$0.5*FRSHTT$111000*CLDC$52.8*WNDDIR$191
STN$700637*DATE$2021-02-04*TIME$12:55:31*TEMP$-23.3*DEWP$-24.9*STP$1021.3*SLP$1019.4*VISIB$9.4*WDSP$22.3*PRCP$0.00*SNDP$0.0*FRSHTT$100000*CLDC$66.5*WNDDIR$270
STN$532310*DATE$2021-02-04*TIME$12:55:31*TEMP$-11.4*DEWP$-21.0*STP$850.5*SLP$846.4*VISIB$31.1*WDSP$23.5*PRCP$0.01*SNDP$0.0*FRSHTT$110000*CLDC$58.7*WNDDIR$223
STN$700634*DATE$2021-02-04*TIME$12:55:31*TEMP$-24.3*DEWP$-26.8*STP$998.5*SLP$1004.7*VISIB$11.0*WDSP$21.5*PRCP$0.00*SNDP$0.0*FRSHTT$100000*CLDC$13.3*WNDDIR$164
STN$348660*DATE$2021-02-04*TIME$12:55:31*TEMP$-3.0*DEWP$-5.5*STP$1018.9*SLP$1019.5*VISIB$12.4*WDSP$11.2*PRCP$0.19*SNDP$1.7*FRSHTT$111000*CLDC$71.3*WNDDIR$74
STN$982220*DATE$2021-02-04*TIME$12:55:31*TEMP$12.7*DEWP$8.0*STP$981.3*SLP$1015.8*VISIB$25.2*WDSP$4.1*PRCP$0.00*SNDP$0.0*FRSHTT$000000*CLDC$75.9*WNDDIR$189
STN$279280*DATE$2021-02-04*TIME$12:55:31*TEMP$-8.4*DEWP$-11.0*STP$1009.9*SLP$1018.3*VISIB$6.8*WDSP$13.5*PRCP$0.04*SNDP$6.0*FRSHTT$111000*CLDC$96.9*WNDDIR$298
STN$947530*DATE$2021-02-04*TIME$12:55:31*TEMP$15.8*DEWP$13.7*STP$997.4*SLP$1012.9*VISIB$7.9*WDSP$15.0*PRCP$0.00*SNDP$0.0*FRSHTT$000000*CLDC$44.8*WNDDIR$262
STN$116430*DATE$2021-02-04*TIME$12:55:31*TEMP$-4.3*DEWP$-7.7*STP$957.7*SLP$956.3*VISIB$13.4*WDSP$26.5*PRCP$0.23*SNDP$19.7*FRSHTT$111000*CLDC$95.1*WNDDIR$249
STN$804130*DATE$2021-02-04*TIME$12:55:31*TEMP$17.2*DEWP$9.0*STP$992.4*SLP$1013.1*VISIB$14.6*WDSP$3.1*PRCP$0.00*SNDP$0.0*FRSHTT$000000*CLDC$63.8*WNDDIR$125
STN$767410*DATE$2021-02-04*TIME$12:55:31*TEMP$19.7*DEWP$17.2*STP$1013.9*SLP$1015.1*VISIB$8.1*WDSP$14.0*PRCP$0.02*SNDP$0.0*FRSHTT$010000*CLDC$51.1*WNDDIR$203
STN$266330*DATE$2021-02-04*TIME$12:55:31*TEMP$-8.5*DEWP$-10.6*STP$1000.2*SLP$1012.5*VISIB$7.2*WDSP$7.5*PRCP$0.09*SNDP$5.2*FRSHTT$111000*CLDC$50.3*WNDDIR$314
STN$37120*DATE$2021-02-04*TIME$12:55:31*TEMP$-1.0*DEWP$-3.7*STP$1002.9*SLP$1013.8*VISIB$9.5*WDSP$15.4*PRCP$0.00*SNDP$0.0*FRSHTT$100000*CLDC$53.5*WNDDIR$143
STN$407120*DATE$2021-02-04*TIME$12:55:31*TEMP$-2.3*DEWP$-5.2*STP$866.7*SLP$1021.6*VISIB$8.1*WDSP$8.3*PRCP$0.14*SNDP$0.9*FRSHTT$111000*CLDC$50.5*WNDDIR$298
STN$380440*DATE$2021-02-04*TIME$12:55:31*TEMP$-0.7*DEWP$-3.8*STP$1027.2*SLP$1021.3*VISIB$21.1*WDSP$12.4*PRCP$0.00*SNDP$2.2*FRSHTT$101000*CLDC$97.2*WNDDIR$60
STN$346010*DATE$2021-02-04*TIME$12:55:31*TEMP$-6.3*DEWP$-9.5*STP$1018.4*SLP$1019.3*VISIB$6.0*WDSP$17.0*PRCP$0.16*SNDP$2.2*FRSHTT$111000*CLDC$75.9*WNDDIR$181
STN$683000*DATE$2021-02-04*TIME$12:55:31*TEMP$7.0*DEWP$5.3*STP$1014.7*SLP$1010.3*VISIB$9.7*WDSP$43.0*PRCP$0.00*SNDP$0.0*FRSHTT$000000*CLDC$44.8*WNDDIR$71
STN$442320*DATE$2021-02-04*TIME$12:55:31*TEMP$-23.8*DEWP$-29.6*STP$1051.3*SLP$1041.3*VISIB$45.6*WDSP$4.3*PRCP$0.00*SNDP$0.0*FRSHTT$100000*CLDC$13.3*WNDDIR$357
STN$722201*DATE$2021-02-04*TIME$12:55:31*TEMP$1.9*DEWP$-1.4*STP$993.9*SLP$959.9*VISIB$16.1*WDSP$0.3*PRCP$0.00*SNDP$0.0*FRSHTT$000000*CLDC$40.1*WNDDIR$237
STN$800970*DATE$2021-02-04*TIME$12:55:31*TEMP$19.9*DEWP$17.4*STP$976.7*SLP$1011.2*VISIB$7.7*WDSP$11.6*PRCP$0.00*SNDP$0.0*FRSHTT$000000*CLDC$56.3*WNDDIR$150
STN$722200*DATE$2021-02-04*TIME$12:55:31*TEMP$8.4*DEWP$5.2*STP$1020.5*SLP$1021.3*VISIB$12.2*WDSP$11.4*PRCP$0.10*SNDP$0.0*FRSHTT$010000*CLDC$96.5*WNDDIR$174
STN$722202*DATE$2021-02-04*TIME$12:55:31*TEMP$14.3*DEWP$9.3*STP$981.1*SLP$991.2*VISIB$15.8*WDSP$14.6*PRCP$0.00*SNDP$0.0*FRSHTT$000000*CLDC$55.2*WNDDIR$23
STN$167464*DATE$2021-02-04*TIME$12:55:31*TEMP$1.6*DEWP$-2.2*STP$1004.8*SLP$1017.2*VISIB$15.0*WDSP$9.6*PRCP$0.28*SNDP$0.0*FRSHTT$010000*CLDC$50.6*WNDDIR$157
STN$722204*DATE$2021-02-04*TIME$12:55:31*TEMP$-19.3*DEWP$-27.2*STP$1009.4*SLP$1009.8*VISIB$13.6*WDSP$19.5*PRCP$0.00*SNDP$0.0*FRSHTT$100000*CLDC$48.7*WNDDIR$195
STN$863300*DATE$2021-02-04*TIME$12:55:31*TEMP$17.3*DEWP$12.4*STP$1011.5*SLP$1011.2*VISIB$16.9*WDSP$12.5*PRCP$0.30*SNDP$0.0*FRSHTT$010000*CLDC$50.3*WNDDIR$134
STN$94690*DATE$2021-02-04*TIME$12:55:31*TEMP$-1.1*DEWP$-4.0*STP$1021.7*SLP$1016.1*VISIB$5.4*WDSP$19.3*PRCP$0.06*SNDP$0.4*FRSHTT$111000*CLDC$51.2*WNDDIR$239
STN$711896*DATE$2021-02-04*TIME$12:55:31*TEMP$-15.6*DEWP$-20.5*STP$1013.3*SLP$1011.4*VISIB$38.1*WDSP$14.4*PRCP$0.00*SNDP$0.0*FRSHTT$100000*CLDC$49.8*WNDDIR$24
STN$971800*DATE$2021-02-04*TIME$12:55:31*TEMP$9.4*DEWP$6.6*STP$1006.6*SLP$1009.4*VISIB$8.8*WDSP$10.8*PRCP$0.38*SNDP$0.0*FRSHTT$010000*CLDC$*WNDDIR$299
STN$764050*DATE$2021-02-04*TIME$12:55:31*TEMP$4.3*DEWP$-6.3*STP$1011.9*SLP$1014.9*VISIB$28.9*WDSP$19.2*PRCP$0.00*SNDP$0.0*FRSHTT$000000*CLDC$49.2*WNDDIR$264
STN$35881*DATE$2021-02-04*TIME$12:55:31*TEMP$-0.6*DEWP$-1.9*STP$1008.1*SLP$1016.2*VISIB$4.8*WDSP$21.0*PRCP$0.00*SNDP$0.0*FRSHTT$100000*CLDC$55.9*WNDDIR$113
STN$729360*DATE$2021-02-04*TIME$12:55:31*TEMP$-13.4*DEWP$-17.1*STP$997.9*SLP$1026.1*VISIB$16.1*WDSP$10.0*PRCP$0.00*SNDP$24.8*FRSHTT$101000*CLDC$50.5*WNDDIR$108
STN$106280*DATE$2021-02-04*TIME$12:55:31*TEMP$-0.2*DEWP$-2.7*STP$998.4*SLP$1013.2*VISIB$23.0*WDSP$7.2*PRCP$0.00*SNDP$0.0*FRSHTT$100000*CLDC$7.0*WNDDIR$264
STN$764055*DATE$2021-02-04*TIME$12:55:31*TEMP$6.9*DEWP$-0.5*STP$1012.9*SLP$1007.3*VISIB$20.6*WDSP$7.9*PRCP$0.00*SNDP$0.0*FRSHTT$000000*CLDC$43.5*WNDDIR$314
STN$474040*DATE$2021-02-04*TIME$12:55:31*TEMP$-7.4*DEWP$-12.5*STP$1013.0*SLP$1014.2*VISIB$17.3*WDSP$16.2*PRCP$0.15*SNDP$0.0*FRSHTT$110000*CLDC$96.8*WNDDIR$209
STN$36840*DATE$2021-02-04*TIME$12:55:31*TEMP$1.2*DEWP$-1.7*STP$987.6*SLP$998.1*VISIB$34.8*WDSP$21.0*PRCP$0.11*SNDP$0.0*FRSHTT$010000*CLDC$50.4*WNDDIR$317
STN$261670*DATE$2021-02-04*TIME$12:55:31*TEMP$-8.4*DEWP$-9.6*STP$1011.0*SLP$1012.1*VISIB$9.7*WDSP$11.3*PRCP$0.08*SNDP$7.9*FRSHTT$111000*CLDC$66.0*WNDDIR$159
STN$296760*DATE$2021-02-04*TIME$12:55:31*TEMP$-9.0*DEWP$-12.3*STP$996.4*SLP$1042.1*VISIB$17.8*WDSP$2.9*PRCP$0.00*SNDP$9.2*FRSHTT$101000*CLDC$51.0*WNDDIR$283
STN$949700*DATE$2021-02-04*TIME$12:55:31*TEMP$13.2*DEWP$5.9*STP$1009.0*SLP$1013.7*VISIB$34.6*WDSP$15.3*PRCP$0.04*SNDP$0.0*FRSHTT$010000*CLDC$94.8*WNDDIR$255
STN$728560*DATE$2021-02-04*TIME$12:55:31*TEMP$-16.2*DEWP$-19.4*STP$1002.3*SLP$1032.4*VISIB$25.3*WDSP$9.7*PRCP$0.00*SNDP$8.1*FRSHTT$101000*CLDC$52.4*WNDDIR$162
STN$124690*DATE$2021-02-04*TIME$12:55:31*TEMP$-0.4*DEWP$-3.0*STP$1001.9*SLP$1015.4*VISIB$8.7*WDSP$15.1*PRCP$0.09*SNDP$0.8*FRSHTT$111000*CLDC$64.0*WNDDIR$195
STN$32150*DATE$2021-02-04*TIME$12:55:31*TEMP$1.9*DEWP$-0.5*STP$1010.5*SLP$1011.7*VISIB$23.4*WDSP$19.9*PRCP$0.35*SNDP$0.0*FRSHTT$010000*CLDC$51.0*WNDDIR$5
STN$475200*DATE$2021-02-04*TIME$12:55:31*TEMP$-4.1*DEWP$-7.1*STP$1006.3*SLP$1019.3*VISIB$8.5*WDSP$9.3*PRCP$0.30*SNDP$0.0*FRSHTT$110000*CLDC$96.2*WNDDIR$34
STN$728550*DATE$2021-02-04*TIME$12:55:31*TEMP$-13.0*DEWP$-19.0*STP$992.2*SLP$1033.0*VISIB$23.0*WDSP$29.6*PRCP$0.00*SNDP$9.7*FRSHTT$101000*CLDC$50.8*WNDDIR$206
STN$93850*DATE$2021-02-04*TIME$12:55:31*TEMP$-1.4*DEWP$-3.7*STP$1011.9*SLP$1016.0*VISIB$4.4*WDSP$16.9*PRCP$0.09*SNDP$0.2*FRSHTT$111000*CLDC$71.5*WNDDIR$166
STN$76380*DATE$2021-02-04*TIME$12:55:31*TEMP$3.2*DEWP$-1.2*STP$1019.7*SLP$1018.2*VISIB$20.1*WDSP$17.4*PRCP$0.11*SNDP$0.0*FRSHTT$010000*CLDC$72.1*WNDDIR$329
STN$690020*DATE$2021-02-04*TIME$12:55:31*TEMP$3.2*DEWP$0.7*STP$978.9*SLP$1016.8*VISIB$16.0*WDSP$1.8*PRCP$0.00*SNDP$0.0*FRSHTT$000000*CLDC$86.4*WNDDIR$114
STN$353860*DATE$2021-02-04*TIME$12:55:31*TEMP$-0.8*DEWP$-3.5*STP$1018.6*SLP$1036.0*VISIB$10.6*WDSP$26.5*PRCP$0.16*SNDP$0.0*FRSHTT$110000*CLDC$97.0*WNDDIR$163
STN$107430*DATE$2021-02-04*TIME$12:55:31*TEMP$-1.2*DEWP$-4.7*STP$977.8*SLP$1013.8*VISIB$13.7*WDSP$18.3*PRCP$0.05*SNDP$0.6*FRSHTT$111000*CLDC$50.2*WNDDIR$356
STN$161460*DATE$2021-02-04*TIME$12:55:31*TEMP$0.6*DEWP$-0.9*STP$1024.3*SLP$1027.5*VISIB$0.3*WDSP$7.7*PRCP$0.00*SNDP$0.0*FRSHTT$000000*CLDC$11.5*WNDDIR$62
STN$239870*DATE$2021-02-04*TIME$12:55:31*TEMP$-16.0*DEWP$-19.2*STP$1022.2*SLP$1027.2*VISIB$32.0*WDSP$8.9*PRCP$0.04*SNDP$49.8*FRSHTT$111000*CLDC$50.1*WNDDIR$24
STN$20660*DATE$2021-02-04*TIME$12:55:31*TEMP$-8.8*DEWP$-11.8*STP$1023.3*SLP$1020.6*VISIB$29.3*WDSP$9.5*PRCP$0.00*SNDP$20.5*FRSHTT$101000*CLDC$50.3*WNDDIR$295
STN$408230*DATE$2021-02-04*TIME$12:55:31*TEMP$5.9*DEWP$0.4*STP$991.6*SLP$962.7*VISIB$14.3*WDSP$11.0*PRCP$0.00*SNDP$0.0*FRSHTT$000000*CLDC$3.9*WNDDIR$228
STN$161470*DATE$2021-02-04*TIME$12:55:31*TEMP$0.2*DEWP$-3.1*STP$1005.3*SLP$1000.7*VISIB$1.1*WDSP$6.1*PRCP$0.09*SNDP$0.0*FRSHTT$010000*CLDC$75.9*WNDDIR$354
STN$117300*DATE$2021-02-04*TIME$12:55:31*TEMP$-2.3*DEWP$-2.7*STP$862.2*SLP$848.0*VISIB$23.7*WDSP$28.7*PRCP$0.00*SNDP$25.9*FRSHTT$101000*CLDC$50.3*WNDDIR$39
STN$525760*DATE$2021-02-04*TIME$12:55:31*TEMP$-3.5*DEWP$-17.9*STP$850.1*SLP$850.6*VISIB$24.4*WDSP$13.2*PRCP$0.00*SNDP$0.0*FRSHTT$100000*CLDC$21.5*WNDDIR$0
STN$681740*DATE$2021-02-04*TIME$12:55:31*TEMP$9.7*DEWP$2.1*STP$879.1*SLP$875.2*VISIB$23.9*WDSP$10.8*PRCP$0.06*SNDP$0.0*FRSHTT$010000*CLDC$50.9*WNDDIR$197
STN$20620*DATE$2021-02-04*TIME$12:55:31*TEMP$-4.5*DEWP$-5.4*STP$1002.9*SLP$1019.8*VISIB$31.3*WDSP$10.4*PRCP$0.02*SNDP$0.0*FRSHTT$110000*CLDC$72.0*WNDDIR$116
STN$315870*DATE$2021-02-04*TIME$12:55:31*TEMP$-26.2*DEWP$-29.8*STP$1020.9*SLP$1024.0*VISIB$24.8*WDSP$7.1*PRCP$0.00*SNDP$2.4*FRSHTT$101000*CLDC$90.2*WNDDIR$2
STN$170672*DATE$2021-02-04*TIME$12:55:31*TEMP$-2.7*DEWP$-4.7*STP$999.8*SLP$969.4*VISIB$4.9*WDSP$5.4*PRCP$0.00*SNDP$0.0*FRSHTT$100000*CLDC$84.3*WNDDIR$214
STN$170674*DATE$2021-02-04*TIME$12:55:31*TEMP$2.2*DEWP$-2.1*STP$1019.8*SLP$1033.8*VISIB$5.7*WDSP$12.7*PRCP$0.00*SNDP$0.0*FRSHTT$000000*CLDC$64.7*WNDDIR$157
STN$725383*DATE$2021-02-04*TIME$12:55:31*TEMP$-7.7*DEWP$-10.3*STP$1010.1*SLP$1015.5*VISIB$11.9*WDSP$8.1*PRCP$0.00*SNDP$0.0*FRSHTT$100000*CLDC$74.3*WNDDIR$54
STN$725384*DATE$2021-02-04*TIME$12:55:31*TEMP$-6.7*DEWP$-10.5*STP$997.5*SLP$1006.0*VISIB$9.4*WDSP$16.7*PRCP$0.00*SNDP$0.0*FRSHTT$100000*CLDC$59.6*WNDDIR$265
STN$478240*DATE$2021-02-04*TIME$12:55:31*TEMP$0.0*DEWP$-4.1*STP$1005.1*SLP$1023.2*VISIB$14.3*WDSP$2.8*PRCP$0.01*SNDP$0.0*FRSHTT$110000*CLDC$50.1*WNDDIR$188
STN$29170*DATE$2021-02-04*TIME$12:55:31*TEMP$-6.1*DEWP$-7.5*STP$1005.6*SLP$1008.9*VISIB$11.3*WDSP$15.1*PRCP$0.10*SNDP$14.2*FRSHTT$111000*CLDC$84.5*WNDDIR$114
STN$370540*DATE$2021-02-04*TIME$12:55:31*TEMP$-2.5*DEWP$-5.9*STP$1009.9*SLP$1021.9*VISIB$7.6*WDSP$11.2*PRCP$0.02*SNDP$2.0*FRSHTT$111000*CLDC$55.4*WNDDIR$276
STN$725390*DATE$2021-02-04*TIME$12:55:31*TEMP$-9.6*DEWP$-12.9*STP$990.0*SLP$1021.8*VISIB$13.1*WDSP$13.8*PRCP$0.06*SNDP$5.4*FRSHTT$111000*CLDC$86.5*WNDDIR$208
STN$170660*DATE$2021-02-04*TIME$12:55:31*TEMP$3.7*DEWP$1.5*STP$1025.4*SLP$1025.5*VISIB$11.1*WDSP$5.0*PRCP$0.00*SNDP$0.0*FRSHTT$000000*CLDC$83.7*WNDDIR$167
STN$13610*DATE$2021-02-04*TIME$12:55:31*TEMP$-8.6*DEWP$-9.2*STP$982.9*SLP$1002.0*VISIB$0.9*WDSP$30.1*PRCP$0.22*SNDP$0.0*FRSHTT$110000*CLDC$52.6*WNDDIR$252
STN$25550*DATE$2021-02-04*TIME$12:55:31*TEMP$-3.2*DEWP$-4.9*STP$993.6*SLP$996.5*VISIB$13.2*WDSP$12.0*PRCP$0.06*SNDP$11.1*FRSHTT$111000*CLDC$50.4*WNDDIR$314
STN$114060*DATE$2021-02-04*TIME$12:55:31*TEMP$-1.0*DEWP$-3.3*STP$986.6*SLP$1019.7*VISIB$10.5*WDSP$11.3*PRCP$0.04*SNDP$1.5*FRSHTT$111000*CLDC$50.9*WNDDIR$258
STN$941230*DATE$2021-02-04*TIME$12:55:31*TEMP$27.6*DEWP$25.9*STP$1010.0*SLP$1003.6*VISIB$20.0*WDSP$21.3*PRCP$1.08*SNDP$0.0*FRSHTT$010000*CLDC$51.1*WNDDIR$22
STN$25540*DATE$2021-02-04*TIME$12:55:31*TEMP$-1.7*DEWP$-2.4*STP$1002.9*SLP$977.8*VISIB$14.2*WDSP$14.6*PRCP$0.08*SNDP$0.0*FRSHTT$110000*CLDC$73.6*WNDDIR$225
STN$129350*DATE$2021-02-04*TIME$12:55:31*TEMP$-2.0*DEWP$-4.6*STP$1023.3*SLP$1020.8*VISIB$10.9*WDSP$10.9*PRCP$0.02*SNDP$1.8*FRSHTT$111000*CLDC$97.0*WNDDIR$98
STN$443540*DATE$2021-02-04*TIME$12:55:31*TEMP$-14.9*DEWP$-18.9*STP$1038.1*SLP$1040.6*VISIB$49.8*WDSP$26.4*PRCP$0.00*SNDP$0.0*FRSHTT$100000*CLDC$75.1*WNDDIR$218
STN$25520*DATE$2021-02-04*TIME$12:55:31*TEMP$-0.9*DEWP$-2.5*STP$1021.3*SLP$1012.6*VISIB$9.2*WDSP$12.7*PRCP$0.00*SNDP$0.0*FRSHTT$100000*CLDC$77.2*WNDDIR$276
STN$343210*DATE$2021-02-04*TIME$12:55:31*TEMP$-0.1*DEWP$-1.4*STP$1005.5*SLP$1023.4*VISIB$8.9*WDSP$19.7*PRCP$0.07*SNDP$0.0*FRSHTT$110000*CLDC$51.8*WNDDIR$8
STN$10100*DATE$2021-02-04*TIME$12:55:31*TEMP$-1.4*DEWP$-5.6*STP$1003.4*SLP$1002.9*VISIB$13.9*WDSP$33.8*PRCP$0.15*SNDP$0.0*FRSHTT$110000*CLDC$77.3*WNDDIR$354
STN$712085*DATE$2021-02-04*TIME$12:55:31*TEMP$1.1*DEWP$-1.0*STP$1023.8*SLP$1021.2*VISIB$26.8*WDSP$8.4*PRCP$0.00*SNDP$0.0*FRSHTT$000000*CLDC$77.2*WNDDIR$7
STN$319810*DATE$2021-02-04*TIME$12:55:31*TEMP$-22.4*DEWP$-28.5*STP$1013.5*SLP$1023.1*VISIB$50.7*WDSP$8.7*PRCP$0.01*SNDP$5.5*FRSHTT$111000*CLDC$52.3*WNDDIR$181
STN$319811*DATE$2021-02-04*TIME$12:55:31*TEMP$-17.6*DEWP$-18.9*STP$1010.5*SLP$984.2*VISIB$2.7*WDSP$33.3*PRCP$0.00*SNDP$0.0*FRSHTT$100000*CLDC$52.7*WNDDIR$330
STN$572650*DATE$2021-02-04*TIME$12:55:31*TEMP$0.5*DEWP$-6.3*STP$1018.4*SLP$1025.8*VISIB$9.3*WDSP$8.0*PRCP$0.03*SNDP$0.0*FRSHTT$110000*CLDC$93.2*WNDDIR$307
STN$24600*DATE$2021-02-04*TIME$12:55:31*TEMP$-2.0*DEWP$-3.3*STP$1008.7*SLP$1009.6*VISIB$8.8*WDSP$19.2*PRCP$0.04*SNDP$3.8*FRSHTT$111000*CLDC$51.5*WNDDIR$129
STN$319870*DATE$2021-02-04*TIME$12:55:31*TEMP$-15.0*DEWP$-22.7*STP$1007.1*SLP$1021.3*VISIB$47.5*WDSP$13.5*PRCP$0.00*SNDP$0.8*FRSHTT$101000*CLDC$50.5*WNDDIR$334
STN$802190*DATE$2021-02-04*TIME$12:55:31*TEMP$23.7*DEWP$12.7*STP$974.6*SLP$1007.5*VISIB$8.7*WDSP$8.8*PRCP$0.00*SNDP$0.0*FRSHTT$000000*CLDC$82.7*WNDDIR$124
STN$129700*DATE$2021-02-04*TIME$12:55:31*TEMP$-2.2*DEWP$-4.3*STP$1007.5*SLP$1017.9*VISIB$8.6*WDSP$8.3*PRCP$0.08*SNDP$1.2*FRSHTT$111000*CLDC$77.6*WNDDIR$263
STN$677790*DATE$2021-02-04*TIME$12:55:31*TEMP$7.7*DEWP$4.1*STP$904.5*SLP$909.7*VISIB$47.4*WDSP$5.2*PRCP$0.16*SNDP$0.0*FRSHTT$010000*CLDC$53.8*WNDDIR$54
STN$389740*DATE$2021-02-04*TIME$12:55:31*TEMP$10.4*DEWP$2.2*STP$1011.8*SLP$1018.9*VISIB$17.9*WDSP$10.0*PRCP$0.01*SNDP$0.1*FRSHTT$011000*CLDC$78.6*WNDDIR$104
STN$289000*DATE$2021-02-04*TIME$12:55:31*TEMP$-10.5*DEWP$-13.9*STP$1010.1*SLP$1009.9*VISIB$6.3*WDSP$11.9*PRCP$0.02*SNDP$1.7*FRSHTT$111000*CLDC$74.2*WNDDIR$51
STN$240510*DATE$2021-02-04*TIME$12:55:31*TEMP$-38.5*DEWP$-42.6*STP$1014.6*SLP$1031.5*VISIB$35.9*WDSP$20.2*PRCP$0.02*SNDP$12.9*FRSHTT$111000*CLDC$50.4*WNDDIR$61
STN$66800*DATE$2021-02-04*TIME$12:55:31*TEMP$-6.7*DEWP$-12.3*STP$859.6*SLP$857.6*VISIB$40.3*WDSP$34.0*PRCP$0.33*SNDP$36.0*FRSHTT$111000*CLDC$50.0*WNDDIR$95
STN$716040*DATE$2021-02-04*TIME$12:55:31*TEMP$0.7*DEWP$0.5*STP$1005.9*SLP$1012.4*VISIB$9.0*WDSP$10.9*PRCP$0.02*SNDP$1.1*FRSHTT$011000*CLDC$76.3*WNDDIR$335
STN$66811*DATE$2021-02-04*TIME$12:55:31*TEMP$0.0*DEWP$-6.4*STP$999.3*SLP$1001.8*VISIB$9.9*WDSP$20.0*PRCP$0.00*SNDP$0.0*FRSHTT$000000*CLDC$62.2*WNDDIR$76
STN$21280*DATE$2021-02-04*TIME$12:55:31*TEMP$-12.5*DEWP$-14.4*STP$986.3*SLP$1011.4*VISIB$42.3*WDSP$5.9*PRCP$0.09*SNDP$21.7*FRSHTT$111000*CLDC$50.2*WNDDIR$339
STN$101730*DATE$2021-02-04*TIME$12:55:31*TEMP$0.7*DEWP$0.0*STP$994.1*SLP$1015.3*VISIB$2.1*WDSP$11.9*PRCP$0.00*SNDP$0.0*FRSHTT$000000*CLDC$70.6*WNDDIR$64
STN$21290*DATE$2021-02-04*TIME$12:55:31*TEMP$-8.3*DEWP$-10.0*STP$996.5*SLP$1021.6*VISIB$21.3*WDSP$4.6*PRCP$0.08*SNDP$17.8*FRSHTT$111000*CLDC$71.0*WNDDIR$271
STN$561060*DATE$2021-02-04*TIME$12:55:31*TEMP$-3.2*DEWP$-17.8*STP$617.6*SLP$616.1*VISIB$28.6*WDSP$10.6*PRCP$0.00*SNDP$0.0*FRSHTT$100000*CLDC$28.7*WNDDIR$352
STN$21330*DATE$2021-02-04*TIME$12:55:31*TEMP$-5.2*DEWP$-6.1*STP$1016.2*SLP$1023.2*VISIB$46.7*WDSP$3.0*PRCP$0.00*SNDP$2.7*FRSHTT$101000*CLDC$50.4*WNDDIR$155
STN$874800*DATE$2021-02-04*TIME$12:55:31*TEMP$15.4*DEWP$10.2*STP$1012.9*SLP$1011.7*VISIB$13.7*WDSP$13.6*PRCP$0.13*SNDP$0.0*FRSHTT$010000*CLDC$55.3*WNDDIR$348
STN$360960*DATE$2021-02-04*TIME$12:55:31*TEMP$-19.8*DEWP$-22.3*STP$1001.7*SLP$1044.4*VISIB$7.9*WDSP$4.4*PRCP$0.01*SNDP$6.1*FRSHTT$111000*CLDC$51.1*WNDDIR$59
STN$21660*DATE$2021-02-04*TIME$12:55:31*TEMP$-3.9*DEWP$-4.7*STP$1004.9*SLP$1021.4*VISIB$28.8*WDSP$1.7*PRCP$0.00*SNDP$0.0*FRSHTT$100000*CLDC$44.5*WNDDIR$273
STN$160400*DATE$2021-02-04*TIME$12:55:31*TEMP$-1.9*DEWP$-7.8*STP$915.0*SLP$916.6*VISIB$11.6*WDSP$4.7*PRCP$0.00*SNDP$21.5*FRSHTT$101000*CLDC$53.1*WNDDIR$264
STN$700001*DATE$2021-02-04*TIME$12:55:31*TEMP$-17.2*DEWP$-18.5*STP$1006.5*SLP$1005.0*VISIB$15.5*WDSP$8.7*PRCP$0.00*SNDP$0.0*FRSHTT$100000*CLDC$42.7*WNDDIR$66
STN$470410*DATE$2021-02-04*TIME$12:55:31*TEMP$-8.1*DEWP$-14.2*STP$1019.6*SLP$1022.4*VISIB$12.5*WDSP$8.1*PRCP$0.01*SNDP$0.0*FRSHTT$110000*CLDC$50.8*WNDDIR$243
STN$945150*DATE$2021-02-04*TIME$12:55:31*TEMP$22.9*DEWP$13.3*STP$978.0*SLP$1012.4*VISIB$47.1*WDSP$6.5*PRCP$0.05*SNDP$0.0*FRSHTT$010000*CLDC$82.7*WNDDIR$262
STN$21610*DATE$2021-02-04*TIME$12:55:31*TEMP$-3.9*DEWP$-4.7*STP$1012.5*SLP$1022.8*VISIB$13.2*WDSP$10.7*PRCP$0.00*SNDP$0.3*FRSHTT$101000*CLDC$51.2*WNDDIR$5
STN$100910*DATE$2021-02-04*TIME$12:55:31*TEMP$-0.9*DEWP$-1.9*STP$1012.3*SLP$1017.2*VISIB$10.4*WDSP$24.3*PRCP$0.03*SNDP$0.0*FRSHTT$110000*CLDC$77.9*WNDDIR$357
STN$647000*DATE$2021-02-04*TIME$12:55:31*TEMP$9.0*DEWP$-16.0*STP$988.2*SLP$1011.6*VISIB$4.6*WDSP$16.6*PRCP$0.00*SNDP$0.0*FRSHTT$000000*CLDC$69.5*WNDDIR$233
STN$39200*DATE$2021-02-04*TIME$12:55:31*TEMP$1.7*DEWP$-0.3*STP$1005.6*SLP$1010.7*VISIB$16.0*WDSP$18.6*PRCP$0.22*SNDP$0.0*FRSHTT$010000*CLDC$55.0*WNDDIR$127
STN$408750*DATE$2021-02-04*TIME$12:55:31*TEMP$16.3*DEWP$9.4*STP$1008.5*SLP$1007.1*VISIB$9.3*WDSP$8.8*PRCP$0.00*SNDP$0.0*FRSHTT$000000*CLDC$58.7*WNDDIR$149
STN$117820*DATE$2021-02-04*TIME$12:55:31*TEMP$-1.6*DEWP$-3.7*STP$1003.7*SLP$1020.2*VISIB$7.3*WDSP$17.6*PRCP$0.06*SNDP$1.9*FRSHTT$111000*CLDC$50.9*WNDDIR$240
STN$486250*DATE$2021-02-04*TIME$12:55:31*TEMP$21.9*DEWP$14.2*STP$1026.6*SLP$1011.4*VISIB$31.2*WDSP$8.8*PRCP$0.48*SNDP$0.0*FRSHTT$010000*CLDC$51.2*WNDDIR$41
STN$714880*DATE$2021-02-04*TIME$12:55:31*TEMP$-20.9*DEWP$-24.6*STP$952.5*SLP$1021.5*VISIB$15.3*WDSP$2.2*PRCP$0.00*SNDP$0.0*FRSHTT$100000*CLDC$94.2*WNDDIR$86
STN$299990*DATE$2021-02-04*TIME$12:55:31*TEMP$-15.8*DEWP$-21.3*STP$1037.3*SLP$1035.8*VISIB$36.0*WDSP$6.2*PRCP$0.00*SNDP$0.0*FRSHTT$100000*CLDC$87.4*WNDDIR$330
STN$39690*DATE$2021-02-04*TIME$12:55:31*TEMP$1.9*DEWP$-1.2*STP$1012.1*SLP$1013.4*VISIB$11.0*WDSP$26.3*PRCP$0.13*SNDP$0.0*FRSHTT$010000*CLDC$52.4*WNDDIR$165
STN$377880*DATE$2021-02-04*TIME$12:55:31*TEMP$-2.4*DEWP$-4.8*STP$*SLP$1027.0*VISIB$2.3*WDSP$2.9*PRCP$0.00*SNDP$1.1*FRSHTT$101000*CLDC$62.2*WNDDIR$251
STN$144520*DATE$2021-02-04*TIME$12:55:31*TEMP$0.8*DEWP$-12.4*STP$1001.7*SLP$1024.5*VISIB$27.8*WDSP$15.0*PRCP$0.00*SNDP$0.0*FRSHTT$000000*CLDC$32.2*WNDDIR$119
STN$789480*DATE$2021-02-04*TIME$12:55:31*TEMP$21.4*DEWP$17.2*STP$1011.4*SLP$1015.0*VISIB$55.0*WDSP$22.3*PRCP$0.03*SNDP$0.0*FRSHTT$010000*CLDC$51.7*WNDDIR$98
STN$39710*DATE$2021-02-04*TIME$12:55:31*TEMP$1.5*DEWP$-0.6*STP$1006.9*SLP$1009.8*VISIB$25.9*WDSP$17.7*PRCP$0.20*SNDP$0.0*FRSHTT$010000*CLDC$50.5*WNDDIR$333
STN$607690*DATE$2021-02-04*TIME$12:55:31*TEMP$4.2*DEWP$-1.6*STP$1019.0*SLP$1017.7*VISIB$9.2*WDSP$12.7*PRCP$0.01*SNDP$0.0*FRSHTT$010000*CLDC$50.7*WNDDIR$206
STN$333930*DATE$2021-02-04*TIME$12:55:31*TEMP$-4.8*DEWP$-7.1*STP$1007.0*SLP$1021.0*VISIB$9.6*WDSP$12.0*PRCP$0.31*SNDP$3.0*FRSHTT$111000*CLDC$50.3*WNDDIR$148
STN$333931*DATE$2021-02-04*TIME$12:55:31*TEMP$-0.2*DEWP$-1.3*STP$1005.0*SLP$997.9*VISIB$2.1*WDSP$10.9*PRCP$0.00*SNDP$0.0*FRSHTT$100000*CLDC$80.1*WNDDIR$165
STN$703880*DATE$2021-02-04*TIME$12:55:31*TEMP$1.7*DEWP$0.4*STP$1026.0*SLP$1026.9*VISIB$29.5*WDSP$17.7*PRCP$0.00*SNDP$0.0*FRSHTT$000000*CLDC$72.2*WNDDIR$131
STN$581440*DATE$2021-02-04*TIME$12:55:31*TEMP$-1.1*DEWP$-6.7*STP$1021.0*SLP$1026.0*VISIB$10.4*WDSP$10.6*PRCP$0.04*SNDP$0.0*FRSHTT$110000*CLDC$50.2*WNDDIR$233
STN$156000*DATE$2021-02-04*TIME$12:55:31*TEMP$-8.1*DEWP$-9.1*STP$825.5*SLP$850.9*VISIB$16.7*WDSP$55.9*PRCP$0.25*SNDP$35.0*FRSHTT$111000*CLDC$83.4*WNDDIR$45
STN$295670*DATE$2021-02-04*TIME$12:55:31*TEMP$-8.9*DEWP$-15.0*STP$1034.6*SLP$1032.5*VISIB$25.4*WDSP$24.3*PRCP$0.00*SNDP$0.0*FRSHTT$100000*CLDC$38.3*WNDDIR$289
STN$684240*DATE$2021-02-04*TIME$12:55:31*TEMP$7.5*DEWP$-16.1*STP$933.6*SLP$933.6*VISIB$27.0*WDSP$9.1*PRCP$0.03*SNDP$0.0*FRSHTT$010000*CLDC$62.3*WNDDIR$54
STN$282550*DATE$2021-02-04*TIME$12:55:31*TEMP$-13.4*DEWP$-16.7*STP$1007.5*SLP$1017.8*VISIB$16.8*WDSP$8.9*PRCP$0.04*SNDP$8.0*FRSHTT$111000*CLDC$84.4*WNDDIR$24
STN$703894*DATE$2021-02-04*TIME$12:55:31*TEMP$-0.8*DEWP$-3.3*STP$1019.4*SLP$1012.6*VISIB$13.9*WDSP$2.8*PRCP$0.21*SNDP$0.0*FRSHTT$110000*CLDC$70.8*WNDDIR$127
STN$722078*DATE$2021-02-04*TIME$12:55:31*TEMP$-2.9*DEWP$-6.7*STP$997.2*SLP$991.2*VISIB$13.7*WDSP$7.4*PRCP$0.00*SNDP$0.0*FRSHTT$100000*CLDC$26.7*WNDDIR$333
STN$801100*DATE$2021-02-04*TIME$12:55:31*TEMP$14.6*DEWP$4.0*STP$874.2*SLP$877.8*VISIB$12.2*WDSP$4.5*PRCP$0.05*SNDP$0.0*FRSHTT$010000*CLDC$67.6*WNDDIR$20
STN$536980*DATE$2021-02-04*TIME$12:55:31*TEMP$-2.2*DEWP$-13.9*STP$1023.1*SLP$1026.7*VISIB$10.9*WDSP$5.8*PRCP$0.01*SNDP$0.0*FRSHTT$110000*CLDC$50.3*WNDDIR$321
STN$722079*DATE$2021-02-04*TIME$12:55:31*TEMP$-3.7*DEWP$-15.3*STP$995.3*SLP$992.4*VISIB$13.7*WDSP$1.8*PRCP$0.00*SNDP$0.0*FRSHTT$100000*CLDC$36.5*WNDDIR$222
STN$722076*DATE$2021-02-04*TIME$12:55:31*TEMP$5.9*DEWP$-3.6*STP$1038.7*SLP$1019.3*VISIB$23.0*WDSP$16.6*PRCP$0.53*SNDP$0.0*FRSHTT$010000*CLDC$77.0*WNDDIR$242
STN$986180*DATE$2021-02-04*TIME$12:55:31*TEMP$16.2*DEWP$12.7*STP$1013.5*SLP$1012.4*VISIB$26.2*WDSP$9.6*PRCP$0.00*SNDP$0.0*FRSHTT$000000*CLDC$91.4*WNDDIR$109
STN$722066*DATE$2021-02-04*TIME$12:55:31*TEMP$11.6*DEWP$7.1*STP$1018.7*SLP$1019.3*VISIB$8.6*WDSP$13.4*PRCP$0.04*SNDP$0.0*FRSHTT$010000*CLDC$59.7*WNDDIR$144
STN$722067*DATE$2021-02-04*TIME$12:55:31*TEMP$7.2*DEWP$2.3*STP$1018.7*SLP$1019.2*VISIB$10.4*WDSP$10.9*PRCP$0.20*SNDP$0.0*FRSHTT$010000*CLDC$51.0*WNDDIR$28
STN$289840*DATE$2021-02-04*TIME$12:55:31*TEMP$-21.3*DEWP$-24.7*STP$1063.1*SLP$1041.1*VISIB$14.0*WDSP$16.1*PRCP$0.03*SNDP$0.0*FRSHTT$110000*CLDC$71.7*WNDDIR$27
STN$722064*DATE$2021-02-04*TIME$12:55:31*TEMP$13.1*DEWP$10.9*STP$1008.1*SLP$1020.6*VISIB$11.6*WDSP$4.0*PRCP$0.00*SNDP$0.0*FRSHTT$000000*CLDC$48.5*WNDDIR$252
STN$574260*DATE$2021-02-04*TIME$12:55:31*TEMP$4.2*DEWP$-0.6*STP$1020.7*SLP$1022.3*VISIB$9.9*WDSP$5.3*PRCP$0.01*SNDP$0.0*FRSHTT$010000*CLDC$62.0*WNDDIR$211
STN$83970*DATE$2021-02-04*TIME$12:55:31*TEMP$1.0*DEWP$-0.1*STP$1016.5*SLP$1022.9*VISIB$12.7*WDSP$11.5*PRCP$0.03*SNDP$0.0*FRSHTT$010000*CLDC$53.0*WNDDIR$170
STN$467480*DATE$2021-02-04*TIME$12:55:31*TEMP$13.3*DEWP$9.1*STP$1016.5*SLP$1018.5*VISIB$7.5*WDSP$10.4*PRCP$0.01*SNDP$0.0*FRSHTT$010000*CLDC$50.9*WNDDIR$193
STN$423390*DATE$2021-02-04*TIME$12:55:31*TEMP$24.1*DEWP$14.1*STP$992.8*SLP$1012.5*VISIB$3.2*WDSP$2.2*PRCP$0.00*SNDP$0.0*FRSHTT$000000*CLDC$59.8*WNDDIR$
STN$23310*DATE$2021-02-04*TIME$12:55:31*TEMP$-15.1*DEWP$-17.0*STP$989.4*SLP$972.7*VISIB$25.1*WDSP$4.3*PRCP$0.02*SNDP$0.0*FRSHTT$110000*CLDC$50.4*WNDDIR$260
STN$543420*DATE$2021-02-04*TIME$12:55:31*TEMP$-13.3*DEWP$-21.7*STP$1022.9*SLP$1027.0*VISIB$5.4*WDSP$9.2*PRCP$0.01*SNDP$0.0*FRSHTT$110000*CLDC$50.6*WNDDIR$266
STN$163100*DATE$2021-02-04*TIME$12:55:31*TEMP$3.3*DEWP$-2.4*STP$1009.3*SLP$1017.3*VISIB$12.7*WDSP$12.6*PRCP$0.24*SNDP$0.0*FRSHTT$010000*CLDC$50.7*WNDDIR$46
STN$238430*DATE$2021-02-04*TIME$12:55:31*TEMP$-18.6*DEWP$-21.0*STP$1017.7*SLP$1018.8*VISIB$3.4*WDSP$4.9*PRCP$0.02*SNDP$0.0*FRSHTT$110000*CLDC$51.9*WNDDIR$277
STN$467460*DATE$2021-02-04*TIME$12:55:31*TEMP$14.0*DEWP$9.7*STP$1019.8*SLP$1018.0*VISIB$9.5*WDSP$9.7*PRCP$0.00*SNDP$0.0*FRSHTT$000000*CLDC$71.7*WNDDIR$188
STN$115090*DATE$2021-02-04*TIME$12:55:31*TEMP$-1.4*DEWP$-3.9*STP$997.4*SLP$1017.1*VISIB$11.6*WDSP$11.1*PRCP$0.03*SNDP$0.6*FRSHTT$111000*CLDC$51.0*WNDDIR$54
STN$314890*DATE$2021-02-04*TIME$12:55:31*TEMP$-30.4*DEWP$-34.6*STP$1030.0*SLP$1025.3*VISIB$38.9*WDSP$10.4*PRCP$0.04*SNDP$0.0*FRSHTT$110000*CLDC$94.3*WNDDIR$327
STN$523130*DATE$2021-02-04*TIME$12:55:31*TEMP$-7.1*DEWP$-11.8*STP$920.2*SLP$951.4*VISIB$46.9*WDSP$9.8*PRCP$0.00*SNDP$0.0*FRSHTT$100000*CLDC$18.7*WNDDIR$36
STN$297660*DATE$2021-02-04*TIME$12:55:31*TEMP$-13.4*DEWP$-16.0*STP$1010.7*SLP$1032.9*VISIB$42.1*WDSP$4.6*PRCP$0.02*SNDP$9.0*FRSHTT$111000*CLDC$50.0*WNDDIR$288
STN$33380*DATE$2021-02-04*TIME$12:55:31*TEMP$0.6*DEWP$-0.9*STP$1013.2*SLP$1013.9*VISIB$3.0*WDSP$15.8*PRCP$0.00*SNDP$0.4*FRSHTT$001000*CLDC$50.0*WNDDIR$344
STN$717080*DATE$2021-02-04*TIME$12:55:31*TEMP$-16.0*DEWP$-18.7*STP$1014.4*SLP$1023.6*VISIB$10.0*WDSP$11.7*PRCP$0.00*SNDP$0.0*FRSHTT$100000*CLDC$0.5*WNDDIR$221
STN$763615*DATE$2021-02-04*TIME$12:55:31*TEMP$8.8*DEWP$*STP$1018.0*SLP$1002.9*VISIB$16.8*WDSP$11.8*PRCP$0.00*SNDP$0.0*FRSHTT$000000*CLDC$91.4*WNDDIR$170
STN$717060*DATE$2021-02-04*TIME$12:55:31*TEMP$-10.9*DEWP$-14.1*STP$1008.8*SLP$1014.7*VISIB$18.8*WDSP$15.9*PRCP$0.13*SNDP$16.4*FRSHTT$111000*CLDC$51.4*WNDDIR$197
STN$717070*DATE$2021-02-04*TIME$12:55:31*TEMP$-9.4*DEWP$-12.1*STP$1006.7*SLP$1013.0*VISIB$15.6*WDSP$21.0*PRCP$0.16*SNDP$7.1*FRSHTT$111000*CLDC$50.5*WNDDIR$33
STN$142840*DATE$2021-02-04*TIME$12:55:31*TEMP$0.6*DEWP$-2.2*STP$1009.6*SLP$1020.5*VISIB$15.8*WDSP$15.0*PRCP$0.00*SNDP$0.0*FRSHTT$000000*CLDC$26.7*WNDDIR$61
STN$402720*DATE$2021-02-04*TIME$12:55:31*TEMP$3.7*DEWP$-0.4*STP$948.0*SLP$1017.2*VISIB$8.2*WDSP$15.7*PRCP$0.02*SNDP$0.0*FRSHTT$010000*CLDC$51.2*WNDDIR$203
STN$517650*DATE$2021-02-04*TIME$12:55:31*TEMP$-1.6*DEWP$-11.2*STP$939.4*SLP$1030.5*VISIB$30.4*WDSP$6.3*PRCP$0.00*SNDP$0.0*FRSHTT$100000*CLDC$13.1*WNDDIR$110
STN$874530*DATE$2021-02-04*TIME$12:55:31*TEMP$15.0*DEWP$7.8*STP$981.2*SLP$1010.2*VISIB$17.8*WDSP$14.9*PRCP$0.27*SNDP$0.0*FRSHTT$010000*CLDC$51.4*WNDDIR$47
STN$407620*DATE$2021-02-04*TIME$12:55:31*TEMP$11.0*DEWP$6.8*STP$850.4*SLP$1010.2*VISIB$10.6*WDSP$10.4*PRCP$0.00*SNDP$0.0*FRSHTT$000000*CLDC$99.0*WNDDIR$303
STN$560800*DATE$2021-02-04*TIME$12:55:31*TEMP$-6.2*DEWP$-18.8*STP$734.3*SLP$735.4*VISIB$27.0*WDSP$3.7*PRCP$0.00*SNDP$0.0*FRSHTT$100000*CLDC$43.0*WNDDIR$153
STN$82270*DATE$2021-02-04*TIME$12:55:31*TEMP$0.5*DEWP$-4.6*STP$976.3*SLP$992.4*VISIB$12.4*WDSP$10.3*PRCP$0.02*SNDP$0.0*FRSHTT$010000*CLDC$50.0*WNDDIR$340
STN$21080*DATE$2021-02-04*TIME$12:55:31*TEMP$-6.1*DEWP$-8.4*STP$986.8*SLP$1007.9*VISIB$29.6*WDSP$9.8*PRCP$0.14*SNDP$45.1*FRSHTT$111000*CLDC$85.3*WNDDIR$170
STN$786270*DATE$2021-02-04*TIME$12:55:31*TEMP$11.1*DEWP$3.5*STP$818.7*SLP$810.7*VISIB$11.5*WDSP$5.6*PRCP$0.00*SNDP$0.0*FRSHTT$000000*CLDC$63.1*WNDDIR$148
STN$560790*DATE$2021-02-04*TIME$12:55:31*TEMP$-4.2*DEWP$-12.8*STP$664.9*SLP$667.3*VISIB$32.5*WDSP$7.7*PRCP$0.01*SNDP$0.0*FRSHTT$110000*CLDC$68.8*WNDDIR$288
STN$257770*DATE$2021-02-04*TIME$12:55:31*TEMP$-21.5*DEWP$-23.5*STP$1036.3*SLP$1012.8*VISIB$8.8*WDSP$37.3*PRCP$0.00*SNDP$0.0*FRSHTT$100000*CLDC$90.4*WNDDIR$81
STN$859340*DATE$2021-02-04*TIME$12:55:31*TEMP$5.8*DEWP$1.2*STP$1004.2*SLP$1002.8*VISIB$16.1*WDSP$27.1*PRCP$0.09*SNDP$0.0*FRSHTT$010000*CLDC$78.7*WNDDIR$339
STN$333012*DATE$2021-02-04*TIME$12:55:31*TEMP$0.0*DEWP$-1.3*STP$1004.5*SLP$985.7*VISIB$2.8*WDSP$14.2*PRCP$0.00*SNDP$0.0*FRSHTT$100000*CLDC$72.1*WNDDIR$44
STN$103820*DATE$2021-02-04*TIME$12:55:31*TEMP$-1.7*DEWP$-4.2*STP$1001.2*SLP$1002.8*VISIB$8.3*WDSP$15.8*PRCP$0.05*SNDP$0.2*FRSHTT$111000*CLDC$69.4*WNDDIR$297
STN$762430*DATE$2021-02-04*TIME$12:55:31*TEMP$9.3*DEWP$1.3*STP$991.1*SLP$1020.0*VISIB$16.1*WDSP$12.0*PRCP$0.00*SNDP$0.0*FRSHTT$000000*CLDC$55.6*WNDDIR$201
STN$103810*DATE$2021-02-04*TIME$12:55:31*TEMP$-1.1*DEWP$-4.2*STP$1016.5*SLP$1017.4*VISIB$8.6*WDSP$14.5*PRCP$0.10*SNDP$0.4*FRSHTT$111000*CLDC$50.2*WNDDIR$249
STN$524180*DATE$2021-02-04*TIME$12:55:31*TEMP$-2.6*DEWP$-15.1*STP$919.1*SLP$1029.5*VISIB$32.0*WDSP$3.7*PRCP$0.00*SNDP$0.0*FRSHTT$100000*CLDC$94.2*WNDDIR$16
STN$623662*DATE$2021-02-04*TIME$12:55:31*TEMP$5.5*DEWP$0.7*STP$1014.8*SLP$999.8*VISIB$8.1*WDSP$9.8*PRCP$0.00*SNDP$0.0*FRSHTT$000000*CLDC$97.2*WNDDIR$
STN$172180*DATE$2021-02-04*TIME$12:55:31*TEMP$1.1*DEWP$-3.3*STP$1008.0*SLP$1015.6*VISIB$14.0*WDSP$18.4*PRCP$0.06*SNDP$0.0*FRSHTT$010000*CLDC$50.2*WNDDIR$133
STN$488970*DATE$2021-02-04*TIME$12:55:31*TEMP$9.6*DEWP$3.1*STP$1013.0*SLP$1009.3*VISIB$16.0*WDSP$22.7*PRCP$0.00*SNDP$0.0*FRSHTT$000000*CLDC$20.6*WNDDIR$113
STN$623660*DATE$2021-02-04*TIME$12:55:31*TEMP$2.1*DEWP$-5.3*STP$1019.1*SLP$1018.7*VISIB$15.5*WDSP$17.9*PRCP$0.01*SNDP$0.0*FRSHTT$010000*CLDC$51.3*WNDDIR$68
STN$718310*DATE$2021-02-04*TIME$12:55:31*TEMP$-21.0*DEWP$-25.4*STP$991.4*SLP$1020.7*VISIB$17.0*WDSP$12.1*PRCP$0.06*SNDP$31.1*FRSHTT$111000*CLDC$78.9*WNDDIR$31
STN$729380*DATE$2021-02-04*TIME$12:55:31*TEMP$-18.1*DEWP$-20.5*STP$1016.8*SLP$1018.3*VISIB$22.8*WDSP$17.3*PRCP$0.00*SNDP$16.2*FRSHTT$101000*CLDC$51.4*WNDDIR$66
STN$265540*DATE$2021-02-04*TIME$12:55:31*TEMP$-7.6*DEWP$-10.2*STP$1006.2*SLP$1013.9*VISIB$9.5*WDSP$12.6*PRCP$0.09*SNDP$4.7*FRSHTT$111000*CLDC$50.3*WNDDIR$142
STN$350850*DATE$2021-02-04*TIME$12:55:31*TEMP$-11.6*DEWP$-15.1*STP$1012.9*SLP$1024.7*VISIB$27.8*WDSP$23.6*PRCP$0.02*SNDP$1.6*FRSHTT$111000*CLDC$51.2*WNDDIR$102
STN$71300*DATE$2021-02-04*TIME$12:55:31*TEMP$2.2*DEWP$0.4*STP$1013.3*SLP$1017.8*VISIB$10.8*WDSP$13.9*PRCP$0.13*SNDP$0.0*FRSHTT$010000*CLDC$52.0*WNDDIR$214
STN$729400*DATE$2021-02-04*TIME$12:55:31*TEMP$-8.8*DEWP$-10.4*STP$949.8*SLP$1032.6*VISIB$40.5*WDSP$5.0*PRCP$0.00*SNDP$0.0*FRSHTT$100000*CLDC$96.3*WNDDIR$263
STN$871210*DATE$2021-02-04*TIME$12:55:31*TEMP$19.0*DEWP$12.7*STP$977.6*SLP$1009.0*VISIB$10.7*WDSP$6.4*PRCP$0.20*SNDP$0.0*FRSHTT$010000*CLDC$90.7*WNDDIR$352
STN$871200*DATE$2021-02-04*TIME$12:55:31*TEMP$17.8*DEWP$14.2*STP$1012.2*SLP$1009.2*VISIB$14.0*WDSP$11.4*PRCP$0.16*SNDP$0.0*FRSHTT$010000*CLDC$51.1*WNDDIR$252
STN$703410*DATE$2021-02-04*TIME$12:55:31*TEMP$-4.8*DEWP$-8.5*STP$1004.0*SLP$1005.8*VISIB$23.7*WDSP$9.1*PRCP$0.12*SNDP$4.7*FRSHTT$111000*CLDC$50.2*WNDDIR$148
STN$949780*DATE$2021-02-04*TIME$12:55:31*TEMP$11.0*DEWP$6.2*STP$992.0*SLP$1014.2*VISIB$19.7*WDSP$14.2*PRCP$0.12*SNDP$0.0*FRSHTT$010000*CLDC$50.4*WNDDIR$349
STN$544970*DATE$2021-02-04*TIME$12:55:31*TEMP$-8.6*DEWP$-17.4*STP$1027.7*SLP$*VISIB$16.0*WDSP$13.4*PRCP$0.01*SNDP$0.0*FRSHTT$110000*CLDC$50.4*WNDDIR$335
STN$105130*DATE$2021-02-04*TIME$12:55:31*TEMP$-0.6*DEWP$-3.4*STP$1015.3*SLP$1016.1*VISIB$12.5*WDSP$9.1*PRCP$0.09*SNDP$0.1*FRSHTT$111000*CLDC$84.5*WNDDIR$49
STN$719570*DATE$2021-02-04*TIME$12:55:31*TEMP$-18.4*DEWP$-20.9*STP$1011.5*SLP$1021.0*VISIB$25.6*WDSP$8.2*PRCP$0.03*SNDP$16.9*FRSHTT$111000*CLDC$51.0*WNDDIR$203
STN$840710*DATE$2021-02-04*TIME$12:55:31*TEMP$9.7*DEWP$4.5*STP$842.8*SLP$845.8*VISIB$9.9*WDSP$9.0*PRCP$0.09*SNDP$0.0*FRSHTT$010000*CLDC$75.8*WNDDIR$66
STN$382640*DATE$2021-02-04*TIME$12:55:31*TEMP$1.9*DEWP$-3.6*STP$1008.4*SLP$1020.4*VISIB$12.5*WDSP$15.0*PRCP$0.01*SNDP$0.3*FRSHTT$011000*CLDC$50.6*WNDDIR$198
STN$854595*DATE$2021-02-04*TIME$12:55:31*TEMP$15.1*DEWP$10.5*STP$986.7*SLP$975.8*VISIB$11.7*WDSP$18.6*PRCP$0.00*SNDP$0.0*FRSHTT$000000*CLDC$21.3*WNDDIR$104
STN$176060*DATE$2021-02-04*TIME$12:55:31*TEMP$1.5*DEWP$-4.4*STP$1032.7*SLP$1021.5*VISIB$12.8*WDSP$8.7*PRCP$0.00*SNDP$0.0*FRSHTT$000000*CLDC$72.0*WNDDIR$93
STN$105140*DATE$2021-02-04*TIME$12:55:31*TEMP$-0.9*DEWP$-3.9*STP$998.4*SLP$1010.3*VISIB$9.2*WDSP$14.4*PRCP$0.03*SNDP$0.1*FRSHTT$111000*CLDC$78.3*WNDDIR$282
STN$105150*DATE$2021-02-04*TIME$12:55:31*TEMP$0.4*DEWP$-4.9*STP$1009.2*SLP$1017.0*VISIB$15.4*WDSP$11.0*PRCP$0.05*SNDP$0.0*FRSHTT$010000*CLDC$54.3*WNDDIR$64
STN$70460*DATE$2021-02-04*TIME$12:55:31*TEMP$2.2*DEWP$1.0*STP$1012.3*SLP$1022.0*VISIB$4.4*WDSP$8.5*PRCP$0.00*SNDP$0.0*FRSHTT$000000*CLDC$81.3*WNDDIR$329
STN$156400*DATE$2021-02-04*TIME$12:55:31*TEMP$-0.8*DEWP$-5.2*STP$985.7*SLP$1017.4*VISIB$14.0*WDSP$8.6*PRCP$0.00*SNDP$0.0*FRSHTT$100000*CLDC$86.7*WNDDIR$85
STN$160900*DATE$2021-02-04*TIME$12:55:31*TEMP$-0.4*DEWP$-2.9*STP$1009.8*SLP$1017.1*VISIB$3.0*WDSP$8.6*PRCP$0.03*SNDP$0.0*FRSHTT$110000*CLDC$71.0*WNDDIR$250
STN$269970*DATE$2021-02-04*TIME$12:55:31*TEMP$-9.7*DEWP$-11.2*STP$1009.4*SLP$1018.7*VISIB$8.9*WDSP$10.7*PRCP$0.04*SNDP$4.2*FRSHTT$111000*CLDC$51.2*WNDDIR$66
STN$526330*DATE$2021-02-04*TIME$12:55:31*TEMP$-12.3*DEWP$-26.0*STP$1001.7*SLP$1008.5*VISIB$29.1*WDSP$2.9*PRCP$0.00*SNDP$0.0*FRSHTT$100000*CLDC$18.0*WNDDIR$311
STN$945640*DATE$2021-02-04*TIME$12:55:31*TEMP$21.5*DEWP$16.9*STP$1006.0*SLP$1011.8*VISIB$21.9*WDSP$7.4*PRCP$0.00*SNDP$0.0*FRSHTT$000000*CLDC$33.0*WNDDIR$85
STN$610360*DATE$2021-02-04*TIME$12:55:31*TEMP$11.5*DEWP$-11.0*STP$1029.9*SLP$1011.8*VISIB$9.1*WDSP$11.4*PRCP$0.00*SNDP$0.0*FRSHTT$000000*CLDC$44.7*WNDDIR$37
STN$21150*DATE$2021-02-04*TIME$12:55:31*TEMP$-2.8*DEWP$-4.1*STP$940.9*SLP$1018.8*VISIB$16.5*WDSP$16.7*PRCP$0.05*SNDP$114.8*FRSHTT$111000*CLDC$50.4*WNDDIR$290
STN$101610*DATE$2021-02-04*TIME$12:55:31*TEMP$1.0*DEWP$-2.2*STP$1006.6*SLP$1008.4*VISIB$*WDSP$26.2*PRCP$0.00*SNDP$0.0*FRSHTT$000000*CLDC$14.4*WNDDIR$268
STN$361520*DATE$2021-02-04*TIME$12:55:31*TEMP$-11.5*DEWP$-14.3*STP$1032.7*SLP$1030.5*VISIB$17.8*WDSP$14.7*PRCP$0.02*SNDP$2.9*FRSHTT$111000*CLDC$78.3*WNDDIR$10
STN$101630*DATE$2021-02-04*TIME$12:55:31*TEMP$-2.0*DEWP$-3.2*STP$1013.5*SLP$1017.8*VISIB$5.3*WDSP$12.9*PRCP$0.07*SNDP$0.0*FRSHTT$110000*CLDC$50.7*WNDDIR$3
STN$786311*DATE$2021-02-04*TIME$12:55:31*TEMP$23.2*DEWP$20.5*STP$998.5*SLP$1003.8*VISIB$11.7*WDSP$8.4*PRCP$0.00*SNDP$0.0*FRSHTT$000000*CLDC$87.9*WNDDIR$339
STN$25580*DATE$2021-02-04*TIME$12:55:31*TEMP$-1.0*DEWP$-2.2*STP$1005.0*SLP$1036.4*VISIB$13.3*WDSP$7.3*PRCP$0.07*SNDP$0.0*FRSHTT$110000*CLDC$52.2*WNDDIR$120
STN$833480*DATE$2021-02-04*TIME$12:55:31*TEMP$17.2*DEWP$16.3*STP$1014.1*SLP$1012.2*VISIB$15.5*WDSP$5.8*PRCP$0.05*SNDP$0.0*FRSHTT$010000*CLDC$50.2*WNDDIR$119
STN$253780*DATE$2021-02-04*TIME$12:55:31*TEMP$-12.4*DEWP$-17.9*STP$1023.4*SLP$1005.2*VISIB$7.6*WDSP$30.6*PRCP$0.03*SNDP$0.0*FRSHTT$110000*CLDC$56.2*WNDDIR$12
STN$10015*DATE$2021-02-04*TIME$12:55:31*TEMP$0.4*DEWP$-7.6*STP$998.0*SLP$995.4*VISIB$9.5*WDSP$14.4*PRCP$0.00*SNDP$0.0*FRSHTT$000000*CLDC$75.7*WNDDIR$42
STN$863600*DATE$2021-02-04*TIME$12:55:31*TEMP$18.3*DEWP$10.3*STP$1013.3*SLP$1010.7*VISIB$10.4*WDSP$10.1*PRCP$0.01*SNDP$0.0*FRSHTT$010000*CLDC$50.5*WNDDIR$82
STN$25560*DATE$2021-02-04*TIME$12:55:31*TEMP$-2.7*DEWP$-4.7*STP$997.8*SLP$1012.7*VISIB$7.4*WDSP$15.6*PRCP$0.10*SNDP$5.8*FRSHTT$111000*CLDC$51.8*WNDDIR$220
STN$320130*DATE$2021-02-04*TIME$12:55:31*TEMP$-21.6*DEWP$-20.5*STP$1021.3*SLP$1010.4*VISIB$23.7*WDSP$18.5*PRCP$0.10*SNDP$25.0*FRSHTT$111000*CLDC$50.5*WNDDIR$286
STN$10010*DATE$2021-02-04*TIME$12:55:31*TEMP$-4.4*DEWP$-7.7*STP$1004.4*SLP$1004.5*VISIB$22.4*WDSP$30.6*PRCP$0.10*SNDP$0.0*FRSHTT$110000*CLDC$86.0*WNDDIR$161
STN$443520*DATE$2021-02-04*TIME$12:55:31*TEMP$-7.9*DEWP$-10.1*STP$1008.9*SLP$1037.6*VISIB$48.4*WDSP$17.9*PRCP$0.00*SNDP$0.0*FRSHTT$100000*CLDC$13.6*WNDDIR$274
STN$599480*DATE$2021-02-04*TIME$12:55:31*TEMP$11.7*DEWP$6.7*STP$1019.4*SLP$1016.9*VISIB$22.3*WDSP$9.7*PRCP$0.01*SNDP$0.0*FRSHTT$010000*CLDC$78.4*WNDDIR$96
STN$591170*DATE$2021-02-04*TIME$12:55:31*TEMP$6.0*DEWP$2.5*STP$1011.7*SLP$1020.5*VISIB$16.7*WDSP$4.0*PRCP$0.17*SNDP$0.0*FRSHTT$010000*CLDC$50.7*WNDDIR$286
STN$702923*DATE$2021-02-04*TIME$12:55:31*TEMP$-22.2*DEWP$-23.6*STP$958.0*SLP$1019.0*VISIB$19.3*WDSP$0.2*PRCP$0.00*SNDP$0.0*FRSHTT$100000*CLDC$93.0*WNDDIR$271
STN$720137*DATE$2021-02-04*TIME$12:55:31*TEMP$-1.0*DEWP$-1.1*STP$979.5*SLP$1008.8*VISIB$0.0*WDSP$12.1*PRCP$0.00*SNDP$0.0*FRSHTT$100000*CLDC$82.3*WNDDIR$144
STN$949330*DATE$2021-02-04*TIME$12:55:31*TEMP$18.2*DEWP$14.1*STP$1014.7*SLP$1015.3*VISIB$24.6*WDSP$25.5*PRCP$0.34*SNDP$*FRSHTT$010000*CLDC$95.0*WNDDIR$148
STN$209640*DATE$2021-02-04*TIME$12:55:31*TEMP$-18.2*DEWP$-20.6*STP$1017.7*SLP$1013.2*VISIB$15.9*WDSP$20.1*PRCP$0.10*SNDP$10.8*FRSHTT$111000*CLDC$58.9*WNDDIR$200
STN$70881*DATE$2021-02-04*TIME$12:55:31*TEMP$-1.4*DEWP$-3.7*STP$988.0*SLP$1021.8*VISIB$8.9*WDSP$16.9*PRCP$0.00*SNDP$0.0*FRSHTT$100000*CLDC$76.4*WNDDIR$212
STN$121250*DATE$2021-02-04*TIME$12:55:31*TEMP$-3.0*DEWP$-5.2*STP$1015.4*SLP$1016.6*VISIB$9.4*WDSP$16.1*PRCP$0.09*SNDP$1.6*FRSHTT$111000*CLDC$98.9*WNDDIR$269
STN$720151*DATE$2021-02-04*TIME$12:55:31*TEMP$-3.1*DEWP$-7.5*STP$979.2*SLP$955.3*VISIB$15.0*WDSP$3.9*PRCP$0.00*SNDP$0.0*FRSHTT$100000*CLDC$31.2*WNDDIR$338
STN$70891*DATE$2021-02-04*TIME$12:55:31*TEMP$-9.1*DEWP$-15.3*STP$974.0*SLP$1007.6*VISIB$4.7*WDSP$9.3*PRCP$0.00*SNDP$0.0*FRSHTT$100000*CLDC$19.3*WNDDIR$192
STN$403770*DATE$2021-02-04*TIME$12:55:31*TEMP$9.8*DEWP$0.4*STP$968.3*SLP$1015.6*VISIB$5.7*WDSP$15.8*PRCP$0.15*SNDP$0.0*FRSHTT$010000*CLDC$51.1*WNDDIR$298
STN$703260*DATE$2021-02-04*TIME$12:55:31*TEMP$-10.3*DEWP$-13.8*STP$1002.4*SLP$1003.2*VISIB$30.7*WDSP$17.1*PRCP$0.02*SNDP$1.7*FRSHTT$111000*CLDC$50.2*WNDDIR$312
STN$729500*DATE$2021-02-04*TIME$12:55:31*TEMP$-7.3*DEWP$-10.0*STP$970.2*SLP$1035.3*VISIB$41.5*WDSP$1.9*PRCP$0.00*SNDP$27.5*FRSHTT$101000*CLDC$50.4*WNDDIR$169
STN$71200*DATE$2021-02-04*TIME$12:55:31*TEMP$2.1*DEWP$-0.3*STP$1000.9*SLP$1017.4*VISIB$19.6*WDSP$23.6*PRCP$0.08*SNDP$0.0*FRSHTT$010000*CLDC$50.1*WNDDIR$160
STN$746925*DATE$2021-02-04*TIME$12:55:31*TEMP$7.0*DEWP$0.9*STP$999.2*SLP$1011.1*VISIB$16.8*WDSP$5.5*PRCP$0.00*SNDP$0.0*FRSHTT$000000*CLDC$57.9*WNDDIR$46
STN$106320*DATE$2021-02-04*TIME$12:55:31*TEMP$0.9*DEWP$-2.0*STP$995.2*SLP$997.4*VISIB$8.9*WDSP$10.0*PRCP$0.01*SNDP$0.0*FRSHTT$010000*CLDC$75.1*WNDDIR$17
STN$871290*DATE$2021-02-04*TIME$12:55:31*TEMP$17.7*DEWP$10.0*STP$1000.6*SLP$1009.2*VISIB$21.1*WDSP$15.6*PRCP$0.38*SNDP$0.0*FRSHTT$010000*CLDC$59.9*WNDDIR$63
STN$607140*DATE$2021-02-04*TIME$12:55:31*TEMP$3.6*DEWP$0.1*STP$1017.5*SLP$1018.6*VISIB$11.6*WDSP$16.4*PRCP$0.05*SNDP$0.0*FRSHTT$010000*CLDC$51.4*WNDDIR$114
STN$544930*DATE$2021-02-04*TIME$12:55:31*TEMP$-15.8*DEWP$-21.4*STP$1025.3*SLP$1029.2*VISIB$20.8*WDSP$5.3*PRCP$0.02*SNDP$0.0*FRSHTT$110000*CLDC$50.6*WNDDIR$109
STN$729450*DATE$2021-02-04*TIME$12:55:31*TEMP$-20.5*DEWP$-23.2*STP$971.6*SLP$1020.0*VISIB$73.9*WDSP$1.4*PRCP$0.00*SNDP$15.0*FRSHTT$101000*CLDC$77.8*WNDDIR$245
STN$840180*DATE$2021-02-04*TIME$12:55:31*TEMP$19.4*DEWP$17.0*STP$1010.6*SLP$1011.6*VISIB$17.3*WDSP$4.0*PRCP$0.00*SNDP$0.0*FRSHTT$000000*CLDC$61.1*WNDDIR$355
STN$620070*DATE$2021-02-04*TIME$12:55:31*TEMP$3.0*DEWP$-2.5*STP$1025.5*SLP$1020.3*VISIB$20.8*WDSP$19.0*PRCP$0.09*SNDP$0.0*FRSHTT$010000*CLDC$73.3*WNDDIR$345
STN$29840*DATE$2021-02-04*TIME$12:55:31*TEMP$-6.3*DEWP$-7.5*STP$1000.8*SLP$1014.0*VISIB$11.6*WDSP$25.4*PRCP$0.07*SNDP$4.2*FRSHTT$111000*CLDC$54.2*WNDDIR$351
STN$726245*DATE$2021-02-04*TIME$12:55:31*TEMP$-5.7*DEWP$-9.4*STP$1013.0*SLP$1023.6*VISIB$15.6*WDSP$21.1*PRCP$0.00*SNDP$0.0*FRSHTT$100000*CLDC$19.6*WNDDIR$282
STN$726246*DATE$2021-02-04*TIME$12:55:31*TEMP$-9.0*DEWP$-13.3*STP$1005.9*SLP$1024.1*VISIB$13.1*WDSP$24.4*PRCP$0.00*SNDP$0.0*FRSHTT$100000*CLDC$86.6*WNDDIR$245
STN$12380*DATE$2021-02-04*TIME$12:55:31*TEMP$-1.9*DEWP$-6.7*STP$910.1*SLP$1015.4*VISIB$37.7*WDSP$15.5*PRCP$0.06*SNDP$23.1*FRSHTT$111000*CLDC$51.0*WNDDIR$315
STN$691810*DATE$2021-02-04*TIME$12:55:31*TEMP$-2.8*DEWP$-10.1*STP$977.1*SLP$958.5*VISIB$6.7*WDSP$2.8*PRCP$0.00*SNDP$0.0*FRSHTT$100000*CLDC$81.8*WNDDIR$6
STN$726247*DATE$2021-02-04*TIME$12:55:31*TEMP$-16.3*DEWP$-26.1*STP$1007.2*SLP$1024.7*VISIB$23.5*WDSP$18.1*PRCP$0.00*SNDP$0.0*FRSHTT$100000*CLDC$86.6*WNDDIR$38
STN$726240*DATE$2021-02-04*TIME$12:55:31*TEMP$-8.5*DEWP$-12.7*STP$1002.7*SLP$1019.5*VISIB$25.7*WDSP$10.9*PRCP$0.02*SNDP$0.0*FRSHTT$110000*CLDC$50.4*WNDDIR$245
STN$171990*DATE$2021-02-04*TIME$12:55:31*TEMP$-7.0*DEWP$-10.2*STP$919.0*SLP$1034.8*VISIB$15.1*WDSP$5.7*PRCP$0.00*SNDP$2.7*FRSHTT$101000*CLDC$88.4*WNDDIR$228
STN$741410*DATE$2021-02-04*TIME$12:55:31*TEMP$-9.4*DEWP$-11.9*STP$997.0*SLP$1027.9*VISIB$23.3*WDSP$8.3*PRCP$0.00*SNDP$0.0*FRSHTT$100000*CLDC$59.9*WNDDIR$176
STN$111440*DATE$2021-02-04*TIME$12:55:31*TEMP$-2.7*DEWP$-8.0*STP$927.9*SLP$1016.4*VISIB$26.3*WDSP$6.2*PRCP$0.00*SNDP$0.0*FRSHTT$100000*CLDC$88.9*WNDDIR$205
STN$724335*DATE$2021-02-04*TIME$12:55:31*TEMP$-9.2*DEWP$-14.1*STP$992.7*SLP$966.8*VISIB$12.9*WDSP$16.6*PRCP$0.00*SNDP$0.0*FRSHTT$100000*CLDC$17.1*WNDDIR$58
STN$724330*DATE$2021-02-04*TIME$12:55:31*TEMP$-3.1*DEWP$-6.9*STP$1003.0*SLP$1000.2*VISIB$11.6*WDSP$11.7*PRCP$0.00*SNDP$0.0*FRSHTT$100000*CLDC$82.8*WNDDIR$303
STN$984460*DATE$2021-02-04*TIME$12:55:31*TEMP$21.8*DEWP$18.4*STP$1005.1*SLP$1014.3*VISIB$22.5*WDSP$4.2*PRCP$0.00*SNDP$0.0*FRSHTT$000000*CLDC$56.0*WNDDIR$50
STN$410620*DATE$2021-02-04*TIME$12:55:31*TEMP$9.0*DEWP$-14.7*STP$950.2*SLP$1023.5*VISIB$4.4*WDSP$18.3*PRCP$0.00*SNDP$0.0*FRSHTT$000000*CLDC$60.0*WNDDIR$148
STN$288250*DATE$2021-02-04*TIME$12:55:31*TEMP$-12.2*DEWP$-15.8*STP$1010.7*SLP$1002.1*VISIB$6.3*WDSP$12.3*PRCP$0.05*SNDP$31.2*FRSHTT$111000*CLDC$89.8*WNDDIR$175
STN$111460*DATE$2021-02-04*TIME$12:55:31*TEMP$-6.4*DEWP$-6.1*STP$690.7*SLP$700.7*VISIB$33.0*WDSP$37.1*PRCP$0.38*SNDP$145.4*FRSHTT$111000*CLDC$50.9*WNDDIR$310
STN$724294*DATE$2021-02-04*TIME$12:55:31*TEMP$-5.0*DEWP$-9.7*STP$1008.2*SLP$1020.0*VISIB$8.9*WDSP$12.4*PRCP$0.09*SNDP$0.0*FRSHTT$110000*CLDC$50.2*WNDDIR$216
STN$724295*DATE$2021-02-04*TIME$12:55:31*TEMP$-1.0*DEWP$-1.0*STP$994.4*SLP$1014.5*VISIB$3.8*WDSP$14.3*PRCP$0.00*SNDP$0.0*FRSHTT$100000*CLDC$15.9*WNDDIR$288
STN$724288*DATE$2021-02-04*TIME$12:55:31*TEMP$-6.3*DEWP$-10.5*STP$1018.5*SLP$1016.8*VISIB$13.2*WDSP$14.1*PRCP$0.03*SNDP$0.0*FRSHTT$110000*CLDC$51.4*WNDDIR$262
STN$725540*DATE$2021-02-04*TIME$12:55:31*TEMP$-8.5*DEWP$-12.2*STP$1004.0*SLP$1021.8*VISIB$12.6*WDSP$11.8*PRCP$0.04*SNDP$3.0*FRSHTT$111000*CLDC$69.8*WNDDIR$81
STN$170260*DATE$2021-02-04*TIME$12:55:31*TEMP$3.9*DEWP$-0.8*STP$1011.0*SLP$1011.8*VISIB$23.9*WDSP$15.8*PRCP$0.06*SNDP$0.0*FRSHTT$010000*CLDC$50.0*WNDDIR$218
STN$603180*DATE$2021-02-04*TIME$12:55:31*TEMP$7.8*DEWP$3.3*STP$1019.4*SLP$1024.8*VISIB$6.7*WDSP$16.7*PRCP$0.54*SNDP$0.0*FRSHTT$010000*CLDC$88.0*WNDDIR$277
STN$967810*DATE$2021-02-04*TIME$12:55:31*TEMP$17.1*DEWP$12.7*STP$1004.1*SLP$1012.4*VISIB$14.2*WDSP$8.7*PRCP$0.00*SNDP$0.0*FRSHTT$000000*CLDC$69.5*WNDDIR$159
STN$725533*DATE$2021-02-04*TIME$12:55:31*TEMP$-8.6*DEWP$-12.3*STP$1007.3*SLP$1006.7*VISIB$10.9*WDSP$12.5*PRCP$0.06*SNDP$0.3*FRSHTT$111000*CLDC$64.3*WNDDIR$281
STN$725530*DATE$2021-02-04*TIME$12:55:31*TEMP$-8.7*DEWP$-11.9*STP$976.0*SLP$1026.3*VISIB$18.8*WDSP$16.5*PRCP$0.05*SNDP$1.6*FRSHTT$111000*CLDC$50.5*WNDDIR$17
STN$293560*DATE$2021-02-04*TIME$12:55:31*TEMP$-7.2*DEWP$-10.3*STP$1018.7*SLP$1016.0*VISIB$9.7*WDSP$12.5*PRCP$0.11*SNDP$0.0*FRSHTT$110000*CLDC$51.1*WNDDIR$63
STN$509490*DATE$2021-02-04*TIME$12:55:31*TEMP$-18.5*DEWP$-24.0*STP$1020.7*SLP$1025.2*VISIB$13.1*WDSP$4.3*PRCP$0.01*SNDP$0.0*FRSHTT$110000*CLDC$51.6*WNDDIR$352
STN$309240*DATE$2021-02-04*TIME$12:55:31*TEMP$-14.5*DEWP$-15.4*STP$939.4*SLP$1031.8*VISIB$49.6*WDSP$3.9*PRCP$0.00*SNDP$6.4*FRSHTT$101000*CLDC$50.8*WNDDIR$345
STN$725526*DATE$2021-02-04*TIME$12:55:31*TEMP$-9.7*DEWP$-14.0*STP$998.2*SLP$1007.1*VISIB$16.2*WDSP$19.9*PRCP$0.00*SNDP$0.0*FRSHTT$100000*CLDC$99.0*WNDDIR$241
STN$352170*DATE$2021-02-04*TIME$12:55:31*TEMP$-9.4*DEWP$-11.2*STP$1020.1*SLP$1022.3*VISIB$10.6*WDSP$17.4*PRCP$0.02*SNDP$4.0*FRSHTT$111000*CLDC$96.8*WNDDIR$226
STN$854690*DATE$2021-02-04*TIME$12:55:31*TEMP$21.0*DEWP$14.7*STP$1013.6*SLP$1018.5*VISIB$15.2*WDSP$11.8*PRCP$0.08*SNDP$0.0*FRSHTT$010000*CLDC$50.4*WNDDIR$16
STN$949100*DATE$2021-02-04*TIME$12:55:31*TEMP$16.8*DEWP$5.5*STP$989.7*SLP$1001.0*VISIB$27.7*WDSP$15.3*PRCP$0.30*SNDP$0.0*FRSHTT$010000*CLDC$51.9*WNDDIR$193
STN$590460*DATE$2021-02-04*TIME$12:55:31*TEMP$6.4*DEWP$0.8*STP$1020.7*SLP$1021.2*VISIB$11.4*WDSP$6.3*PRCP$0.05*SNDP$0.0*FRSHTT$010000*CLDC$61.0*WNDDIR$319
STN$964130*DATE$2021-02-04*TIME$12:55:31*TEMP$17.9*DEWP$15.2*STP$1009.2*SLP$1010.6*VISIB$13.5*WDSP$4.5*PRCP$1.34*SNDP$0.0*FRSHTT$010000*CLDC$79.0*WNDDIR$6
STN$264220*DATE$2021-02-04*TIME$12:55:31*TEMP$-2.5*DEWP$-4.2*STP$1013.9*SLP$1012.3*VISIB$4.5*WDSP$19.6*PRCP$0.08*SNDP$3.5*FRSHTT$111000*CLDC$51.2*WNDDIR$276
STN$122500*DATE$2021-02-04*TIME$12:55:31*TEMP$-3.4*DEWP$-6.0*STP$1014.8*SLP$1017.6*VISIB$5.3*WDSP$10.2*PRCP$0.04*SNDP$1.2*FRSHTT$111000*CLDC$50.3*WNDDIR$339
STN$295320*DATE$2021-02-04*TIME$12:55:31*TEMP$-7.0*DEWP$-9.8*STP$999.9*SLP$1023.4*VISIB$14.5*WDSP$9.9*PRCP$0.02*SNDP$13.9*FRSHTT$111000*CLDC$51.8*WNDDIR$128
STN$854700*DATE$2021-02-04*TIME$12:55:31*TEMP$12.0*DEWP$3.2*STP$1015.2*SLP$1010.9*VISIB$13.7*WDSP$20.3*PRCP$0.00*SNDP$0.0*FRSHTT$000000*CLDC$40.8*WNDDIR$146
STN$70610*DATE$2021-02-04*TIME$12:55:31*TEMP$0.3*DEWP$-1.1*STP$1011.6*SLP$1015.5*VISIB$6.9*WDSP$23.4*PRCP$0.05*SNDP$0.0*FRSHTT$010000*CLDC$50.6*WNDDIR$238
STN$711054*DATE$2021-02-04*TIME$12:55:31*TEMP$4.2*DEWP$2.9*STP$1000.1*SLP$1003.4*VISIB$11.5*WDSP$51.1*PRCP$0.48*SNDP$0.0*FRSHTT$010000*CLDC$52.3*WNDDIR$46
STN$167160*DATE$2021-02-04*TIME$12:55:31*TEMP$3.1*DEWP$-3.5*STP$1015.9*SLP$1017.5*VISIB$13.3*WDSP$12.9*PRCP$0.24*SNDP$0.0*FRSHTT$010000*CLDC$50.3*WNDDIR$185
STN$167161*DATE$2021-02-04*TIME$12:55:31*TEMP$1.6*DEWP$-2.7*STP$998.3*SLP$997.2*VISIB$12.3*WDSP$12.7*PRCP$0.00*SNDP$0.0*FRSHTT$000000*CLDC$85.8*WNDDIR$146
STN$359530*DATE$2021-02-04*TIME$12:55:31*TEMP$-8.5*DEWP$-10.5*STP$1021.4*SLP$1026.4*VISIB$31.4*WDSP$16.8*PRCP$0.03*SNDP$1.2*FRSHTT$111000*CLDC$56.9*WNDDIR$131
STN$722880*DATE$2021-02-04*TIME$12:55:31*TEMP$5.8*DEWP$-4.3*STP$1010.1*SLP$1005.4*VISIB$26.0*WDSP$5.6*PRCP$0.01*SNDP$0.0*FRSHTT$010000*CLDC$50.5*WNDDIR$178
STN$722885*DATE$2021-02-04*TIME$12:55:31*TEMP$5.0*DEWP$-3.8*STP$1012.5*SLP$1012.6*VISIB$18.9*WDSP$8.6*PRCP$0.05*SNDP$0.0*FRSHTT$010000*CLDC$69.8*WNDDIR$72
STN$711040*DATE$2021-02-04*TIME$12:55:31*TEMP$-4.5*DEWP$-7.3*STP$907.4*SLP$1020.2*VISIB$19.0*WDSP$14.2*PRCP$0.05*SNDP$15.7*FRSHTT$111000*CLDC$65.1*WNDDIR$337
STN$722886*DATE$2021-02-04*TIME$12:55:31*TEMP$4.8*DEWP$-4.9*STP$1007.6*SLP$1010.5*VISIB$21.9*WDSP$12.4*PRCP$0.05*SNDP$0.0*FRSHTT$010000*CLDC$51.4*WNDDIR$194
STN$60960*DATE$2021-02-04*TIME$12:55:31*TEMP$-0.9*DEWP$-2.8*STP$1028.0*SLP$1029.2*VISIB$11.0*WDSP$12.4*PRCP$0.00*SNDP$0.0*FRSHTT$100000*CLDC$86.9*WNDDIR$128
STN$722904*DATE$2021-02-04*TIME$12:55:31*TEMP$3.7*DEWP$-4.0*STP$*SLP$1013.2*VISIB$19.6*WDSP$16.8*PRCP$0.15*SNDP$0.0*FRSHTT$010000*CLDC$51.7*WNDDIR$196
STN$589310*DATE$2021-02-04*TIME$12:55:31*TEMP$1.2*DEWP$-0.9*STP$846.0*SLP$847.9*VISIB$8.2*WDSP$31.4*PRCP$0.12*SNDP$0.0*FRSHTT$010000*CLDC$74.3*WNDDIR$76
STN$722359*DATE$2021-02-04*TIME$12:55:31*TEMP$2.3*DEWP$-3.9*STP$1020.0*SLP$1023.0*VISIB$12.5*WDSP$12.9*PRCP$0.15*SNDP$0.0*FRSHTT$010000*CLDC$59.7*WNDDIR$43
STN$26060*DATE$2021-02-04*TIME$12:55:31*TEMP$-0.5*DEWP$-2.8*STP$1001.4*SLP$1012.4*VISIB$13.0*WDSP$27.3*PRCP$0.04*SNDP$0.0*FRSHTT$110000*CLDC$89.5*WNDDIR$349
STN$722356*DATE$2021-02-04*TIME$12:55:31*TEMP$4.3*DEWP$-0.5*STP$1010.4*SLP$1011.7*VISIB$15.9*WDSP$11.7*PRCP$0.01*SNDP$0.0*FRSHTT$010000*CLDC$50.7*WNDDIR$213
STN$722357*DATE$2021-02-04*TIME$12:55:31*TEMP$3.0*DEWP$-4.8*STP$1001.8*SLP$998.3*VISIB$14.0*WDSP$18.6*PRCP$0.00*SNDP$0.0*FRSHTT$000000*CLDC$13.4*WNDDIR$262
STN$722315*DATE$2021-02-04*TIME$12:55:31*TEMP$11.5*DEWP$5.6*STP$1018.4*SLP$1019.6*VISIB$10.8*WDSP$18.4*PRCP$0.22*SNDP$0.0*FRSHTT$010000*CLDC$75.0*WNDDIR$92
STN$722314*DATE$2021-02-04*TIME$12:55:31*TEMP$4.7*DEWP$-2.9*STP$1011.8*SLP$1022.1*VISIB$14.7*WDSP$14.1*PRCP$0.04*SNDP$0.0*FRSHTT$010000*CLDC$50.7*WNDDIR$15
STN$986450*DATE$2021-02-04*TIME$12:55:31*TEMP$24.2*DEWP$18.0*STP$1007.5*SLP$1012.4*VISIB$28.5*WDSP$13.3*PRCP$0.03*SNDP$0.0*FRSHTT$010000*CLDC$52.1*WNDDIR$80
STN$722317*DATE$2021-02-04*TIME$12:55:31*TEMP$6.9*DEWP$0.6*STP$1019.3*SLP$1021.3*VISIB$16.1*WDSP$14.5*PRCP$0.27*SNDP$0.0*FRSHTT$010000*CLDC$76.0*WNDDIR$254
STN$722316*DATE$2021-02-04*TIME$12:55:31*TEMP$8.1*DEWP$3.6*STP$1022.0*SLP$1020.9*VISIB$9.3*WDSP$9.7*PRCP$0.09*SNDP$0.0*FRSHTT$010000*CLDC$50.0*WNDDIR$267
STN$783550*DATE$2021-02-04*TIME$12:55:31*TEMP$14.8*DEWP$10.6*STP$996.3*SLP$1020.7*VISIB$110.4*WDSP$9.6*PRCP$0.00*SNDP$0.0*FRSHTT$000000*CLDC$64.1*WNDDIR$298
STN$943840*DATE$2021-02-04*TIME$12:55:31*TEMP$23.4*DEWP$19.1*STP$1008.4*SLP$1012.6*VISIB$23.7*WDSP$20.8*PRCP$1.28*SNDP$0.0*FRSHTT$010000*CLDC$51.1*WNDDIR$295
STN$38080*DATE$2021-02-04*TIME$12:55:31*TEMP$1.8*DEWP$-0.1*STP$1015.2*SLP$1016.4*VISIB$17.5*WDSP$24.7*PRCP$0.16*SNDP$0.0*FRSHTT$010000*CLDC$51.0*WNDDIR$223
STN$406420*DATE$2021-02-04*TIME$12:55:31*TEMP$2.6*DEWP$-5.4*STP$1021.6*SLP$1018.8*VISIB$46.8*WDSP$8.7*PRCP$0.00*SNDP$0.0*FRSHTT$000000*CLDC$56.1*WNDDIR$154
STN$467080*DATE$2021-02-04*TIME$12:55:31*TEMP$14.6*DEWP$11.6*STP$1024.5*SLP$1020.2*VISIB$13.3*WDSP$6.5*PRCP$0.08*SNDP$0.0*FRSHTT$010000*CLDC$60.3*WNDDIR$152
STN$943870*DATE$2021-02-04*TIME$12:55:31*TEMP$25.0*DEWP$21.4*STP$1010.3*SLP$1014.3*VISIB$19.4*WDSP$9.3*PRCP$0.33*SNDP$0.0*FRSHTT$010000*CLDC$56.1*WNDDIR$327
STN$379850*DATE$2021-02-04*TIME$12:55:31*TEMP$3.6*DEWP$0.4*STP$1020.2*SLP$1015.4*VISIB$7.8*WDSP$5.0*PRCP$0.07*SNDP$0.0*FRSHTT$010000*CLDC$76.3*WNDDIR$278
STN$38100*DATE$2021-02-04*TIME$12:55:31*TEMP$4.2*DEWP$2.4*STP$1024.7*SLP$1021.6*VISIB$15.8*WDSP$33.9*PRCP$0.00*SNDP$0.0*FRSHTT$000000*CLDC$27.6*WNDDIR$38
STN$22930*DATE$2021-02-04*TIME$12:55:31*TEMP$-7.8*DEWP$-9.6*STP$1003.9*SLP$997.2*VISIB$7.6*WDSP$11.5*PRCP$0.00*SNDP$0.0*FRSHTT$100000*CLDC$15.4*WNDDIR$315
STN$238040*DATE$2021-02-04*TIME$12:55:31*TEMP$-11.9*DEWP$-14.0*STP$1013.6*SLP$1014.6*VISIB$13.2*WDSP$13.8*PRCP$0.05*SNDP$19.1*FRSHTT$111000*CLDC$52.0*WNDDIR$185
STN$114232*DATE$2021-02-04*TIME$12:55:31*TEMP$-0.4*DEWP$-2.4*STP$1011.1*SLP$987.1*VISIB$10.0*WDSP$13.8*PRCP$0.00*SNDP$0.0*FRSHTT$100000*CLDC$74.5*WNDDIR$81
STN$537870*DATE$2021-02-04*TIME$12:55:31*TEMP$-6.1*DEWP$-19.1*STP$974.6*SLP$1027.8*VISIB$22.8*WDSP$4.8*PRCP$0.01*SNDP$0.0*FRSHTT$110000*CLDC$52.0*WNDDIR$43
STN$114234*DATE$2021-02-04*TIME$12:55:31*TEMP$0.8*DEWP$-2.2*STP$1016.3*SLP$1020.5*VISIB$10.4*WDSP$15.3*PRCP$0.00*SNDP$0.0*FRSHTT$000000*CLDC$91.9*WNDDIR$161
STN$24580*DATE$2021-02-04*TIME$12:55:31*TEMP$-2.6*DEWP$-4.5*STP$1003.9*SLP$1008.7*VISIB$25.3*WDSP$17.3*PRCP$0.04*SNDP$5.0*FRSHTT$111000*CLDC$51.6*WNDDIR$56
STN$802220*DATE$2021-02-04*TIME$12:55:31*TEMP$6.0*DEWP$1.1*STP$774.9*SLP$782.4*VISIB$13.2*WDSP$8.0*PRCP$0.03*SNDP$0.0*FRSHTT$010000*CLDC$67.5*WNDDIR$196
STN$677810*DATE$2021-02-04*TIME$12:55:31*TEMP$10.4*DEWP$5.6*STP$876.5*SLP$879.3*VISIB$36.0*WDSP$11.3*PRCP$0.09*SNDP$0.0*FRSHTT$010000*CLDC$99.4*WNDDIR$275
STN$537980*DATE$2021-02-04*TIME$12:55:31*TEMP$-1.1*DEWP$-12.5*STP$1023.4*SLP$1026.4*VISIB$7.8*WDSP$5.2*PRCP$0.01*SNDP$0.0*FRSHTT$110000*CLDC$61.4*WNDDIR$344
STN$94990*DATE$2021-02-04*TIME$12:55:31*TEMP$-2.2*DEWP$-5.2*STP$1014.9*SLP$1017.5*VISIB$2.6*WDSP$19.5*PRCP$0.09*SNDP$3.2*FRSHTT$111000*CLDC$50.1*WNDDIR$142
STN$131800*DATE$2021-02-04*TIME$12:55:31*TEMP$-1.8*DEWP$-5.9*STP$1007.8*SLP$1018.8*VISIB$11.5*WDSP$19.0*PRCP$0.00*SNDP$2.2*FRSHTT$101000*CLDC$50.7*WNDDIR$162
STN$166750*DATE$2021-02-04*TIME$12:55:31*TEMP$2.1*DEWP$-4.2*STP$1016.2*SLP$1019.0*VISIB$14.4*WDSP$10.6*PRCP$0.03*SNDP$0.0*FRSHTT$010000*CLDC$50.8*WNDDIR$262
STN$726387*DATE$2021-02-04*TIME$12:55:31*TEMP$-10.2*DEWP$-13.2*STP$1002.1*SLP$1021.5*VISIB$11.9*WDSP$13.3*PRCP$0.03*SNDP$7.0*FRSHTT$111000*CLDC$50.7*WNDDIR$215
STN$726384*DATE$2021-02-04*TIME$12:55:31*TEMP$-9.2*DEWP$-12.3*STP$998.1*SLP$997.8*VISIB$7.5*WDSP$15.8*PRCP$0.00*SNDP$0.0*FRSHTT$100000*CLDC$90.2*WNDDIR$129
STN$726385*DATE$2021-02-04*TIME$12:55:31*TEMP$-6.1*DEWP$-9.4*STP$1002.6*SLP$1038.2*VISIB$8.4*WDSP$11.6*PRCP$0.00*SNDP$0.0*FRSHTT$100000*CLDC$28.6*WNDDIR$32
STN$477400*DATE$2021-02-04*TIME$12:55:31*TEMP$0.5*DEWP$-4.8*STP$1018.9*SLP$1020.4*VISIB$22.4*WDSP$10.4*PRCP$0.20*SNDP$1.3*FRSHTT$011000*CLDC$84.6*WNDDIR$346
STN$741820*DATE$2021-02-04*TIME$12:55:31*TEMP$-24.1*DEWP$-28.5*STP$948.4*SLP$1004.3*VISIB$22.3*WDSP$19.8*PRCP$0.00*SNDP$63.1*FRSHTT$101000*CLDC$50.2*WNDDIR$289
STN$726394*DATE$2021-02-04*TIME$12:55:31*TEMP$-9.6*DEWP$-12.3*STP$991.0*SLP$996.0*VISIB$8.1*WDSP$13.3*PRCP$0.00*SNDP$0.0*FRSHTT$100000*CLDC$15.7*WNDDIR$49
STN$726395*DATE$2021-02-04*TIME$12:55:31*TEMP$-10.3*DEWP$-14.3*STP$1002.0*SLP$1016.3*VISIB$14.9*WDSP$14.4*PRCP$0.01*SNDP$3.2*FRSHTT$111000*CLDC$50.1*WNDDIR$280
STN$64760*DATE$2021-02-04*TIME$12:55:31*TEMP$-0.7*DEWP$-3.5*STP$982.2*SLP$1018.2*VISIB$6.2*WDSP$14.4*PRCP$0.11*SNDP$1.5*FRSHTT$111000*CLDC$54.1*WNDDIR$68
STN$726275*DATE$2021-02-04*TIME$12:55:31*TEMP$-12.7*DEWP$-16.7*STP$997.7*SLP$1020.9*VISIB$21.7*WDSP$18.6*PRCP$0.00*SNDP$0.0*FRSHTT$100000*CLDC$61.7*WNDDIR$194
STN$91770*DATE$2021-02-04*TIME$12:55:31*TEMP$-1.7*DEWP$-4.0*STP$1014.0*SLP$1015.0*VISIB$10.9*WDSP$25.2*PRCP$0.04*SNDP$4.8*FRSHTT$111000*CLDC$51.8*WNDDIR$121
STN$483820*DATE$2021-02-04*TIME$12:55:31*TEMP$15.3*DEWP$6.0*STP$998.2*SLP$1016.2*VISIB$9.3*WDSP$5.4*PRCP$0.00*SNDP$0.0*FRSHTT$000000*CLDC$28.2*WNDDIR$334
STN$942940*DATE$2021-02-04*TIME$12:55:31*TEMP$23.0*DEWP$19.1*STP$1005.3*SLP$1006.2*VISIB$20.0*WDSP$13.4*PRCP$0.78*SNDP$0.0*FRSHTT$010000*CLDC$50.7*WNDDIR$296
STN$37243*DATE$2021-02-04*TIME$12:55:31*TEMP$1.8*DEWP$-0.7*STP$1004.9*SLP$1000.7*VISIB$7.3*WDSP$17.8*PRCP$0.00*SNDP$0.0*FRSHTT$000000*CLDC$33.0*WNDDIR$264
STN$804190*DATE$2021-02-04*TIME$12:55:31*TEMP$20.8*DEWP$14.7*STP$1011.6*SLP$1012.7*VISIB$11.8*WDSP$12.4*PRCP$0.00*SNDP$0.0*FRSHTT$000000*CLDC$40.4*WNDDIR$38
STN$346090*DATE$2021-02-04*TIME$12:55:31*TEMP$-6.5*DEWP$-8.4*STP$1006.7*SLP$1001.2*VISIB$3.4*WDSP$17.8*PRCP$0.11*SNDP$0.5*FRSHTT$111000*CLDC$52.3*WNDDIR$320
STN$318830*DATE$2021-02-04*TIME$12:55:31*TEMP$-29.0*DEWP$-33.4*STP$990.7*SLP$1013.0*VISIB$23.6*WDSP$4.8*PRCP$0.00*SNDP$0.0*FRSHTT$100000*CLDC$85.5*WNDDIR$242
STN$574470*DATE$2021-02-04*TIME$12:55:31*TEMP$2.1*DEWP$-1.8*STP$969.7*SLP$1025.6*VISIB$10.1*WDSP$3.6*PRCP$0.05*SNDP$0.0*FRSHTT$010000*CLDC$50.5*WNDDIR$302
STN$483810*DATE$2021-02-04*TIME$12:55:31*TEMP$15.8*DEWP$5.9*STP$995.5*SLP$1014.1*VISIB$9.0*WDSP$4.9*PRCP$0.20*SNDP$0.0*FRSHTT$010000*CLDC$50.7*WNDDIR$170
STN$767433*DATE$2021-02-04*TIME$12:55:31*TEMP$20.1*DEWP$16.2*STP$1007.4*SLP$1013.6*VISIB$6.9*WDSP$11.1*PRCP$0.10*SNDP$0.0*FRSHTT$010000*CLDC$71.3*WNDDIR$355
STN$266295*DATE$2021-02-04*TIME$12:55:31*TEMP$-1.5*DEWP$-4.8*STP$998.6*SLP$1033.0*VISIB$5.5*WDSP$14.1*PRCP$0.00*SNDP$0.0*FRSHTT$100000*CLDC$42.2*WNDDIR$82
STN$724567*DATE$2021-02-04*TIME$12:55:31*TEMP$-4.7*DEWP$-10.9*STP$997.0*SLP$1019.5*VISIB$30.7*WDSP$9.3*PRCP$0.00*SNDP$0.0*FRSHTT$100000*CLDC$7.6*WNDDIR$173
STN$724565*DATE$2021-02-04*TIME$12:55:31*TEMP$-4.8*DEWP$-10.9*STP$998.2*SLP$1016.1*VISIB$21.4*WDSP$18.8*PRCP$0.03*SNDP$0.5*FRSHTT$111000*CLDC$50.4*WNDDIR$326
STN$973000*DATE$2021-02-04*TIME$12:55:31*TEMP$12.6*DEWP$9.9*STP$1006.6*SLP$1009.8*VISIB$12.7*WDSP$5.9*PRCP$0.38*SNDP$0.0*FRSHTT$010000*CLDC$72.5*WNDDIR$275
STN$600150*DATE$2021-02-04*TIME$12:55:31*TEMP$6.0*DEWP$1.7*STP$969.9*SLP$1011.1*VISIB$10.8*WDSP$21.5*PRCP$0.03*SNDP$0.0*FRSHTT$010000*CLDC$93.9*WNDDIR$341
STN$10980*DATE$2021-02-04*TIME$12:55:31*TEMP$-3.5*DEWP$-5.2*STP$1005.3*SLP$1004.9*VISIB$34.9*WDSP$28.1*PRCP$0.15*SNDP$0.0*FRSHTT$110000*CLDC$50.8*WNDDIR$57
STN$631250*DATE$2021-02-04*TIME$12:55:31*TEMP$22.5*DEWP$18.1*STP$980.0*SLP$988.8*VISIB$39.3*WDSP$10.4*PRCP$0.00*SNDP$0.0*FRSHTT$000000*CLDC$74.1*WNDDIR$108
STN$740001*DATE$2021-02-04*TIME$12:55:31*TEMP$-3.0*DEWP$-4.8*STP$1025.7*SLP$1020.4*VISIB$4.3*WDSP$3.8*PRCP$0.03*SNDP$0.0*FRSHTT$110000*CLDC$50.1*WNDDIR$44
STN$514635*DATE$2021-02-04*TIME$12:55:31*TEMP$-8.5*DEWP$-10.7*STP$1006.5*SLP$1002.6*VISIB$3.3*WDSP$0.9*PRCP$0.00*SNDP$0.0*FRSHTT$100000*CLDC$77.9*WNDDIR$193
STN$724580*DATE$2021-02-04*TIME$12:55:31*TEMP$-8.3*DEWP$-13.5*STP$969.0*SLP$1024.1*VISIB$17.9*WDSP$14.8*PRCP$0.10*SNDP$1.7*FRSHTT$111000*CLDC$50.5*WNDDIR$286
STN$165200*DATE$2021-02-04*TIME$12:55:31*TEMP$0.7*DEWP$-1.2*STP$1011.2*SLP$1016.9*VISIB$12.2*WDSP$8.7*PRCP$0.13*SNDP$0.0*FRSHTT$010000*CLDC$69.0*WNDDIR$55
STN$725404*DATE$2021-02-04*TIME$12:55:31*TEMP$-8.5*DEWP$-11.2*STP$1027.4*SLP$1017.6*VISIB$10.8*WDSP$18.4*PRCP$0.13*SNDP$0.0*FRSHTT$110000*CLDC$54.0*WNDDIR$215
STN$725407*DATE$2021-02-04*TIME$12:55:31*TEMP$-9.7*DEWP$-12.0*STP$1031.1*SLP$1017.0*VISIB$9.8*WDSP$12.4*PRCP$0.06*SNDP$0.0*FRSHTT$110000*CLDC$50.3*WNDDIR$67
STN$725406*DATE$2021-02-04*TIME$12:55:31*TEMP$-8.6*DEWP$-10.2*STP$1002.4*SLP$1000.9*VISIB$15.1*WDSP$17.1*PRCP$0.00*SNDP$0.0*FRSHTT$100000*CLDC$54.4*WNDDIR$292
STN$308290*DATE$2021-02-04*TIME$12:55:31*TEMP$-14.1*DEWP$-18.4*STP$994.0*SLP$1033.1*VISIB$52.9*WDSP$6.9*PRCP$0.00*SNDP$1.2*FRSHTT$101000*CLDC$59.4*WNDDIR$302
STN$725408*DATE$2021-02-04*TIME$12:55:31*TEMP$-10.6*DEWP$-14.1*STP$1008.1*SLP$1005.7*VISIB$11.0*WDSP$13.8*PRCP$0.00*SNDP$0.0*FRSHTT$100000*CLDC$35.4*WNDDIR$124
STN$725409*DATE$2021-02-04*TIME$12:55:31*TEMP$-9.3*DEWP$-13.0*STP$997.1*SLP$986.4*VISIB$10.4*WDSP$17.2*PRCP$0.00*SNDP$0.0*FRSHTT$100000*CLDC$15.4*WNDDIR$69
STN$725414*DATE$2021-02-04*TIME$12:55:31*TEMP$-8.8*DEWP$-11.4*STP$997.2*SLP$998.2*VISIB$11.0*WDSP$11.0*PRCP$0.00*SNDP$0.0*FRSHTT$100000*CLDC$10.4*WNDDIR$9
STN$725415*DATE$2021-02-04*TIME$12:55:31*TEMP$-6.1*DEWP$-9.6*STP$1007.6*SLP$1002.1*VISIB$11.0*WDSP$14.0*PRCP$0.00*SNDP$0.0*FRSHTT$100000*CLDC$32.4*WNDDIR$293
STN$478220*DATE$2021-02-04*TIME$12:55:31*TEMP$2.1*DEWP$-5.1*STP$1019.7*SLP$1022.1*VISIB$20.6*WDSP$9.5*PRCP$0.00*SNDP$0.0*FRSHTT$000000*CLDC$33.0*WNDDIR$119
STN$29150*DATE$2021-02-04*TIME$12:55:31*TEMP$-6.1*DEWP$-8.0*STP$1005.1*SLP$1007.8*VISIB$14.1*WDSP$8.4*PRCP$0.08*SNDP$14.1*FRSHTT$111000*CLDC$99.5*WNDDIR$148
STN$717140*DATE$2021-02-04*TIME$12:55:31*TEMP$-15.4*DEWP$-19.9*STP$1009.5*SLP$1017.4*VISIB$26.5*WDSP$18.4*PRCP$0.13*SNDP$24.6*FRSHTT$111000*CLDC$89.6*WNDDIR$238
STN$717150*DATE$2021-02-04*TIME$12:55:31*TEMP$-23.9*DEWP$-29.1*STP$1009.4*SLP$1029.1*VISIB$23.7*WDSP$6.1*PRCP$0.02*SNDP$43.6*FRSHTT$111000*CLDC$61.0*WNDDIR$142
STN$173100*DATE$2021-02-04*TIME$12:55:31*TEMP$3.3*DEWP$-5.7*STP$1024.7*SLP$1025.0*VISIB$20.8*WDSP$5.9*PRCP$0.00*SNDP$0.0*FRSHTT$000000*CLDC$58.7*WNDDIR$191
STN$33340*DATE$2021-02-04*TIME$12:55:31*TEMP$1.5*DEWP$-1.3*STP$1008.8*SLP$1007.4*VISIB$11.7*WDSP$11.1*PRCP$0.32*SNDP$0.0*FRSHTT$010000*CLDC$69.3*WNDDIR$291
STN$507880*DATE$2021-02-04*TIME$12:55:31*TEMP$-21.5*DEWP$-25.3*STP$1017.4*SLP$1022.1*VISIB$18.8*WDSP$15.4*PRCP$0.01*SNDP$0.0*FRSHTT$110000*CLDC$50.8*WNDDIR$338
STN$852440*DATE$2021-02-04*TIME$12:55:31*TEMP$20.7*DEWP$13.2*STP$966.2*SLP$1008.6*VISIB$11.3*WDSP$20.2*PRCP$0.25*SNDP$0.0*FRSHTT$010000*CLDC$50.5*WNDDIR$121
STN$488100*DATE$2021-02-04*TIME$12:55:31*TEMP$8.2*DEWP$6.1*STP$1047.9*SLP$1024.9*VISIB$18.9*WDSP$5.5*PRCP$0.00*SNDP$0.0*FRSHTT$000000*CLDC$66.0*WNDDIR$50
STN$71860*DATE$2021-02-04*TIME$12:55:31*TEMP$-1.3*DEWP$-2.9*STP$1007.6*SLP$1019.0*VISIB$5.7*WDSP$17.0*PRCP$0.34*SNDP$0.8*FRSHTT$111000*CLDC$51.0*WNDDIR$49
STN$280490*DATE$2021-02-04*TIME$12:55:31*TEMP$-5.9*DEWP$-7.1*STP$996.9*SLP$1015.0*VISIB$17.8*WDSP$13.3*PRCP$0.00*SNDP$13.9*FRSHTT$101000*CLDC$51.8*WNDDIR$248
STN$717170*DATE$2021-02-04*TIME$12:55:31*TEMP$-13.5*DEWP$-18.3*STP$1012.2*SLP$1015.1*VISIB$18.1*WDSP$13.7*PRCP$0.14*SNDP$13.7*FRSHTT$111000*CLDC$76.6*WNDDIR$26
STN$719530*DATE$2021-02-04*TIME$12:55:31*TEMP$-11.2*DEWP$-14.8*STP$947.1*SLP$1015.2*VISIB$33.9*WDSP$8.9*PRCP$0.06*SNDP$17.3*FRSHTT$111000*CLDC$50.2*WNDDIR$257
STN$854590*DATE$2021-02-04*TIME$12:55:31*TEMP$16.3*DEWP$5.9*STP$973.3*SLP$940.7*VISIB$11.2*WDSP$13.1*PRCP$0.00*SNDP$0.0*FRSHTT$000000*CLDC$33.2*WNDDIR$46
STN$35280*DATE$2021-02-04*TIME$12:55:31*TEMP$-0.4*DEWP$-1.8*STP$1002.8*SLP$1010.3*VISIB$3.6*WDSP$18.5*PRCP$0.05*SNDP$0.0*FRSHTT$110000*CLDC$65.1*WNDDIR$243
STN$105190*DATE$2021-02-04*TIME$12:55:31*TEMP$2.4*DEWP$-1.4*STP$990.0*SLP$1010.1*VISIB$54.1*WDSP$20.4*PRCP$0.00*SNDP$0.0*FRSHTT$000000*CLDC$18.6*WNDDIR$242
STN$281720*DATE$2021-02-04*TIME$12:55:31*TEMP$-10.7*DEWP$-13.4*STP$1002.7*SLP$1003.0*VISIB$20.0*WDSP$9.5*PRCP$0.00*SNDP$35.5*FRSHTT$101000*CLDC$50.9*WNDDIR$246
STN$35310*DATE$2021-02-04*TIME$12:55:31*TEMP$-0.4*DEWP$-1.5*STP$1012.5*SLP$1040.1*VISIB$2.1*WDSP$23.7*PRCP$0.00*SNDP$0.0*FRSHTT$100000*CLDC$7.8*WNDDIR$60
STN$719510*DATE$2021-02-04*TIME$12:55:31*TEMP$-2.9*DEWP$-5.9*STP$989.8*SLP$1016.4*VISIB$16.8*WDSP$20.0*PRCP$0.20*SNDP$8.9*FRSHTT$111000*CLDC$51.0*WNDDIR$21
STN$156350*DATE$2021-02-04*TIME$12:55:31*TEMP$-2.4*DEWP$-10.1*STP$994.7*SLP$1018.7*VISIB$5.7*WDSP$11.0*PRCP$0.00*SNDP$0.0*FRSHTT$100000*CLDC$16.5*WNDDIR$52
STN$719500*DATE$2021-02-04*TIME$12:55:31*TEMP$-4.0*DEWP$-6.8*STP$953.9*SLP$1017.5*VISIB$27.6*WDSP$4.6*PRCP$0.08*SNDP$15.9*FRSHTT$111000*CLDC$50.4*WNDDIR$343
STN$607750*DATE$2021-02-04*TIME$12:55:31*TEMP$2.4*DEWP$-5.0*STP$985.2*SLP$1020.5*VISIB$12.1*WDSP$11.2*PRCP$0.00*SNDP$0.0*FRSHTT$000000*CLDC$98.0*WNDDIR$57
STN$265850*DATE$2021-02-04*TIME$12:55:31*TEMP$-8.1*DEWP$-10.5*STP$1017.9*SLP$1017.7*VISIB$10.7*WDSP$8.6*PRCP$0.06*SNDP$2.3*FRSHTT$111000*CLDC$81.7*WNDDIR$52
STN$590870*DATE$2021-02-04*TIME$12:55:31*TEMP$6.0*DEWP$2.1*STP$1021.3*SLP$1021.2*VISIB$13.2*WDSP$7.8*PRCP$0.17*SNDP$0.0*FRSHTT$010000*CLDC$50.1*WNDDIR$95
STN$121060*DATE$2021-02-04*TIME$12:55:31*TEMP$-1.2*DEWP$-3.8*STP$1035.2*SLP$1039.6*VISIB$11.1*WDSP$5.6*PRCP$0.00*SNDP$0.0*FRSHTT$100000*CLDC$11.7*WNDDIR$245
STN$702610*DATE$2021-02-04*TIME$12:55:31*TEMP$-18.7*DEWP$-23.0*STP$996.5*SLP$1015.0*VISIB$28.5*WDSP$5.1*PRCP$0.02*SNDP$11.9*FRSHTT$111000*CLDC$94.7*WNDDIR$23
STN$702615*DATE$2021-02-04*TIME$12:55:31*TEMP$-6.8*DEWP$-8.4*STP$1010.2*SLP$1029.9*VISIB$10.8*WDSP$4.6*PRCP$0.00*SNDP$0.0*FRSHTT$100000*CLDC$46.6*WNDDIR$252
STN$606400*DATE$2021-02-04*TIME$12:55:31*TEMP$4.7*DEWP$-7.0*STP$993.4*SLP$1012.9*VISIB$10.3*WDSP$8.5*PRCP$0.00*SNDP$0.0*FRSHTT$000000*CLDC$98.5*WNDDIR$108
STN$702600*DATE$2021-02-04*TIME$12:55:31*TEMP$-14.4*DEWP$-20.3*STP$993.0*SLP$996.1*VISIB$14.1*WDSP$18.9*PRCP$0.00*SNDP$0.0*FRSHTT$100000*CLDC$66.2*WNDDIR$349
STN$71090*DATE$2021-02-04*TIME$12:55:31*TEMP$2.1*DEWP$-1.7*STP$994.1*SLP$1005.4*VISIB$15.4*WDSP$18.6*PRCP$1.21*SNDP$0.0*FRSHTT$010000*CLDC$72.5*WNDDIR$90
STN$105520*DATE$2021-02-04*TIME$12:55:31*TEMP$-1.0*DEWP$-1.3*STP$903.5*SLP$904.7*VISIB$2.3*WDSP$25.9*PRCP$0.26*SNDP$29.1*FRSHTT$111000*CLDC$88.1*WNDDIR$175
STN$403560*DATE$2021-02-04*TIME$12:55:31*TEMP$2.2*DEWP$-5.5*STP$954.4*SLP$950.5*VISIB$8.8*WDSP$15.3*PRCP$0.22*SNDP$0.0*FRSHTT$010000*CLDC$50.7*WNDDIR$338
STN$143700*DATE$2021-02-04*TIME$12:55:31*TEMP$-1.3*DEWP$-4.9*STP$1006.3*SLP$1017.8*VISIB$13.6*WDSP$6.0*PRCP$0.01*SNDP$0.0*FRSHTT$110000*CLDC$51.9*WNDDIR$116
STN$330880*DATE$2021-02-04*TIME$12:55:31*TEMP$-6.1*DEWP$-8.1*STP$1004.8*SLP$1017.2*VISIB$9.1*WDSP$9.6*PRCP$0.06*SNDP$2.9*FRSHTT$111000*CLDC$65.2*WNDDIR$15
STN$101850*DATE$2021-02-04*TIME$12:55:31*TEMP$-1.3*DEWP$-2.8*STP$1021.0*SLP$1015.7*VISIB$7.8*WDSP$19.3*PRCP$0.03*SNDP$0.0*FRSHTT$110000*CLDC$95.0*WNDDIR$231
STN$486990*DATE$2021-02-04*TIME$12:55:31*TEMP$20.4*DEWP$17.4*STP$1012.7*SLP$1033.9*VISIB$9.0*WDSP$14.2*PRCP$0.00*SNDP$0.0*FRSHTT$000000*CLDC$79.2*WNDDIR$163
STN$161180*DATE$2021-02-04*TIME$12:55:31*TEMP$0.8*DEWP$0.0*STP$988.0*SLP$1009.8*VISIB$0.3*WDSP$1.4*PRCP$0.02*SNDP$0.0*FRSHTT$010000*CLDC$51.1*WNDDIR$287
STN$716200*DATE$2021-02-04*TIME$12:55:31*TEMP$-9.3*DEWP$-13.4*STP$1009.7*SLP$1019.2*VISIB$20.5*WDSP$17.5*PRCP$0.10*SNDP$3.4*FRSHTT$111000*CLDC$56.8*WNDDIR$32
STN$486980*DATE$2021-02-04*TIME$12:55:31*TEMP$20.4*DEWP$17.6*STP$1008.6*SLP$1008.7*VISIB$10.2*WDSP$15.7*PRCP$0.16*SNDP$0.0*FRSHTT$010000*CLDC$50.3*WNDDIR$270
STN$101840*DATE$2021-02-04*TIME$12:55:31*TEMP$1.0*DEWP$-2.9*STP$1004.9*SLP$1005.3*VISIB$33.9*WDSP$34.8*PRCP$0.25*SNDP$0.0*FRSHTT$010000*CLDC$64.1*WNDDIR$304
STN$890020*DATE$2021-02-04*TIME$12:55:31*TEMP$-8.6*DEWP$-11.6*STP$985.2*SLP$990.1*VISIB$23.2*WDSP$15.1*PRCP$0.00*SNDP$0.0*FRSHTT$100000*CLDC$50.3*WNDDIR$12
STN$285520*DATE$2021-02-04*TIME$12:55:31*TEMP$-2.9*DEWP$-13.1*STP$1015.0*SLP$1022.2*VISIB$12.1*WDSP$10.5*PRCP$0.02*SNDP$9.3*FRSHTT$111000*CLDC$50.3*WNDDIR$278
STN$273930*DATE$2021-02-04*TIME$12:55:31*TEMP$-9.3*DEWP$-11.8*STP$1014.0*SLP$1018.4*VISIB$14.4*WDSP$8.0*PRCP$0.05*SNDP$8.2*FRSHTT$111000*CLDC$70.3*WNDDIR$207
STN$25105*DATE$2021-02-04*TIME$12:55:31*TEMP$0.8*DEWP$-1.0*STP$1004.7*SLP$1004.7*VISIB$9.8*WDSP$11.4*PRCP$0.00*SNDP$0.0*FRSHTT$000000*CLDC$53.4*WNDDIR$50
STN$483270*DATE$2021-02-04*TIME$12:55:31*TEMP$18.0*DEWP$8.7*STP$997.0*SLP$1009.9*VISIB$6.7*WDSP$3.7*PRCP$0.02*SNDP$0.0*FRSHTT$010000*CLDC$71.4*WNDDIR$184
STN$131280*DATE$2021-02-04*TIME$12:55:31*TEMP$0.0*DEWP$-4.2*STP$1023.4*SLP$1022.6*VISIB$13.1*WDSP$8.5*PRCP$0.00*SNDP$0.0*FRSHTT$000000*CLDC$12.9*WNDDIR$46
STN$94490*DATE$2021-02-04*TIME$12:55:31*TEMP$-1.6*DEWP$-4.5*STP$1005.9*SLP$1018.9*VISIB$11.2*WDSP$11.1*PRCP$0.04*SNDP$3.3*FRSHTT$111000*CLDC$56.1*WNDDIR$323
STN$289570*DATE$2021-02-04*TIME$12:55:31*TEMP$-13.4*DEWP$-17.0*STP$1027.1*SLP$1026.6*VISIB$8.0*WDSP$14.7*PRCP$0.02*SNDP$2.7*FRSHTT$111000*CLDC$51.0*WNDDIR$79
STN$833490*DATE$2021-02-04*TIME$12:55:31*TEMP$21.4*DEWP$17.6*STP$1015.1*SLP$1013.7*VISIB$13.1*WDSP$8.2*PRCP$0.00*SNDP$0.0*FRSHTT$000000*CLDC$41.7*WNDDIR$134
STN$25590*DATE$2021-02-04*TIME$12:55:31*TEMP$-2.5*DEWP$-3.5*STP$1008.4*SLP$986.7*VISIB$13.9*WDSP$9.7*PRCP$0.00*SNDP$0.0*FRSHTT$100000*CLDC$46.8*WNDDIR$196
STN$941200*DATE$2021-02-04*TIME$12:55:31*TEMP$26.3*DEWP$22.1*STP$1004.4*SLP$1006.8*VISIB$19.6*WDSP$13.0*PRCP$0.54*SNDP$0.0*FRSHTT$010000*CLDC$88.3*WNDDIR$176
STN$10030*DATE$2021-02-04*TIME$12:55:31*TEMP$-5.0*DEWP$-8.1*STP$1016.2*SLP$1011.7*VISIB$18.5*WDSP$33.7*PRCP$0.02*SNDP$6.5*FRSHTT$111000*CLDC$71.1*WNDDIR$140
STN$431850*DATE$2021-02-04*TIME$12:55:31*TEMP$27.4*DEWP$21.4*STP$1012.9*SLP$1012.7*VISIB$4.3*WDSP$4.8*PRCP$0.00*SNDP$0.0*FRSHTT$000000*CLDC$57.7*WNDDIR$293
STN$726278*DATE$2021-02-04*TIME$12:55:31*TEMP$-12.0*DEWP$-14.9*STP$1003.4*SLP$1018.6*VISIB$30.7*WDSP$30.9*PRCP$0.00*SNDP$0.0*FRSHTT$100000*CLDC$23.5*WNDDIR$169
STN$567680*DATE$2021-02-04*TIME$12:55:31*TEMP$6.5*DEWP$-2.5*STP$821.0*SLP$824.6*VISIB$26.8*WDSP$6.9*PRCP$0.01*SNDP$0.0*FRSHTT$010000*CLDC$66.0*WNDDIR$167
STN$726280*DATE$2021-02-04*TIME$12:55:31*TEMP$-16.9*DEWP$-21.5*STP$1002.7*SLP$1024.0*VISIB$21.1*WDSP$24.2*PRCP$0.16*SNDP$16.2*FRSHTT$111000*CLDC$50.1*WNDDIR$36
STN$726284*DATE$2021-02-04*TIME$12:55:31*TEMP$-12.9*DEWP$-16.1*STP$1002.9*SLP$989.0*VISIB$10.9*WDSP$19.9*PRCP$0.00*SNDP$0.0*FRSHTT$100000*CLDC$18.8*WNDDIR$168
STN$477350*DATE$2021-02-04*TIME$12:55:31*TEMP$6.3*DEWP$-4.6*STP$1001.2*SLP$1004.6*VISIB$11.4*WDSP$19.6*PRCP$0.00*SNDP$0.0*FRSHTT$000000*CLDC$13.3*WNDDIR$205
STN$386870*DATE$2021-02-04*TIME$12:55:31*TEMP$7.1*DEWP$2.2*STP$1003.9*SLP$1021.3*VISIB$5.1*WDSP$10.8*PRCP$0.09*SNDP$0.3*FRSHTT$011000*CLDC$84.1*WNDDIR$84
STN$477370*DATE$2021-02-04*TIME$12:55:31*TEMP$8.1*DEWP$-3.6*STP$991.7*SLP$999.4*VISIB$13.0*WDSP$22.4*PRCP$0.00*SNDP$0.0*FRSHTT$000000*CLDC$19.0*WNDDIR$37
STN$232740*DATE$2021-02-04*TIME$12:55:31*TEMP$-21.5*DEWP$-24.7*STP$1014.9*SLP$1022.1*VISIB$7.8*WDSP$11.1*PRCP$0.03*SNDP$8.5*FRSHTT$111000*CLDC$73.0*WNDDIR$141
STN$30060*DATE$2021-02-04*TIME$12:55:31*TEMP$3.0*DEWP$-0.7*STP$982.5*SLP$992.9*VISIB$14.2*WDSP$45.6*PRCP$0.00*SNDP$0.0*FRSHTT$000000*CLDC$75.9*WNDDIR$152
STN$703620*DATE$2021-02-04*TIME$12:55:31*TEMP$-3.0*DEWP$-8.5*STP$1018.7*SLP$1015.6*VISIB$12.8*WDSP$15.4*PRCP$0.04*SNDP$0.0*FRSHTT$110000*CLDC$50.7*WNDDIR$281
STN$948510*DATE$2021-02-04*TIME$12:55:31*TEMP$13.4*DEWP$8.4*STP$1012.0*SLP$1015.1*VISIB$15.5*WDSP$28.7*PRCP$0.00*SNDP$0.0*FRSHTT$000000*CLDC$75.9*WNDDIR$195
STN$563850*DATE$2021-02-04*TIME$12:55:31*TEMP$-2.0*DEWP$-7.3*STP$746.6*SLP$746.9*VISIB$16.6*WDSP$10.8*PRCP$0.03*SNDP$0.0*FRSHTT$110000*CLDC$50.5*WNDDIR$163
STN$718920*DATE$2021-02-04*TIME$12:55:31*TEMP$0.4*DEWP$-2.5*STP$1018.8*SLP$1019.1*VISIB$26.0*WDSP$12.5*PRCP$0.27*SNDP$0.2*FRSHTT$011000*CLDC$71.6*WNDDIR$94
STN$703625*DATE$2021-02-04*TIME$12:55:31*TEMP$-1.0*DEWP$-2.5*STP$999.0*SLP$988.1*VISIB$20.8*WDSP$16.7*PRCP$0.02*SNDP$0.0*FRSHTT$110000*CLDC$50.5*WNDDIR$22
STN$703626*DATE$2021-02-04*TIME$12:55:31*TEMP$-3.8*DEWP$-6.4*STP$1014.5*SLP$1015.5*VISIB$15.5*WDSP$19.8*PRCP$0.11*SNDP$0.0*FRSHTT$110000*CLDC$94.7*WNDDIR$308
STN$351660*DATE$2021-02-04*TIME$12:55:31*TEMP$-16.9*DEWP$-20.4*STP$1027.7*SLP$1032.9*VISIB$33.5*WDSP$17.4*PRCP$0.00*SNDP$0.0*FRSHTT$100000*CLDC$76.8*WNDDIR$119
STN$505570*DATE$2021-02-04*TIME$12:55:31*TEMP$-28.1*DEWP$-32.1*STP$1011.8*SLP$1025.6*VISIB$15.2*WDSP$6.2*PRCP$0.00*SNDP$0.0*FRSHTT$100000*CLDC$86.3*WNDDIR$107
STN$718925*DATE$2021-02-04*TIME$12:55:31*TEMP$1.8*DEWP$0.6*STP$989.1*SLP$1020.2*VISIB$12.6*WDSP$11.1*PRCP$0.00*SNDP$0.0*FRSHTT$000000*CLDC$98.5*WNDDIR$75
STN$948520*DATE$2021-02-04*TIME$12:55:31*TEMP$14.5*DEWP$5.9*STP$965.0*SLP$1015.0*VISIB$45.7*WDSP$16.9*PRCP$0.02*SNDP$0.0*FRSHTT$010000*CLDC$51.4*WNDDIR$262
STN$215370*DATE$2021-02-04*TIME$12:55:31*TEMP$-27.4*DEWP$-29.7*STP$1011.1*SLP$1000.5*VISIB$20.1*WDSP$25.9*PRCP$0.00*SNDP$0.0*FRSHTT$100000*CLDC$50.2*WNDDIR$153
STN$865000*DATE$2021-02-04*TIME$12:55:31*TEMP$16.2*DEWP$10.7*STP$1020.3*SLP$1011.8*VISIB$15.7*WDSP$6.8*PRCP$0.09*SNDP$0.0*FRSHTT$010000*CLDC$63.6*WNDDIR$241
STN$919520*DATE$2021-02-04*TIME$12:55:31*TEMP$12.9*DEWP$9.4*STP$1012.4*SLP$1013.6*VISIB$19.2*WDSP$18.2*PRCP$0.08*SNDP$0.0*FRSHTT$010000*CLDC$51.8*WNDDIR$318
STN$434130*DATE$2021-02-04*TIME$12:55:31*TEMP$25.3*DEWP$20.6*STP$1027.7*SLP$1011.7*VISIB$10.6*WDSP$11.8*PRCP$0.00*SNDP$0.0*FRSHTT$000000*CLDC$65.1*WNDDIR$292
STN$475490*DATE$2021-02-04*TIME$12:55:31*TEMP$-3.5*DEWP$-9.8*STP$1002.6*SLP$1002.2*VISIB$13.2*WDSP$12.3*PRCP$0.00*SNDP$0.0*FRSHTT$100000*CLDC$92.6*WNDDIR$124
STN$728260*DATE$2021-02-04*TIME$12:55:31*TEMP$-27.5*DEWP$-31.6*STP$942.7*SLP$1013.3*VISIB$20.9*WDSP$18.9*PRCP$0.02*SNDP$31.2*FRSHTT$111000*CLDC$80.8*WNDDIR$186
STN$76670*DATE$2021-02-04*TIME$12:55:31*TEMP$2.3*DEWP$-2.6*STP$1018.2*SLP$1019.1*VISIB$11.7*WDSP$14.4*PRCP$0.04*SNDP$0.0*FRSHTT$010000*CLDC$69.6*WNDDIR$145
STN$388860*DATE$2021-02-04*TIME$12:55:31*TEMP$0.8*DEWP$-2.4*STP$1014.3*SLP$1037.8*VISIB$6.9*WDSP$5.0*PRCP$0.00*SNDP$0.5*FRSHTT$001000*CLDC$81.6*WNDDIR$297
STN$919300*DATE$2021-02-04*TIME$12:55:31*TEMP$13.5*DEWP$8.6*STP$1010.1*SLP$1010.5*VISIB$18.5*WDSP$13.3*PRCP$0.18*SNDP$0.0*FRSHTT$010000*CLDC$79.1*WNDDIR$153
STN$728280*DATE$2021-02-04*TIME$12:55:31*TEMP$-31.8*DEWP$-35.9*STP$939.0*SLP$1004.5*VISIB$13.8*WDSP$23.6*PRCP$0.05*SNDP$52.2*FRSHTT$111000*CLDC$67.8*WNDDIR$95
STN$727090*DATE$2021-02-04*TIME$12:55:31*TEMP$-12.8*DEWP$-16.1*STP$1003.2*SLP$1010.3*VISIB$15.6*WDSP$38.8*PRCP$0.00*SNDP$5.3*FRSHTT$101000*CLDC$86.6*WNDDIR$182
STN$636860*DATE$2021-02-04*TIME$12:55:31*TEMP$4.0*DEWP$-2.8*STP$997.8*SLP$1001.1*VISIB$11.2*WDSP$18.0*PRCP$0.00*SNDP$0.0*FRSHTT$000000*CLDC$9.9*WNDDIR$246
STN$476570*DATE$2021-02-04*TIME$12:55:31*TEMP$0.4*DEWP$-5.2*STP$1014.8*SLP$1017.5*VISIB$23.4*WDSP$5.1*PRCP$0.02*SNDP$0.0*FRSHTT$010000*CLDC$92.7*WNDDIR$354
STN$621310*DATE$2021-02-04*TIME$12:55:31*TEMP$1.0*DEWP$-5.6*STP$1055.3*SLP$1021.1*VISIB$12.8*WDSP$27.1*PRCP$0.00*SNDP$0.0*FRSHTT$000000*CLDC$63.6*WNDDIR$161
STN$61900*DATE$2021-02-04*TIME$12:55:31*TEMP$0.0*DEWP$-2.1*STP$1014.6*SLP$1014.9*VISIB$9.6*WDSP$30.8*PRCP$0.04*SNDP$0.9*FRSHTT$011000*CLDC$50.2*WNDDIR$106
STN$108150*DATE$2021-02-04*TIME$12:55:31*TEMP$-1.0*DEWP$-4.7*STP$961.8*SLP$957.7*VISIB$22.7*WDSP$8.6*PRCP$0.36*SNDP$8.5*FRSHTT$111000*CLDC$51.5*WNDDIR$289
STN$727110*DATE$2021-02-04*TIME$12:55:31*TEMP$-18.5*DEWP$-22.7*STP$1009.3*SLP$1014.6*VISIB$22.4*WDSP$23.2*PRCP$0.00*SNDP$28.6*FRSHTT$101000*CLDC$50.8*WNDDIR$175
STN$535880*DATE$2021-02-04*TIME$12:55:31*TEMP$-5.7*DEWP$-11.8*STP$751.1*SLP$752.5*VISIB$24.8*WDSP$30.9*PRCP$0.02*SNDP$0.0*FRSHTT$110000*CLDC$52.5*WNDDIR$155
STN$918430*DATE$2021-02-04*TIME$12:55:31*TEMP$16.5*DEWP$14.0*STP$1008.8*SLP$1011.1*VISIB$36.5*WDSP$19.2*PRCP$0.77*SNDP$0.0*FRSHTT$010000*CLDC$50.2*WNDDIR$351
STN$918400*DATE$2021-02-04*TIME$12:55:31*TEMP$21.6*DEWP$17.2*STP$980.1*SLP$1012.0*VISIB$48.6*WDSP$12.2*PRCP$0.00*SNDP$0.0*FRSHTT$000000*CLDC$37.5*WNDDIR$240
STN$66200*DATE$2021-02-04*TIME$12:55:31*TEMP$-2.0*DEWP$-4.8*STP$1018.0*SLP$1023.6*VISIB$16.2*WDSP$7.8*PRCP$0.03*SNDP$0.0*FRSHTT$110000*CLDC$50.9*WNDDIR$141
STN$221270*DATE$2021-02-04*TIME$12:55:31*TEMP$-10.4*DEWP$-11.7*STP$1005.5*SLP$1006.8*VISIB$20.8*WDSP$13.4*PRCP$0.04*SNDP$11.6*FRSHTT$111000*CLDC$67.9*WNDDIR$263
STN$470080*DATE$2021-02-04*TIME$12:55:31*TEMP$-8.5*DEWP$-16.4*STP$1014.9*SLP$1022.9*VISIB$10.2*WDSP$3.7*PRCP$0.00*SNDP$0.0*FRSHTT$100000*CLDC$28.5*WNDDIR$44
STN$378635*DATE$2021-02-04*TIME$12:55:31*TEMP$-5.5*DEWP$-8.9*STP$1002.5*SLP$1000.4*VISIB$8.6*WDSP$6.4*PRCP$0.00*SNDP$0.0*FRSHTT$100000*CLDC$36.5*WNDDIR$141
STN$629410*DATE$2021-02-04*TIME$12:55:31*TEMP$13.7*DEWP$-3.2*STP$1011.6*SLP$1005.1*VISIB$21.7*WDSP$3.0*PRCP$0.00*SNDP$0.0*FRSHTT$000000*CLDC$91.6*WNDDIR$358
STN$485510*DATE$2021-02-04*TIME$12:55:31*TEMP$22.4*DEWP$15.8*STP$1017.6*SLP$1011.3*VISIB$6.0*WDSP$9.3*PRCP$0.00*SNDP$0.0*FRSHTT$000000*CLDC$73.9*WNDDIR$100
STN$576870*DATE$2021-02-04*TIME$12:55:31*TEMP$1.7*DEWP$-3.9*STP$1017.7*SLP$1025.1*VISIB$7.3*WDSP$4.5*PRCP$0.03*SNDP$0.0*FRSHTT$010000*CLDC$50.0*WNDDIR$167
STN$268630*DATE$2021-02-04*TIME$12:55:31*TEMP$-8.7*DEWP$-12.0*STP$1006.5*SLP$1016.2*VISIB$4.9*WDSP$16.6*PRCP$0.05*SNDP$5.2*FRSHTT$111000*CLDC$82.0*WNDDIR$74
STN$101130*DATE$2021-02-04*TIME$12:55:31*TEMP$0.3*DEWP$-2.0*STP$1013.2*SLP$1015.7*VISIB$7.3*WDSP$20.4*PRCP$0.08*SNDP$0.1*FRSHTT$011000*CLDC$50.5*WNDDIR$147
STN$837030*DATE$2021-02-04*TIME$12:55:31*TEMP$18.9*DEWP$11.5*STP$982.8*SLP$985.0*VISIB$11.1*WDSP$10.4*PRCP$0.00*SNDP$0.0*FRSHTT$000000*CLDC$75.4*WNDDIR$79
STN$711150*DATE$2021-02-04*TIME$12:55:31*TEMP$-4.6*DEWP$-7.4*STP$1036.2*SLP$1028.8*VISIB$16.5*WDSP$6.0*PRCP$0.00*SNDP$0.0*FRSHTT$100000*CLDC$42.3*WNDDIR$353
STN$77850*DATE$2021-02-04*TIME$12:55:31*TEMP$3.1*DEWP$-1.1*STP$1047.2*SLP$1019.7*VISIB$20.2*WDSP$17.5*PRCP$0.11*SNDP$0.0*FRSHTT$010000*CLDC$67.7*WNDDIR$283
STN$167060*DATE$2021-02-04*TIME$12:55:31*TEMP$1.6*DEWP$-3.1*STP$1000.0*SLP$1010.0*VISIB$11.0*WDSP$16.1*PRCP$0.00*SNDP$0.0*FRSHTT$000000*CLDC$48.0*WNDDIR$290
STN$711140*DATE$2021-02-04*TIME$12:55:31*TEMP$-0.1*DEWP$-3.4*STP$1016.3*SLP$1021.3*VISIB$15.3*WDSP$11.3*PRCP$0.27*SNDP$1.2*FRSHTT$111000*CLDC$50.1*WNDDIR$313
STN$598450*DATE$2021-02-04*TIME$12:55:31*TEMP$6.0*DEWP$4.2*STP$1014.6*SLP$1017.6*VISIB$15.8*WDSP$8.8*PRCP$0.02*SNDP$0.0*FRSHTT$010000*CLDC$89.1*WNDDIR$49
STN$722874*DATE$2021-02-04*TIME$12:55:31*TEMP$3.5*DEWP$-8.3*STP$1027.0*SLP$1017.7*VISIB$13.8*WDSP$4.9*PRCP$0.12*SNDP$0.0*FRSHTT$010000*CLDC$50.7*WNDDIR$99
STN$722868*DATE$2021-02-04*TIME$12:55:31*TEMP$4.5*DEWP$-9.6*STP$1014.3*SLP$1016.4*VISIB$18.4*WDSP$13.4*PRCP$0.02*SNDP$0.0*FRSHTT$010000*CLDC$61.1*WNDDIR$297
STN$722869*DATE$2021-02-04*TIME$12:55:31*TEMP$2.3*DEWP$-10.7*STP$1024.9*SLP$1015.9*VISIB$11.8*WDSP$7.7*PRCP$0.00*SNDP$0.0*FRSHTT$000000*CLDC$46.2*WNDDIR$62
STN$722866*DATE$2021-02-04*TIME$12:55:31*TEMP$3.5*DEWP$-6.6*STP$992.9*SLP$1018.3*VISIB$30.4*WDSP$5.5*PRCP$0.05*SNDP$0.0*FRSHTT$010000*CLDC$53.0*WNDDIR$102
STN$722867*DATE$2021-02-04*TIME$12:55:31*TEMP$1.8*DEWP$-7.0*STP$998.2*SLP$1008.7*VISIB$30.1*WDSP$16.8*PRCP$0.01*SNDP$0.0*FRSHTT$010000*CLDC$51.3*WNDDIR$193
STN$959600*DATE$2021-02-04*TIME$12:55:31*TEMP$13.3*DEWP$6.8*STP$1017.0*SLP$1017.9*VISIB$24.7*WDSP$11.3*PRCP$0.00*SNDP$0.0*FRSHTT$000000*CLDC$53.9*WNDDIR$103
STN$646500*DATE$2021-02-04*TIME$12:55:31*TEMP$9.2*DEWP$1.0*STP$967.0*SLP$1007.8*VISIB$6.3*WDSP$3.7*PRCP$0.00*SNDP$0.0*FRSHTT$000000*CLDC$20.5*WNDDIR$303
STN$144540*DATE$2021-02-04*TIME$12:55:31*TEMP$3.3*DEWP$-4.0*STP$1008.5*SLP$1015.1*VISIB$13.5*WDSP$15.6*PRCP$0.05*SNDP$0.0*FRSHTT$010000*CLDC$91.0*WNDDIR$295
STN$680400*DATE$2021-02-04*TIME$12:55:31*TEMP$7.0*DEWP$-5.4*STP$988.0*SLP$990.5*VISIB$11.6*WDSP$6.5*PRCP$0.01*SNDP$0.0*FRSHTT$010000*CLDC$51.4*WNDDIR$256
STN$470900*DATE$2021-02-04*TIME$12:55:31*TEMP$-2.6*DEWP$-11.2*STP$1018.5*SLP$1020.8*VISIB$17.5*WDSP$9.3*PRCP$0.08*SNDP$1.6*FRSHTT$111000*CLDC$50.2*WNDDIR$263
STN$83300*DATE$2021-02-04*TIME$12:55:31*TEMP$1.6*DEWP$-3.3*STP$1002.4*SLP$1025.3*VISIB$8.0*WDSP$8.5*PRCP$0.08*SNDP$0.0*FRSHTT$010000*CLDC$53.3*WNDDIR$129
STN$39740*DATE$2021-02-04*TIME$12:55:31*TEMP$1.3*DEWP$-1.7*STP$1003.2*SLP$1008.8*VISIB$18.6*WDSP$22.1*PRCP$0.22*SNDP$0.1*FRSHTT$011000*CLDC$73.0*WNDDIR$28
STN$330080*DATE$2021-02-04*TIME$12:55:31*TEMP$-3.6*DEWP$-6.2*STP$1011.6*SLP$1016.7*VISIB$5.6*WDSP$13.0*PRCP$0.07*SNDP$2.4*FRSHTT$111000*CLDC$50.9*WNDDIR$232
STN$377890*DATE$2021-02-04*TIME$12:55:31*TEMP$-3.3*DEWP$-7.3*STP$981.3*SLP$1006.8*VISIB$9.7*WDSP$2.9*PRCP$0.00*SNDP$0.0*FRSHTT$100000*CLDC$54.5*WNDDIR$9
STN$286370*DATE$2021-02-04*TIME$12:55:31*TEMP$-3.6*DEWP$-5.6*STP$978.6*SLP$1006.6*VISIB$23.6*WDSP$15.1*PRCP$0.03*SNDP$33.9*FRSHTT$111000*CLDC$50.5*WNDDIR$272
STN$727687*DATE$2021-02-04*TIME$12:55:31*TEMP$-6.8*DEWP$-12.0*STP$1019.0*SLP$1027.2*VISIB$17.5*WDSP$8.2*PRCP$0.00*SNDP$0.0*FRSHTT$100000*CLDC$23.2*WNDDIR$295
STN$727685*DATE$2021-02-04*TIME$12:55:31*TEMP$-10.6*DEWP$-15.8*STP$1055.1*SLP$1036.3*VISIB$38.4*WDSP$22.4*PRCP$0.03*SNDP$1.6*FRSHTT$111000*CLDC$78.0*WNDDIR$49
STN$727680*DATE$2021-02-04*TIME$12:55:31*TEMP$-9.0*DEWP$-13.1*STP$953.2*SLP$1023.8*VISIB$25.9*WDSP$14.8*PRCP$0.00*SNDP$4.1*FRSHTT$101000*CLDC$51.7*WNDDIR$330
STN$107710*DATE$2021-02-04*TIME$12:55:31*TEMP$-2.4*DEWP$-5.6*STP$969.2*SLP$1020.9*VISIB$16.2*WDSP$7.7*PRCP$0.06*SNDP$1.6*FRSHTT$111000*CLDC$79.2*WNDDIR$347
STN$917840*DATE$2021-02-04*TIME$12:55:31*TEMP$19.4*DEWP$16.2*STP$993.1*SLP$1010.6*VISIB$27.8*WDSP$6.8*PRCP$0.03*SNDP$0.0*FRSHTT$010000*CLDC$83.4*WNDDIR$266
STN$476960*DATE$2021-02-04*TIME$12:55:31*TEMP$4.5*DEWP$-5.2*STP$1015.0*SLP$1016.3*VISIB$10.2*WDSP$15.7*PRCP$0.03*SNDP$0.0*FRSHTT$010000*CLDC$51.1*WNDDIR$274
STN$745046*DATE$2021-02-04*TIME$12:55:31*TEMP$0.3*DEWP$-3.1*STP$1008.9*SLP$1021.4*VISIB$8.5*WDSP$6.9*PRCP$0.06*SNDP$0.0*FRSHTT$010000*CLDC$90.0*WNDDIR$256
STN$636190*DATE$2021-02-04*TIME$12:55:31*TEMP$10.7*DEWP$-11.4*STP$1001.0*SLP$1029.1*VISIB$23.4*WDSP$17.2*PRCP$0.00*SNDP$0.0*FRSHTT$000000*CLDC$56.3*WNDDIR$147
STN$620630*DATE$2021-02-04*TIME$12:55:31*TEMP$4.3*DEWP$-3.2*STP$1022.5*SLP$1018.9*VISIB$24.3*WDSP$12.5*PRCP$0.00*SNDP$0.0*FRSHTT$000000*CLDC$87.9*WNDDIR$162
STN$745048*DATE$2021-02-04*TIME$12:55:31*TEMP$1.2*DEWP$-2.3*STP$1030.1*SLP$1022.0*VISIB$15.2*WDSP$10.1*PRCP$0.08*SNDP$0.0*FRSHTT$010000*CLDC$50.4*WNDDIR$130
STN$723409*DATE$2021-02-04*TIME$12:55:31*TEMP$0.5*DEWP$-3.9*STP$1017.7*SLP$1022.7*VISIB$17.7*WDSP$13.7*PRCP$0.05*SNDP$0.0*FRSHTT$010000*CLDC$79.1*WNDDIR$210
STN$983300*DATE$2021-02-04*TIME$12:55:31*TEMP$23.2*DEWP$18.4*STP$1020.4*SLP$1012.6*VISIB$16.0*WDSP$3.1*PRCP$0.00*SNDP$0.0*FRSHTT$000000*CLDC$55.1*WNDDIR$302
STN$11620*DATE$2021-02-04*TIME$12:55:31*TEMP$-0.8*DEWP$-7.5*STP$1006.1*SLP$987.4*VISIB$11.2*WDSP$8.1*PRCP$0.00*SNDP$0.0*FRSHTT$100000*CLDC$33.1*WNDDIR$75
STN$539860*DATE$2021-02-04*TIME$12:55:31*TEMP$-1.0*DEWP$-15.3*STP$1051.6*SLP$1020.3*VISIB$10.9*WDSP$10.0*PRCP$0.00*SNDP$0.0*FRSHTT$100000*CLDC$28.0*WNDDIR$257
STN$570710*DATE$2021-02-04*TIME$12:55:31*TEMP$-0.2*DEWP$-11.8*STP$1026.4*SLP$1026.0*VISIB$14.5*WDSP$11.1*PRCP$0.01*SNDP$0.0*FRSHTT$110000*CLDC$60.7*WNDDIR$120
STN$723416*DATE$2021-02-04*TIME$12:55:31*TEMP$13.3*DEWP$8.3*STP$981.2*SLP$989.5*VISIB$9.3*WDSP$17.8*PRCP$0.00*SNDP$0.0*FRSHTT$000000*CLDC$53.8*WNDDIR$214
STN$723417*DATE$2021-02-04*TIME$12:55:31*TEMP$2.2*DEWP$-4.1*STP$1005.1*SLP$1011.7*VISIB$12.3*WDSP$14.9*PRCP$0.12*SNDP$0.1*FRSHTT$011000*CLDC$50.1*WNDDIR$115
STN$723418*DATE$2021-02-04*TIME$12:55:31*TEMP$3.4*DEWP$-3.2*STP$1009.4*SLP$1010.6*VISIB$17.1*WDSP$15.0*PRCP$0.04*SNDP$0.0*FRSHTT$010000*CLDC$97.8*WNDDIR$130
STN$356990*DATE$2021-02-04*TIME$12:55:31*TEMP$-4.8*DEWP$-22.1*STP$957.0*SLP$1039.4*VISIB$27.4*WDSP$16.8*PRCP$0.00*SNDP$3.8*FRSHTT$101000*CLDC$50.2*WNDDIR$319
STN$42210*DATE$2021-02-04*TIME$12:55:31*TEMP$-24.0*DEWP$-30.5*STP$1006.3*SLP$1010.7*VISIB$21.8*WDSP$20.9*PRCP$0.00*SNDP$0.0*FRSHTT$100000*CLDC$69.9*WNDDIR$25
STN$475830*DATE$2021-02-04*TIME$12:55:31*TEMP$-3.8*DEWP$-7.7*STP$1011.8*SLP$1008.1*VISIB$8.0*WDSP$13.9*PRCP$0.00*SNDP$0.0*FRSHTT$100000*CLDC$74.6*WNDDIR$309
STN$63200*DATE$2021-02-04*TIME$12:55:31*TEMP$2.0*DEWP$0.0*STP$1015.8*SLP$1010.0*VISIB$8.2*WDSP$46.9*PRCP$0.00*SNDP$0.0*FRSHTT$000000*CLDC$52.0*WNDDIR$9
STN$32610*DATE$2021-02-04*TIME$12:55:31*TEMP$2.5*DEWP$0.7*STP$1004.7*SLP$1006.2*VISIB$10.0*WDSP$16.5*PRCP$0.07*SNDP$0.0*FRSHTT$010000*CLDC$76.3*WNDDIR$218
STN$231210*DATE$2021-02-04*TIME$12:55:31*TEMP$-6.7*DEWP$-7.9*STP$1012.9*SLP$1016.8*VISIB$19.7*WDSP$13.4*PRCP$0.03*SNDP$20.5*FRSHTT$111000*CLDC$51.3*WNDDIR$133
STN$275320*DATE$2021-02-04*TIME$12:55:31*TEMP$-4.8*DEWP$-7.3*STP$1007.0*SLP$1016.6*VISIB$6.6*WDSP$9.9*PRCP$0.04*SNDP$6.1*FRSHTT$111000*CLDC$61.6*WNDDIR$115
STN$106810*DATE$2021-02-04*TIME$12:55:31*TEMP$-4.3*DEWP$-9.4*STP$1031.1*SLP$1025.2*VISIB$10.9*WDSP$12.7*PRCP$0.00*SNDP$0.0*FRSHTT$100000*CLDC$97.3*WNDDIR$314
STN$475820*DATE$2021-02-04*TIME$12:55:31*TEMP$-3.0*DEWP$-8.2*STP$1015.0*SLP$1017.3*VISIB$11.6*WDSP$16.1*PRCP$0.15*SNDP$5.8*FRSHTT$111000*CLDC$57.9*WNDDIR$353
STN$63230*DATE$2021-02-04*TIME$12:55:31*TEMP$2.0*DEWP$-1.2*STP$1004.3*SLP$1003.5*VISIB$25.7*WDSP$29.1*PRCP$0.05*SNDP$0.0*FRSHTT$010000*CLDC$92.1*WNDDIR$182
STN$32635*DATE$2021-02-04*TIME$12:55:31*TEMP$1.9*DEWP$-0.5*STP$1001.4*SLP$999.1*VISIB$12.7*WDSP$29.7*PRCP$0.00*SNDP$0.0*FRSHTT$000000*CLDC$30.0*WNDDIR$277
STN$510760*DATE$2021-02-04*TIME$12:55:31*TEMP$-8.8*DEWP$-11.9*STP$971.3*SLP$1035.6*VISIB$26.9*WDSP$3.1*PRCP$0.04*SNDP$0.0*FRSHTT$110000*CLDC$93.8*WNDDIR$235
STN$474900*DATE$2021-02-04*TIME$12:55:31*TEMP$-13.6*DEWP$-19.9*STP$1000.0*SLP$1002.9*VISIB$11.0*WDSP$8.5*PRCP$0.00*SNDP$0.0*FRSHTT$100000*CLDC$50.4*WNDDIR$112
STN$474890*DATE$2021-02-04*TIME$12:55:31*TEMP$-9.0*DEWP$-16.6*STP$1003.6*SLP$1006.1*VISIB$9.8*WDSP$12.9*PRCP$0.00*SNDP$0.0*FRSHTT$100000*CLDC$13.4*WNDDIR$64
STN$505480*DATE$2021-02-04*TIME$12:55:31*TEMP$-32.3*DEWP$-37.7*STP$1036.3*SLP$1033.0*VISIB$28.7*WDSP$0.7*PRCP$0.00*SNDP$0.0*FRSHTT$100000*CLDC$70.1*WNDDIR$248
STN$104540*DATE$2021-02-04*TIME$12:55:31*TEMP$-0.1*DEWP$-2.7*STP$1026.7*SLP$1020.3*VISIB$9.0*WDSP$21.9*PRCP$0.03*SNDP$0.0*FRSHTT$110000*CLDC$51.0*WNDDIR$30
STN$295810*DATE$2021-02-04*TIME$12:55:31*TEMP$-11.2*DEWP$-15.4*STP$1029.2*SLP$1029.5*VISIB$11.0*WDSP$8.0*PRCP$0.03*SNDP$1.6*FRSHTT$111000*CLDC$52.0*WNDDIR$265
STN$607403*DATE$2021-02-04*TIME$12:55:31*TEMP$3.5*DEWP$-1.4*STP$1008.2*SLP$1008.7*VISIB$8.6*WDSP$13.3*PRCP$0.00*SNDP$0.0*FRSHTT$000000*CLDC$30.2*WNDDIR$313
STN$404490*DATE$2021-02-04*TIME$12:55:31*TEMP$16.2*DEWP$11.1*STP$1019.0*SLP$1018.2*VISIB$31.9*WDSP$15.5*PRCP$0.00*SNDP$0.0*FRSHTT$000000*CLDC$58.7*WNDDIR$25
STN$718880*DATE$2021-02-04*TIME$12:55:31*TEMP$-5.2*DEWP$-8.7*STP$903.4*SLP$1024.4*VISIB$34.8*WDSP$8.9*PRCP$0.03*SNDP$12.3*FRSHTT$111000*CLDC$52.9*WNDDIR$205
STN$607401*DATE$2021-02-04*TIME$12:55:31*TEMP$0.9*DEWP$-3.7*STP$980.6*SLP$963.1*VISIB$7.9*WDSP$11.5*PRCP$0.00*SNDP$0.0*FRSHTT$000000*CLDC$23.5*WNDDIR$229
STN$607400*DATE$2021-02-04*TIME$12:55:31*TEMP$6.3*DEWP$1.3*STP$1020.5*SLP$1019.5*VISIB$8.9*WDSP$18.0*PRCP$0.08*SNDP$0.0*FRSHTT$010000*CLDC$70.4*WNDDIR$301
STN$600960*DATE$2021-02-04*TIME$12:55:31*TEMP$9.9*DEWP$2.5*STP$1018.3*SLP$1017.9*VISIB$9.1*WDSP$23.5*PRCP$0.00*SNDP$0.0*FRSHTT$000000*CLDC$76.0*WNDDIR$132
STN$10550*DATE$2021-02-04*TIME$12:55:31*TEMP$-0.6*DEWP$-3.2*STP$1004.9*SLP$1003.6*VISIB$34.3*WDSP$30.8*PRCP$0.14*SNDP$0.0*FRSHTT$110000*CLDC$73.1*WNDDIR$53
STN$479270*DATE$2021-02-04*TIME$12:55:31*TEMP$15.5*DEWP$11.5*STP$1016.6*SLP$1019.4*VISIB$13.6*WDSP$20.2*PRCP$0.23*SNDP$0.0*FRSHTT$010000*CLDC$51.1*WNDDIR$19
STN$851230*DATE$2021-02-04*TIME$12:55:31*TEMP$22.8*DEWP$16.7*STP$991.7*SLP$1008.5*VISIB$11.0*WDSP$21.1*PRCP$0.00*SNDP$0.0*FRSHTT$000000*CLDC$61.7*WNDDIR$146
STN$111550*DATE$2021-02-04*TIME$12:55:31*TEMP$-2.0*DEWP$-10.2*STP$847.5*SLP$835.3*VISIB$70.2*WDSP$16.0*PRCP$0.00*SNDP$5.3*FRSHTT$101000*CLDC$63.6*WNDDIR$208
STN$724354*DATE$2021-02-04*TIME$12:55:31*TEMP$-1.9*DEWP$-4.3*STP$992.0*SLP$998.1*VISIB$10.6*WDSP$3.2*PRCP$0.00*SNDP$0.0*FRSHTT$100000*CLDC$40.0*WNDDIR$16
STN$479276*DATE$2021-02-04*TIME$12:55:31*TEMP$15.4*DEWP$11.0*STP$1003.4*SLP$1001.4*VISIB$11.6*WDSP$29.9*PRCP$0.00*SNDP$0.0*FRSHTT$000000*CLDC$27.0*WNDDIR$44
STN$724356*DATE$2021-02-04*TIME$12:55:31*TEMP$-7.0*DEWP$-10.5*STP$1034.3*SLP$1021.9*VISIB$10.6*WDSP$17.9*PRCP$0.08*SNDP$0.0*FRSHTT$110000*CLDC$50.5*WNDDIR$118
STN$741070*DATE$2021-02-04*TIME$12:55:31*TEMP$1.6*DEWP$-7.5*STP$1021.0*SLP$1031.8*VISIB$28.3*WDSP$16.6*PRCP$0.00*SNDP$0.0*FRSHTT$000000*CLDC$26.1*WNDDIR$266
STN$42801*DATE$2021-02-04*TIME$12:55:31*TEMP$-5.1*DEWP$-9.9*STP$977.4*SLP$978.7*VISIB$31.2*WDSP$38.1*PRCP$0.00*SNDP$0.0*FRSHTT$100000*CLDC$37.8*WNDDIR$121
STN$741970*DATE$2021-02-04*TIME$12:55:31*TEMP$-7.5*DEWP$-10.2*STP$1007.1*SLP$1008.9*VISIB$15.2*WDSP$38.6*PRCP$0.00*SNDP$0.0*FRSHTT$100000*CLDC$36.0*WNDDIR$92
STN$477991*DATE$2021-02-04*TIME$12:55:31*TEMP$5.9*DEWP$-5.0*STP$991.4*SLP$972.8*VISIB$12.0*WDSP$8.6*PRCP$0.00*SNDP$0.0*FRSHTT$000000*CLDC$52.2*WNDDIR$216
STN$477990*DATE$2021-02-04*TIME$12:55:31*TEMP$4.1*DEWP$-5.0*STP$1000.2*SLP$997.5*VISIB$10.3*WDSP$13.2*PRCP$0.00*SNDP$0.0*FRSHTT$000000*CLDC$24.4*WNDDIR$153
STN$726667*DATE$2021-02-04*TIME$12:55:31*TEMP$-8.2*DEWP$-14.1*STP$1014.6*SLP$1019.3*VISIB$14.0*WDSP$5.6*PRCP$0.02*SNDP$0.0*FRSHTT$110000*CLDC$88.7*WNDDIR$98
STN$726665*DATE$2021-02-04*TIME$12:55:31*TEMP$-4.3*DEWP$-7.4*STP$1016.5*SLP$1024.1*VISIB$35.5*WDSP$6.9*PRCP$0.03*SNDP$2.5*FRSHTT$111000*CLDC$54.6*WNDDIR$246
STN$741960*DATE$2021-02-04*TIME$12:55:31*TEMP$-5.6*DEWP$-11.2*STP$1000.4*SLP$1003.3*VISIB$26.5*WDSP$45.4*PRCP$0.00*SNDP$0.0*FRSHTT$100000*CLDC$42.1*WNDDIR$333
STN$726660*DATE$2021-02-04*TIME$12:55:31*TEMP$-3.9*DEWP$-8.9*STP$902.4*SLP$1023.3*VISIB$36.8*WDSP$7.3*PRCP$0.04*SNDP$3.9*FRSHTT$111000*CLDC$54.7*WNDDIR$213
STN$761600*DATE$2021-02-04*TIME$12:55:31*TEMP$7.0*DEWP$-6.7*STP$1007.0*SLP$1014.7*VISIB$25.8*WDSP$3.6*PRCP$0.00*SNDP$0.0*FRSHTT$000000*CLDC$73.9*WNDDIR$38
STN$13000*DATE$2021-02-04*TIME$12:55:31*TEMP$2.9*DEWP$-0.2*STP$980.3*SLP$989.8*VISIB$10.9*WDSP$41.5*PRCP$0.00*SNDP$0.0*FRSHTT$000000*CLDC$28.5*WNDDIR$95
STN$478170*DATE$2021-02-04*TIME$12:55:31*TEMP$3.6*DEWP$-3.0*STP$1016.6*SLP$1021.0*VISIB$18.1*WDSP$13.1*PRCP$0.10*SNDP$0.0*FRSHTT$010000*CLDC$60.6*WNDDIR$348
STN$339830*DATE$2021-02-04*TIME$12:55:31*TEMP$-1.9*DEWP$-4.7*STP$1015.8*SLP$1019.5*VISIB$8.2*WDSP$20.1*PRCP$0.03*SNDP$0.6*FRSHTT$111000*CLDC$66.8*WNDDIR$357
STN$323890*DATE$2021-02-04*TIME$12:55:31*TEMP$-15.0*DEWP$-18.2*STP$1008.0*SLP$1003.5*VISIB$18.4*WDSP$19.1*PRCP$0.34*SNDP$17.1*FRSHTT$111000*CLDC$50.8*WNDDIR$162
STN$431100*DATE$2021-02-04*TIME$12:55:31*TEMP$30.4*DEWP$19.3*STP$1012.4*SLP$1013.0*VISIB$10.6*WDSP$5.8*PRCP$0.00*SNDP$0.0*FRSHTT$000000*CLDC$11.2*WNDDIR$102
STN$725015*DATE$2021-02-04*TIME$12:55:31*TEMP$-4.1*DEWP$-8.1*STP$1020.1*SLP$1016.5*VISIB$11.9*WDSP$10.1*PRCP$0.04*SNDP$0.0*FRSHTT$110000*CLDC$89.1*WNDDIR$269
STN$231460*DATE$2021-02-04*TIME$12:55:31*TEMP$-14.9*DEWP$-16.2*STP$1019.4*SLP$1015.7*VISIB$12.5*WDSP$19.9*PRCP$0.03*SNDP$18.3*FRSHTT$111000*CLDC$50.1*WNDDIR$358
STN$28790*DATE$2021-02-04*TIME$12:55:31*TEMP$-4.3*DEWP$-6.2*STP$1010.9*SLP$1010.6*VISIB$16.7*WDSP$7.3*PRCP$0.09*SNDP$16.4*FRSHTT$111000*CLDC$59.8*WNDDIR$54
STN$135860*DATE$2021-02-04*TIME$12:55:31*TEMP$-0.6*DEWP$-2.9*STP$1007.3*SLP$1018.5*VISIB$9.0*WDSP$7.0*PRCP$0.07*SNDP$0.3*FRSHTT$111000*CLDC$69.3*WNDDIR$83
STN$725054*DATE$2021-02-04*TIME$12:55:31*TEMP$0.0*DEWP$-1.5*STP$1011.8*SLP$1001.0*VISIB$10.8*WDSP$10.8*PRCP$0.31*SNDP$0.0*FRSHTT$010000*CLDC$65.0*WNDDIR$74
STN$28740*DATE$2021-02-04*TIME$12:55:31*TEMP$-6.0*DEWP$-9.1*STP$1018.0*SLP$1010.6*VISIB$17.9*WDSP$7.0*PRCP$0.04*SNDP$12.7*FRSHTT$111000*CLDC$98.7*WNDDIR$194
STN$725040*DATE$2021-02-04*TIME$12:55:31*TEMP$-4.1*DEWP$-11.5*STP$1015.7*SLP$1018.2*VISIB$21.1*WDSP$20.0*PRCP$0.11*SNDP$0.4*FRSHTT$111000*CLDC$77.4*WNDDIR$52
STN$703165*DATE$2021-02-04*TIME$12:55:31*TEMP$-9.6*DEWP$-16.0*STP$994.5*SLP$994.8*VISIB$19.3*WDSP$23.0*PRCP$0.00*SNDP$0.0*FRSHTT$100000*CLDC$50.9*WNDDIR$12
STN$729150*DATE$2021-02-04*TIME$12:55:31*TEMP$-8.9*DEWP$-12.0*STP$990.8*SLP$999.0*VISIB$5.6*WDSP$26.3*PRCP$0.00*SNDP$38.3*FRSHTT$101000*CLDC$68.3*WNDDIR$54
STN$703160*DATE$2021-02-04*TIME$12:55:31*TEMP$-3.0*DEWP$-5.2*STP$999.5*SLP$1000.6*VISIB$14.4*WDSP$32.4*PRCP$0.14*SNDP$2.6*FRSHTT$111000*CLDC$51.7*WNDDIR$198
STN$545270*DATE$2021-02-04*TIME$12:55:31*TEMP$-3.1*DEWP$-14.0*STP$1032.5*SLP$1027.2*VISIB$11.5*WDSP$11.5*PRCP$0.00*SNDP$0.0*FRSHTT$100000*CLDC$17.4*WNDDIR$148
STN$404050*DATE$2021-02-04*TIME$12:55:31*TEMP$7.8*DEWP$-4.1*STP$969.7*SLP$1016.4*VISIB$11.9*WDSP$14.2*PRCP$0.01*SNDP$0.0*FRSHTT$010000*CLDC$97.2*WNDDIR$67
STN$265310*DATE$2021-02-04*TIME$12:55:31*TEMP$-4.6*DEWP$-6.4*STP$1005.9*SLP$1009.6*VISIB$9.8*WDSP$12.4*PRCP$0.10*SNDP$4.4*FRSHTT$111000*CLDC$82.0*WNDDIR$6
STN$545273*DATE$2021-02-04*TIME$12:55:31*TEMP$-5.3*DEWP$-16.6*STP$995.9*SLP$999.3*VISIB$6.5*WDSP$12.8*PRCP$0.00*SNDP$0.0*FRSHTT$100000*CLDC$46.3*WNDDIR$64
STN$121550*DATE$2021-02-04*TIME$12:55:31*TEMP$-2.7*DEWP$-4.9*STP$1008.2*SLP$1019.0*VISIB$8.6*WDSP$9.7*PRCP$0.02*SNDP$5.9*FRSHTT$111000*CLDC$74.1*WNDDIR$15
STN$36110*DATE$2021-02-04*TIME$12:55:31*TEMP$-0.5*DEWP$-2.6*STP$1000.8*SLP$999.7*VISIB$4.2*WDSP$11.4*PRCP$0.00*SNDP$0.0*FRSHTT$100000*CLDC$15.7*WNDDIR$210
STN$157250*DATE$2021-02-04*TIME$12:55:31*TEMP$-4.2*DEWP$-12.5*STP$807.6*SLP$826.6*VISIB$20.0*WDSP$7.1*PRCP$0.00*SNDP$15.6*FRSHTT$101000*CLDC$50.0*WNDDIR$162
STN$682630*DATE$2021-02-04*TIME$12:55:31*TEMP$8.7*DEWP$0.8*STP$849.4*SLP$850.3*VISIB$26.8*WDSP$15.2*PRCP$0.04*SNDP$0.0*FRSHTT$010000*CLDC$50.3*WNDDIR$304
STN$682635*DATE$2021-02-04*TIME$12:55:31*TEMP$6.5*DEWP$-1.0*STP$980.2*SLP$979.5*VISIB$7.9*WDSP$15.2*PRCP$0.00*SNDP$0.0*FRSHTT$000000*CLDC$84.9*WNDDIR$355
STN$682675*DATE$2021-02-04*TIME$12:55:31*TEMP$16.9*DEWP$3.9*STP$987.3*SLP$995.6*VISIB$10.1*WDSP$14.8*PRCP$0.00*SNDP$0.0*FRSHTT$000000*CLDC$18.9*WNDDIR$256
STN$407320*DATE$2021-02-04*TIME$12:55:31*TEMP$5.9*DEWP$4.5*STP$1017.5*SLP$1015.4*VISIB$8.1*WDSP$4.8*PRCP$0.16*SNDP$0.0*FRSHTT$010000*CLDC$90.6*WNDDIR$192
STN$23820*DATE$2021-02-04*TIME$12:55:31*TEMP$-3.0*DEWP$-3.7*STP$999.6*SLP$1014.9*VISIB$16.7*WDSP$10.9*PRCP$0.03*SNDP$0.0*FRSHTT$110000*CLDC$64.1*WNDDIR$247
STN$345810*DATE$2021-02-04*TIME$12:55:31*TEMP$2.1*DEWP$0.1*STP$1000.3*SLP$1009.3*VISIB$46.0*WDSP$13.2*PRCP$0.03*SNDP$0.0*FRSHTT$010000*CLDC$67.7*WNDDIR$90
STN$977900*DATE$2021-02-04*TIME$12:55:31*TEMP$23.5*DEWP$20.4*STP$995.3*SLP$1005.9*VISIB$11.9*WDSP$9.3*PRCP$0.59*SNDP$0.0*FRSHTT$010000*CLDC$51.1*WNDDIR$181
STN$483545*DATE$2021-02-04*TIME$12:55:31*TEMP$18.5*DEWP$1.1*STP$1006.5*SLP$1009.2*VISIB$8.8*WDSP$7.3*PRCP$0.00*SNDP$0.0*FRSHTT$000000*CLDC$67.5*WNDDIR$352
STN$682677*DATE$2021-02-04*TIME$12:55:31*TEMP$9.3*DEWP$0.4*STP$990.8*SLP$971.9*VISIB$10.9*WDSP$14.9*PRCP$0.00*SNDP$0.0*FRSHTT$000000*CLDC$89.0*WNDDIR$158
STN$483540*DATE$2021-02-04*TIME$12:55:31*TEMP$16.4*DEWP$9.8*STP$993.3*SLP$1009.3*VISIB$7.1*WDSP$5.7*PRCP$0.00*SNDP$0.0*FRSHTT$000000*CLDC$58.7*WNDDIR$108
STN$722690*DATE$2021-02-04*TIME$12:55:31*TEMP$0.8*DEWP$-9.7*STP$1021.5*SLP$1016.8*VISIB$62.0*WDSP$10.6*PRCP$0.04*SNDP$0.0*FRSHTT$010000*CLDC$50.6*WNDDIR$182
STN$722700*DATE$2021-02-04*TIME$12:55:31*TEMP$0.2*DEWP$-13.9*STP$899.4*SLP$1016.6*VISIB$57.2*WDSP$15.6*PRCP$0.02*SNDP$0.0*FRSHTT$010000*CLDC$97.1*WNDDIR$155
STN$722696*DATE$2021-02-04*TIME$12:55:31*TEMP$-0.3*DEWP$-10.5*STP$919.8*SLP$1017.6*VISIB$71.6*WDSP$5.4*PRCP$0.01*SNDP$0.0*FRSHTT$110000*CLDC$94.5*WNDDIR$33
STN$26480*DATE$2021-02-04*TIME$12:55:31*TEMP$-1.8*DEWP$-3.3*STP$1004.9*SLP$1030.2*VISIB$5.5*WDSP$8.1*PRCP$0.00*SNDP$0.0*FRSHTT$100000*CLDC$95.5*WNDDIR$15
STN$722710*DATE$2021-02-04*TIME$12:55:31*TEMP$-0.8*DEWP$-14.3*STP$971.3*SLP$1014.4*VISIB$14.9*WDSP$13.8*PRCP$0.01*SNDP$0.0*FRSHTT$110000*CLDC$78.5*WNDDIR$354
STN$589650*DATE$2021-02-04*TIME$12:55:31*TEMP$12.7*DEWP$11.8*STP$1013.2*SLP$1019.4*VISIB$7.1*WDSP$14.0*PRCP$0.86*SNDP$0.0*FRSHTT$010000*CLDC$50.1*WNDDIR$321
STN$722726*DATE$2021-02-04*TIME$12:55:31*TEMP$0.0*DEWP$-13.4*STP$852.2*SLP$1016.4*VISIB$47.2*WDSP$5.4*PRCP$0.00*SNDP$0.0*FRSHTT$000000*CLDC$55.0*WNDDIR$183
STN$711010*DATE$2021-02-04*TIME$12:55:31*TEMP$1.0*DEWP$-1.0*STP$1011.5*SLP$1011.3*VISIB$16.9*WDSP$24.6*PRCP$0.18*SNDP$0.1*FRSHTT$011000*CLDC$50.4*WNDDIR$124
STN$722725*DATE$2021-02-04*TIME$12:55:31*TEMP$-0.1*DEWP$-11.1*STP$1008.1*SLP$1006.3*VISIB$72.2*WDSP$14.5*PRCP$0.03*SNDP$0.0*FRSHTT$110000*CLDC$51.5*WNDDIR$90
STN$442370*DATE$2021-02-04*TIME$12:55:31*TEMP$-9.7*DEWP$-11.6*STP$848.8*SLP$1034.6*VISIB$46.2*WDSP$11.0*PRCP$0.00*SNDP$0.5*FRSHTT$101000*CLDC$53.1*WNDDIR$256
STN$725375*DATE$2021-02-04*TIME$12:55:31*TEMP$-5.7*DEWP$-10.8*STP$1005.8*SLP$1000.4*VISIB$12.8*WDSP$12.2*PRCP$0.02*SNDP$0.0*FRSHTT$110000*CLDC$85.2*WNDDIR$266
STN$249230*DATE$2021-02-04*TIME$12:55:31*TEMP$-33.4*DEWP$-35.9*STP$1013.0*SLP$1027.5*VISIB$31.7*WDSP$9.3*PRCP$0.03*SNDP$17.3*FRSHTT$111000*CLDC$95.6*WNDDIR$340
STN$725373*DATE$2021-02-04*TIME$12:55:31*TEMP$-5.3*DEWP$-9.1*STP$999.7*SLP$999.2*VISIB$13.2*WDSP$15.6*PRCP$0.00*SNDP$0.0*FRSHTT$100000*CLDC$10.4*WNDDIR$92
STN$308380*DATE$2021-02-04*TIME$12:55:31*TEMP$-20.8*DEWP$-21.9*STP$937.1*SLP$1046.4*VISIB$19.7*WDSP$5.3*PRCP$0.00*SNDP$8.6*FRSHTT$101000*CLDC$51.5*WNDDIR$0
STN$170575*DATE$2021-02-04*TIME$12:55:31*TEMP$-1.0*DEWP$-3.5*STP$1000.5*SLP$999.3*VISIB$6.4*WDSP$27.2*PRCP$0.00*SNDP$0.0*FRSHTT$100000*CLDC$56.5*WNDDIR$42
STN$725370*DATE$2021-02-04*TIME$12:55:31*TEMP$-7.7*DEWP$-12.5*STP$998.0*SLP$1020.4*VISIB$12.6*WDSP$19.8*PRCP$0.16*SNDP$3.9*FRSHTT$111000*CLDC$51.4*WNDDIR$277
STN$604020*DATE$2021-02-04*TIME$12:55:31*TEMP$5.1*DEWP$2.1*STP$1016.0*SLP$1022.6*VISIB$11.5*WDSP$15.7*PRCP$0.03*SNDP$0.0*FRSHTT$010000*CLDC$50.4*WNDDIR$199
STN$760053*DATE$2021-02-04*TIME$12:55:31*TEMP$3.3*DEWP$-3.1*STP$1033.2*SLP$1016.5*VISIB$27.3*WDSP$18.7*PRCP$0.00*SNDP$0.0*FRSHTT$000000*CLDC$98.0*WNDDIR$291
STN$725366*DATE$2021-02-04*TIME$12:55:31*TEMP$-6.7*DEWP$-11.0*STP$1022.0*SLP$1021.6*VISIB$14.3*WDSP$14.8*PRCP$0.11*SNDP$1.8*FRSHTT$111000*CLDC$50.5*WNDDIR$68
STN$478430*DATE$2021-02-04*TIME$12:55:31*TEMP$3.9*DEWP$-1.7*STP$1014.3*SLP$1021.7*VISIB$18.6*WDSP$14.8*PRCP$0.18*SNDP$0.0*FRSHTT$010000*CLDC$50.7*WNDDIR$38
STN$539290*DATE$2021-02-04*TIME$12:55:31*TEMP$-1.0*DEWP$-8.6*STP$887.5*SLP$887.2*VISIB$9.3*WDSP$4.1*PRCP$0.00*SNDP$0.0*FRSHTT$100000*CLDC$11.5*WNDDIR$11
STN$28650*DATE$2021-02-04*TIME$12:55:31*TEMP$-14.0*DEWP$-17.0*STP$997.8*SLP$994.8*VISIB$16.8*WDSP$5.7*PRCP$0.00*SNDP$0.0*FRSHTT$100000*CLDC$88.1*WNDDIR$104
STN$28660*DATE$2021-02-04*TIME$12:55:31*TEMP$-12.8*DEWP$-15.6*STP$1015.5*SLP$1032.0*VISIB$28.9*WDSP$2.8*PRCP$0.00*SNDP$0.0*FRSHTT$100000*CLDC$42.6*WNDDIR$148
STN$11060*DATE$2021-02-04*TIME$12:55:31*TEMP$0.2*DEWP$-3.0*STP$1013.4*SLP$1004.5*VISIB$36.5*WDSP$26.6*PRCP$0.06*SNDP$0.0*FRSHTT$010000*CLDC$50.7*WNDDIR$143
STN$28670*DATE$2021-02-04*TIME$12:55:31*TEMP$-3.3*DEWP$-4.3*STP$1001.4*SLP$1003.8*VISIB$22.0*WDSP$11.0*PRCP$0.09*SNDP$19.6*FRSHTT$111000*CLDC$50.5*WNDDIR$28
STN$128380*DATE$2021-02-04*TIME$12:55:31*TEMP$-0.6*DEWP$-6.0*STP$1013.0*SLP$1022.6*VISIB$13.1*WDSP$7.6*PRCP$0.03*SNDP$0.4*FRSHTT$111000*CLDC$50.1*WNDDIR$216
STN$724926*DATE$2021-02-04*TIME$12:55:31*TEMP$2.2*DEWP$-2.0*STP$1014.0*SLP$1006.9*VISIB$14.4*WDSP$8.5*PRCP$0.02*SNDP$0.0*FRSHTT$010000*CLDC$50.3*WNDDIR$176
STN$724927*DATE$2021-02-04*TIME$12:55:31*TEMP$0.8*DEWP$-3.3*STP$1024.8*SLP$1021.0*VISIB$14.9*WDSP$10.3*PRCP$0.03*SNDP$0.0*FRSHTT$010000*CLDC$50.1*WNDDIR$16
STN$724920*DATE$2021-02-04*TIME$12:55:31*TEMP$2.0*DEWP$-0.8*STP$1019.4*SLP$1019.9*VISIB$25.0*WDSP$13.4*PRCP$0.08*SNDP$0.0*FRSHTT$010000*CLDC$74.8*WNDDIR$87
STN$570160*DATE$2021-02-04*TIME$12:55:31*TEMP$-0.9*DEWP$-10.1*STP$1006.2*SLP$1027.6*VISIB$7.9*WDSP$5.6*PRCP$0.00*SNDP$0.0*FRSHTT$100000*CLDC$26.1*WNDDIR$206
STN$10880*DATE$2021-02-04*TIME$12:55:31*TEMP$-3.4*DEWP$-5.4*STP$1019.3*SLP$995.8*VISIB$7.4*WDSP$17.7*PRCP$0.00*SNDP$0.0*FRSHTT$100000*CLDC$48.9*WNDDIR$337
STN$724680*DATE$2021-02-04*TIME$12:55:31*TEMP$-0.8*DEWP$-14.4*STP$928.3*SLP$1015.7*VISIB$78.7*WDSP$14.0*PRCP$0.00*SNDP$0.0*FRSHTT$100000*CLDC$30.1*WNDDIR$181
STN$724685*DATE$2021-02-04*TIME$12:55:31*TEMP$-3.2*DEWP$-12.3*STP$1011.1*SLP$1008.4*VISIB$30.6*WDSP$23.3*PRCP$0.00*SNDP$0.0*FRSHTT$100000*CLDC$79.1*WNDDIR$112
STN$539590*DATE$2021-02-04*TIME$12:55:31*TEMP$-1.2*DEWP$-10.4*STP$1007.3*SLP$1026.5*VISIB$16.1*WDSP$4.8*PRCP$0.01*SNDP$0.0*FRSHTT$110000*CLDC$96.4*WNDDIR$182
STN$128050*DATE$2021-02-04*TIME$12:55:31*TEMP$-1.0*DEWP$-4.8*STP$1005.5*SLP$1020.4*VISIB$12.2*WDSP$14.3*PRCP$0.00*SNDP$1.3*FRSHTT$101000*CLDC$51.3*WNDDIR$303
STN$724684*DATE$2021-02-04*TIME$12:55:31*TEMP$-5.8*DEWP$-16.0*STP$1048.2*SLP$1020.6*VISIB$34.4*WDSP$11.9*PRCP$0.00*SNDP$0.0*FRSHTT$100000*CLDC$99.5*WNDDIR$345
STN$724675*DATE$2021-02-04*TIME$12:55:31*TEMP$-9.1*DEWP$-13.1*STP$893.1*SLP$1017.9*VISIB$31.9*WDSP$10.5*PRCP$0.01*SNDP$5.7*FRSHTT$111000*CLDC$60.7*WNDDIR$291
STN$724674*DATE$2021-02-04*TIME$12:55:31*TEMP$-6.1*DEWP$-11.6*STP$1024.8*SLP$1023.6*VISIB$17.5*WDSP$9.1*PRCP$0.03*SNDP$0.0*FRSHTT$110000*CLDC$57.1*WNDDIR$8
STN$724673*DATE$2021-02-04*TIME$12:55:31*TEMP$-10.0*DEWP$-15.1*STP$1014.2*SLP$1016.1*VISIB$14.1*WDSP$10.5*PRCP$0.04*SNDP$0.0*FRSHTT$110000*CLDC$56.3*WNDDIR$5
STN$80250*DATE$2021-02-04*TIME$12:55:31*TEMP$4.3*DEWP$-2.1*STP$1020.2*SLP$1019.2*VISIB$11.0*WDSP$13.3*PRCP$0.14*SNDP$0.0*FRSHTT$010000*CLDC$50.7*WNDDIR$336
STN$152300*DATE$2021-02-04*TIME$12:55:31*TEMP$-1.4*DEWP$-4.5*STP$995.6*SLP$1025.8*VISIB$8.8*WDSP$6.6*PRCP$0.04*SNDP$1.6*FRSHTT$111000*CLDC$50.8*WNDDIR$119
STN$171950*DATE$2021-02-04*TIME$12:55:31*TEMP$-6.5*DEWP$-9.6*STP$954.2*SLP$978.3*VISIB$8.8*WDSP$5.5*PRCP$0.04*SNDP$2.8*FRSHTT$111000*CLDC$56.1*WNDDIR$213
STN$726170*DATE$2021-02-04*TIME$12:55:31*TEMP$-11.8*DEWP$-16.6*STP$1006.7*SLP$1018.8*VISIB$22.9*WDSP$10.5*PRCP$0.10*SNDP$8.2*FRSHTT$111000*CLDC$50.5*WNDDIR$17
STN$307580*DATE$2021-02-04*TIME$12:55:31*TEMP$-12.3*DEWP$-17.7*STP$967.9*SLP$1033.0*VISIB$20.9*WDSP$6.9*PRCP$0.00*SNDP$2.7*FRSHTT$101000*CLDC$61.0*WNDDIR$176
STN$726163*DATE$2021-02-04*TIME$12:55:31*TEMP$-7.0*DEWP$-11.0*STP$1012.2*SLP$1015.5*VISIB$14.1*WDSP$8.6*PRCP$0.20*SNDP$0.0*FRSHTT$110000*CLDC$51.9*WNDDIR$239
STN$726160*DATE$2021-02-04*TIME$12:55:31*TEMP$-12.7*DEWP$-16.6*STP$1022.2*SLP$1016.9*VISIB$13.7*WDSP$13.8*PRCP$0.06*SNDP$0.0*FRSHTT$110000*CLDC$51.1*WNDDIR$156
STN$726166*DATE$2021-02-04*TIME$12:55:31*TEMP$-4.2*DEWP$-11.9*STP$1013.2*SLP$1015.1*VISIB$14.8*WDSP$13.8*PRCP$0.10*SNDP$0.0*FRSHTT$110000*CLDC$80.5*WNDDIR$40
STN$915200*DATE$2021-02-04*TIME$12:55:31*TEMP$23.7*DEWP$19.3*STP$1006.7*SLP$1007.6*VISIB$161.0*WDSP$8.8*PRCP$0.00*SNDP$0.0*FRSHTT$000000*CLDC$31.0*WNDDIR$176
STN$477500*DATE$2021-02-04*TIME$12:55:31*TEMP$0.0*DEWP$-2.8*STP$1020.6*SLP$1020.5*VISIB$19.1*WDSP$7.7*PRCP$0.32*SNDP$2.3*FRSHTT$111000*CLDC$50.3*WNDDIR$239
STN$726164*DATE$2021-02-04*TIME$12:55:31*TEMP$-4.4*DEWP$-7.3*STP$1027.8*SLP$1024.5*VISIB$14.6*WDSP$6.4*PRCP$0.02*SNDP$0.0*FRSHTT$110000*CLDC$63.7*WNDDIR$335
STN$12050*DATE$2021-02-04*TIME$12:55:31*TEMP$0.8*DEWP$-2.6*STP$1002.1*SLP$1001.8*VISIB$38.8*WDSP$44.7*PRCP$0.11*SNDP$0.2*FRSHTT$011000*CLDC$98.6*WNDDIR$183
STN$586650*DATE$2021-02-04*TIME$12:55:31*TEMP$1.2*DEWP$-5.4*STP$1035.3*SLP$1028.2*VISIB$23.1*WDSP$2.9*PRCP$0.00*SNDP$0.0*FRSHTT$000000*CLDC$83.8*WNDDIR$257
STN$601560*DATE$2021-02-04*TIME$12:55:31*TEMP$3.5*DEWP$-1.0*STP$1016.6*SLP$1021.8*VISIB$15.7*WDSP$8.5*PRCP$0.11*SNDP$0.0*FRSHTT$010000*CLDC$67.2*WNDDIR$90
STN$723925*DATE$2021-02-04*TIME$12:55:31*TEMP$3.5*DEWP$-1.9*STP$1014.9*SLP$1016.2*VISIB$21.3*WDSP$4.9*PRCP$0.06*SNDP$0.0*FRSHTT$010000*CLDC$50.0*WNDDIR$38
STN$741140*DATE$2021-02-04*TIME$12:55:31*TEMP$-2.4*DEWP$-14.5*STP$1025.6*SLP$1030.4*VISIB$24.0*WDSP$20.7*PRCP$0.00*SNDP$0.0*FRSHTT$100000*CLDC$66.1*WNDDIR$44
STN$723926*DATE$2021-02-04*TIME$12:55:31*TEMP$4.1*DEWP$-6.0*STP$1017.1*SLP$1017.6*VISIB$17.7*WDSP$7.2*PRCP$0.00*SNDP$0.0*FRSHTT$000000*CLDC$69.5*WNDDIR$148
STN$428090*DATE$2021-02-04*TIME$12:55:31*TEMP$21.1*DEWP$13.7*STP$1015.4*SLP$1013.4*VISIB$5.1*WDSP$4.2*PRCP$0.04*SNDP$0.0*FRSHTT$010000*CLDC$93.2*WNDDIR$28
STN$723927*DATE$2021-02-04*TIME$12:55:31*TEMP$3.4*DEWP$-3.3*STP$1014.8*SLP$1015.6*VISIB$20.1*WDSP$13.8*PRCP$0.01*SNDP$0.0*FRSHTT$010000*CLDC$51.7*WNDDIR$107
STN$42720*DATE$2021-02-04*TIME$12:55:31*TEMP$-8.7*DEWP$-12.2*STP$999.5*SLP$998.8*VISIB$25.8*WDSP$15.9*PRCP$0.01*SNDP$11.3*FRSHTT$111000*CLDC$50.3*WNDDIR$252
STN$723930*DATE$2021-02-04*TIME$12:55:31*TEMP$3.8*DEWP$-1.9*STP$1022.4*SLP$1021.3*VISIB$14.4*WDSP$11.8*PRCP$0.02*SNDP$0.0*FRSHTT$010000*CLDC$51.1*WNDDIR$73
STN$727434*DATE$2021-02-04*TIME$12:55:31*TEMP$-5.0*DEWP$-7.3*STP$992.0*SLP$982.8*VISIB$8.8*WDSP$13.7*PRCP$0.00*SNDP$0.0*FRSHTT$100000*CLDC$83.3*WNDDIR$292
STN$123765*DATE$2021-02-04*TIME$12:55:31*TEMP$-4.6*DEWP$-6.1*STP$977.3*SLP$987.3*VISIB$7.6*WDSP$7.1*PRCP$0.00*SNDP$0.0*FRSHTT$100000*CLDC$28.0*WNDDIR$260
STN$727435*DATE$2021-02-04*TIME$12:55:31*TEMP$-14.2*DEWP$-18.5*STP$1001.3*SLP$1017.4*VISIB$16.9*WDSP$12.1*PRCP$0.04*SNDP$14.2*FRSHTT$111000*CLDC$93.3*WNDDIR$330
STN$275950*DATE$2021-02-04*TIME$12:55:31*TEMP$-10.5*DEWP$-12.4*STP$1016.9*SLP$1017.5*VISIB$7.7*WDSP$18.2*PRCP$0.02*SNDP$10.7*FRSHTT$111000*CLDC$62.1*WNDDIR$234
STN$727436*DATE$2021-02-04*TIME$12:55:31*TEMP$-13.1*DEWP$-15.9*STP$1008.2*SLP$1007.9*VISIB$10.1*WDSP$8.8*PRCP$0.01*SNDP$7.6*FRSHTT$111000*CLDC$51.0*WNDDIR$70
STN$727437*DATE$2021-02-04*TIME$12:55:31*TEMP$-16.2*DEWP$-19.1*STP$1007.2*SLP$1010.0*VISIB$19.3*WDSP$11.2*PRCP$0.05*SNDP$0.0*FRSHTT$110000*CLDC$51.4*WNDDIR$302
STN$123760*DATE$2021-02-04*TIME$12:55:31*TEMP$-12.2*DEWP$-14.4*STP$1024.5*SLP$1014.3*VISIB$3.6*WDSP$12.3*PRCP$0.00*SNDP$0.0*FRSHTT$100000*CLDC$44.7*WNDDIR$151
STN$727475*DATE$2021-02-04*TIME$12:55:31*TEMP$-20.8*DEWP$-25.6*STP$992.9*SLP$1000.2*VISIB$18.6*WDSP$6.9*PRCP$0.00*SNDP$0.0*FRSHTT$100000*CLDC$64.2*WNDDIR$144
STN$727474*DATE$2021-02-04*TIME$12:55:31*TEMP$-18.2*DEWP$-22.2*STP$998.8*SLP$1004.7*VISIB$15.0*WDSP$10.7*PRCP$0.00*SNDP$0.0*FRSHTT$100000*CLDC$61.2*WNDDIR$331
STN$727473*DATE$2021-02-04*TIME$12:55:31*TEMP$-22.1*DEWP$-27.4*STP$992.3*SLP$992.1*VISIB$13.6*WDSP$5.1*PRCP$0.00*SNDP$0.0*FRSHTT$*CLDC$36.8*WNDDIR$7
STN$637910*DATE$2021-02-04*TIME$12:55:31*TEMP$8.6*DEWP$1.2*STP$912.3*SLP$907.8*VISIB$18.2*WDSP$9.5*PRCP$0.00*SNDP$0.0*FRSHTT$000000*CLDC$48.8*WNDDIR$262
STN$171890*DATE$2021-02-04*TIME$12:55:31*TEMP$-5.8*DEWP$-8.8*STP$909.2*SLP$886.8*VISIB$14.2*WDSP$5.9*PRCP$0.00*SNDP$0.0*FRSHTT$100000*CLDC$31.0*WNDDIR$292
STN$726083*DATE$2021-02-04*TIME$12:55:31*TEMP$-11.9*DEWP$-14.4*STP$1006.7*SLP$1015.5*VISIB$9.3*WDSP$14.9*PRCP$0.02*SNDP$0.0*FRSHTT$110000*CLDC$50.5*WNDDIR$204
STN$232560*DATE$2021-02-04*TIME$12:55:31*TEMP$-14.8*DEWP$-18.9*STP$1018.5*SLP$1017.7*VISIB$12.1*WDSP$20.7*PRCP$0.02*SNDP$16.4*FRSHTT$111000*CLDC$58.5*WNDDIR$181
STN$845010*DATE$2021-02-04*TIME$12:55:31*TEMP$18.3*DEWP$14.1*STP$1008.3*SLP$1011.9*VISIB$10.9*WDSP$16.0*PRCP$0.01*SNDP$0.0*FRSHTT$010000*CLDC$50.7*WNDDIR$83
STN$74750*DATE$2021-02-04*TIME$12:55:31*TEMP$0.3*DEWP$-3.8*STP$990.2*SLP$1017.5*VISIB$15.2*WDSP$8.5*PRCP$0.05*SNDP$0.1*FRSHTT$011000*CLDC$50.1*WNDDIR$310
STN$477670*DATE$2021-02-04*TIME$12:55:31*TEMP$-0.3*DEWP$-6.5*STP$1022.6*SLP$1022.6*VISIB$15.7*WDSP$6.3*PRCP$0.00*SNDP$0.0*FRSHTT$100000*CLDC$6.7*WNDDIR$332
STN$356330*DATE$2021-02-04*TIME$12:55:31*TEMP$-11.6*DEWP$-14.3*STP$1020.1*SLP$1018.3*VISIB$10.7*WDSP$19.0*PRCP$0.02*SNDP$3.4*FRSHTT$111000*CLDC$50.3*WNDDIR$41
STN$637890*DATE$2021-02-04*TIME$12:55:31*TEMP$10.6*DEWP$7.5*STP$994.5*SLP$1022.4*VISIB$10.8*WDSP$8.8*PRCP$0.00*SNDP$0.0*FRSHTT$000000*CLDC$78.9*WNDDIR$95
STN$29750*DATE$2021-02-04*TIME$12:55:31*TEMP$-6.9*DEWP$-8.4*STP$1002.9*SLP$1001.7*VISIB$9.0*WDSP$11.8*PRCP$0.00*SNDP$0.0*FRSHTT$100000*CLDC$98.4*WNDDIR$185
STN$171270*DATE$2021-02-04*TIME$12:55:31*TEMP$-1.5*DEWP$-4.9*STP$1048.5*SLP$1021.3*VISIB$10.8*WDSP$14.9*PRCP$0.00*SNDP$0.0*FRSHTT$100000*CLDC$51.0*WNDDIR$226
STN$30280*DATE$2021-02-04*TIME$12:55:31*TEMP$1.6*DEWP$-1.4*STP$999.0*SLP$1003.3*VISIB$24.6*WDSP$39.2*PRCP$0.17*SNDP$0.0*FRSHTT$010000*CLDC$51.8*WNDDIR$318
STN$726588*DATE$2021-02-04*TIME$12:55:31*TEMP$-10.1*DEWP$-14.5*STP$998.2*SLP$1003.0*VISIB$13.7*WDSP$9.7*PRCP$0.00*SNDP$0.0*FRSHTT$100000*CLDC$2.2*WNDDIR$270
STN$478100*DATE$2021-02-04*TIME$12:55:31*TEMP$1.9*DEWP$-3.0*STP$1002.5*SLP$1011.9*VISIB$7.8*WDSP$15.8*PRCP$0.00*SNDP$0.0*FRSHTT$000000*CLDC$7.0*WNDDIR$303
STN$726589*DATE$2021-02-04*TIME$12:55:31*TEMP$-12.1*DEWP$-14.7*STP$1002.3*SLP$1007.4*VISIB$12.2*WDSP$19.0*PRCP$0.00*SNDP$0.0*FRSHTT$100000*CLDC$28.9*WNDDIR$234
STN$619760*DATE$2021-02-04*TIME$12:55:31*TEMP$23.3*DEWP$19.3*STP$1005.9*SLP$1007.5*VISIB$14.9*WDSP$24.4*PRCP$0.00*SNDP$0.0*FRSHTT$000000*CLDC$97.8*WNDDIR$339
STN$726590*DATE$2021-02-04*TIME$12:55:31*TEMP$-5.9*DEWP$-8.6*STP$979.3*SLP$1024.2*VISIB$12.3*WDSP$23.5*PRCP$0.05*SNDP$4.5*FRSHTT$111000*CLDC$51.3*WNDDIR$319
STN$325400*DATE$2021-02-04*TIME$12:55:31*TEMP$-8.8*DEWP$-14.7*STP$997.9*SLP$998.4*VISIB$18.6*WDSP$19.8*PRCP$0.34*SNDP$3.4*FRSHTT$111000*CLDC$83.4*WNDDIR$316
STN$726584*DATE$2021-02-04*TIME$12:55:31*TEMP$-15.0*DEWP$-18.8*STP$1014.4*SLP$1019.0*VISIB$13.6*WDSP$15.3*PRCP$0.01*SNDP$1.8*FRSHTT$111000*CLDC$93.8*WNDDIR$220
STN$726585*DATE$2021-02-04*TIME$12:55:31*TEMP$-16.4*DEWP$-21.4*STP$1002.4*SLP$1007.5*VISIB$14.8*WDSP$15.5*PRCP$0.00*SNDP$0.0*FRSHTT$100000*CLDC$27.2*WNDDIR$294
STN$828990*DATE$2021-02-04*TIME$12:55:31*TEMP$21.9*DEWP$17.5*STP$1009.5*SLP$1010.9*VISIB$10.6*WDSP$13.8*PRCP$0.12*SNDP$0.0*FRSHTT$010000*CLDC$65.8*WNDDIR$128
STN$29210*DATE$2021-02-04*TIME$12:55:31*TEMP$-9.1*DEWP$-10.0*STP$1003.1*SLP$1008.8*VISIB$12.6*WDSP$18.8*PRCP$0.03*SNDP$6.7*FRSHTT$111000*CLDC$83.7*WNDDIR$3
STN$479180*DATE$2021-02-04*TIME$12:55:31*TEMP$16.8*DEWP$11.4*STP$1017.6*SLP$1019.2*VISIB$13.7*WDSP$17.6*PRCP$0.26*SNDP$0.0*FRSHTT$010000*CLDC$52.6*WNDDIR$37
STN$828981*DATE$2021-02-04*TIME$12:55:31*TEMP$21.4*DEWP$17.6*STP$1011.9*SLP$1012.5*VISIB$104.1*WDSP$21.8*PRCP$0.00*SNDP$0.0*FRSHTT$000000*CLDC$29.2*WNDDIR$347
STN$293630*DATE$2021-02-04*TIME$12:55:31*TEMP$-22.8*DEWP$-24.6*STP$1058.3*SLP$1025.9*VISIB$12.9*WDSP$8.6*PRCP$0.07*SNDP$31.2*FRSHTT$111000*CLDC$66.8*WNDDIR$56
STN$125100*DATE$2021-02-04*TIME$12:55:31*TEMP$-3.7*DEWP$-6.1*STP$946.9*SLP$944.0*VISIB$18.6*WDSP$61.2*PRCP$0.16*SNDP$29.7*FRSHTT$111000*CLDC$51.0*WNDDIR$238
STN$170340*DATE$2021-02-04*TIME$12:55:31*TEMP$4.7*DEWP$-1.3*STP$1019.2*SLP$1021.8*VISIB$19.0*WDSP$4.3*PRCP$0.09*SNDP$0.0*FRSHTT$010000*CLDC$70.3*WNDDIR$10
STN$14060*DATE$2021-02-04*TIME$12:55:31*TEMP$1.9*DEWP$0.6*STP$1000.1*SLP$1004.2*VISIB$28.3*WDSP$32.5*PRCP$0.22*SNDP$0.0*FRSHTT$010000*CLDC$82.6*WNDDIR$192
STN$249510*DATE$2021-02-04*TIME$12:55:31*TEMP$-15.9*DEWP$-18.1*STP$1000.5*SLP$1018.6*VISIB$28.4*WDSP$7.6*PRCP$0.05*SNDP$16.7*FRSHTT$111000*CLDC$85.9*WNDDIR$83
STN$75240*DATE$2021-02-04*TIME$12:55:31*TEMP$2.6*DEWP$0.5*STP$1017.9*SLP$1021.9*VISIB$11.9*WDSP$9.8*PRCP$0.17*SNDP$0.0*FRSHTT$010000*CLDC$63.4*WNDDIR$140
STN$824000*DATE$2021-02-04*TIME$12:55:31*TEMP$17.7*DEWP$15.0*STP$1013.8*SLP$1011.8*VISIB$19.1*WDSP$12.5*PRCP$0.04*SNDP$0.0*FRSHTT$010000*CLDC$69.5*WNDDIR$128
STN$282160*DATE$2021-02-04*TIME$12:55:31*TEMP$-11.0*DEWP$-13.9*STP$1007.2*SLP$1015.4*VISIB$33.8*WDSP$10.4*PRCP$0.08*SNDP$7.4*FRSHTT$111000*CLDC$99.3*WNDDIR$224
STN$765710*DATE$2021-02-04*TIME$12:55:31*TEMP$4.7*DEWP$-7.5*STP$975.8*SLP$1014.0*VISIB$21.2*WDSP$13.5*PRCP$0.13*SNDP$0.0*FRSHTT$010000*CLDC$50.1*WNDDIR$47
STN$746061*DATE$2021-02-04*TIME$12:55:31*TEMP$5.0*DEWP$-6.4*STP$1014.5*SLP$1018.2*VISIB$23.9*WDSP$13.4*PRCP$0.00*SNDP$0.0*FRSHTT$000000*CLDC$64.8*WNDDIR$351
STN$719050*DATE$2021-02-04*TIME$12:55:31*TEMP$-28.9*DEWP$-31.7*STP$1014.9*SLP$1017.3*VISIB$14.5*WDSP$16.0*PRCP$0.08*SNDP$18.2*FRSHTT$111000*CLDC$56.5*WNDDIR$151
STN$703500*DATE$2021-02-04*TIME$12:55:31*TEMP$-2.9*DEWP$-6.6*STP$999.5*SLP$1002.7*VISIB$12.5*WDSP$21.6*PRCP$0.20*SNDP$1.5*FRSHTT$111000*CLDC$50.7*WNDDIR$273
STN$295780*DATE$2021-02-04*TIME$12:55:31*TEMP$-3.9*DEWP$-10.8*STP$1025.7*SLP$1027.3*VISIB$50.0*WDSP$10.2*PRCP$0.00*SNDP$4.8*FRSHTT$101000*CLDC$59.7*WNDDIR$66
STN$719041*DATE$2021-02-04*TIME$12:55:31*TEMP$-15.3*DEWP$-17.1*STP$1036.9*SLP$1007.5*VISIB$5.9*WDSP$36.8*PRCP$0.00*SNDP$43.6*FRSHTT$101000*CLDC$70.3*WNDDIR$323
STN$35773*DATE$2021-02-04*TIME$12:55:31*TEMP$0.9*DEWP$-2.6*STP$1006.0*SLP$1006.7*VISIB$7.4*WDSP$16.5*PRCP$0.02*SNDP$0.0*FRSHTT$010000*CLDC$84.7*WNDDIR$67
STN$35770*DATE$2021-02-04*TIME$12:55:31*TEMP$1.0*DEWP$-1.1*STP$1018.3*SLP$1012.9*VISIB$8.2*WDSP$18.9*PRCP$0.02*SNDP$0.0*FRSHTT$010000*CLDC$50.4*WNDDIR$
STN$714755*DATE$2021-02-04*TIME$12:55:31*TEMP$-0.3*DEWP$-3.4*STP$1019.8*SLP$1024.7*VISIB$20.7*WDSP$2.0*PRCP$0.00*SNDP$0.0*FRSHTT$100000*CLDC$95.9*WNDDIR$159
STN$100465*DATE$2021-02-04*TIME$12:55:31*TEMP$0.6*DEWP$-1.5*STP$1004.2*SLP$998.1*VISIB$8.5*WDSP$16.4*PRCP$0.00*SNDP$0.0*FRSHTT$000000*CLDC$11.1*WNDDIR$97
STN$315620*DATE$2021-02-04*TIME$12:55:31*TEMP$-37.6*DEWP$-40.3*STP$1047.1*SLP$1029.8*VISIB$32.2*WDSP$10.6*PRCP$0.00*SNDP$0.0*FRSHTT$100000*CLDC$16.4*WNDDIR$140
STN$560460*DATE$2021-02-04*TIME$12:55:31*TEMP$-9.4*DEWP$-17.8*STP$670.9*SLP$671.1*VISIB$26.6*WDSP$7.2*PRCP$0.01*SNDP$0.0*FRSHTT$110000*CLDC$69.6*WNDDIR$221
STN$20920*DATE$2021-02-04*TIME$12:55:31*TEMP$-2.3*DEWP$-3.4*STP$1026.0*SLP$1022.5*VISIB$14.7*WDSP$7.4*PRCP$0.00*SNDP$4.3*FRSHTT$101000*CLDC$51.0*WNDDIR$7
STN$408480*DATE$2021-02-04*TIME$12:55:31*TEMP$6.7*DEWP$-2.6*STP$863.8*SLP$1014.2*VISIB$10.0*WDSP$14.8*PRCP$0.00*SNDP$0.0*FRSHTT$000000*CLDC$71.0*WNDDIR$20
STN$82610*DATE$2021-02-04*TIME$12:55:31*TEMP$4.4*DEWP$0.3*STP$988.8*SLP$1022.9*VISIB$19.1*WDSP$8.2*PRCP$0.14*SNDP$0.0*FRSHTT$010000*CLDC$92.9*WNDDIR$142
STN$486500*DATE$2021-02-04*TIME$12:55:31*TEMP$15.4*DEWP$9.6*STP$1012.6*SLP$1024.1*VISIB$9.4*WDSP$8.9*PRCP$0.00*SNDP$0.0*FRSHTT$000000*CLDC$88.2*WNDDIR$146
STN$40180*DATE$2021-02-04*TIME$12:55:31*TEMP$-2.3*DEWP$-5.4*STP$998.5*SLP$1000.3*VISIB$19.5*WDSP$28.8*PRCP$0.13*SNDP$0.1*FRSHTT$111000*CLDC$51.4*WNDDIR$241
STN$875480*DATE$2021-02-04*TIME$12:55:31*TEMP$13.0*DEWP$7.0*STP$1009.2*SLP$1011.8*VISIB$14.5*WDSP$14.3*PRCP$0.08*SNDP$0.0*FRSHTT$010000*CLDC$50.5*WNDDIR$288
STN$307260*DATE$2021-02-04*TIME$12:55:31*TEMP$-9.7*DEWP$-13.2*STP$1016.9*SLP$1031.5*VISIB$41.0*WDSP$6.3*PRCP$0.01*SNDP$2.2*FRSHTT$111000*CLDC$86.3*WNDDIR$254
STN$967490*DATE$2021-02-04*TIME$12:55:31*TEMP$16.6*DEWP$14.4*STP$1009.3*SLP$1010.0*VISIB$7.0*WDSP$10.7*PRCP$0.11*SNDP$0.0*FRSHTT$010000*CLDC$50.7*WNDDIR$299
STN$74340*DATE$2021-02-04*TIME$12:55:31*TEMP$1.1*DEWP$-1.9*STP$989.8*SLP$1019.0*VISIB$15.6*WDSP$17.3*PRCP$0.26*SNDP$0.1*FRSHTT$011000*CLDC$51.3*WNDDIR$313
STN$726487*DATE$2021-02-04*TIME$12:55:31*TEMP$-13.7*DEWP$-18.1*STP$998.8*SLP$998.2*VISIB$20.1*WDSP$13.3*PRCP$0.00*SNDP$0.0*FRSHTT$100000*CLDC$32.2*WNDDIR$180
STN$726480*DATE$2021-02-04*TIME$12:55:31*TEMP$-10.0*DEWP$-14.4*STP$995.0*SLP$1016.2*VISIB$14.8*WDSP$16.9*PRCP$0.02*SNDP$8.3*FRSHTT$111000*CLDC$50.9*WNDDIR$121
STN$171750*DATE$2021-02-04*TIME$12:55:31*TEMP$0.0*DEWP$-5.9*STP$1007.1*SLP$1023.4*VISIB$16.4*WDSP$3.9*PRCP$0.00*SNDP$0.0*FRSHTT$000000*CLDC$99.9*WNDDIR$50
STN$726482*DATE$2021-02-04*TIME$12:55:31*TEMP$-15.4*DEWP$-19.9*STP$1003.4*SLP$1007.1*VISIB$9.6*WDSP$6.4*PRCP$0.00*SNDP$0.0*FRSHTT$100000*CLDC$49.8*WNDDIR$345
STN$726510*DATE$2021-02-04*TIME$12:55:31*TEMP$-13.8*DEWP$-17.0*STP$975.5*SLP$1023.0*VISIB$17.9*WDSP$18.3*PRCP$0.11*SNDP$6.0*FRSHTT$111000*CLDC$51.6*WNDDIR$168
STN$30100*DATE$2021-02-04*TIME$12:55:31*TEMP$2.4*DEWP$0.4*STP$1003.0*SLP$1009.2*VISIB$23.3*WDSP$27.7*PRCP$0.15*SNDP$0.0*FRSHTT$010000*CLDC$99.3*WNDDIR$129
STN$726508*DATE$2021-02-04*TIME$12:55:31*TEMP$-20.0*DEWP$-24.8*STP$1017.4*SLP$1022.9*VISIB$11.5*WDSP$5.1*PRCP$0.01*SNDP$0.0*FRSHTT$110000*CLDC$50.3*WNDDIR$100
STN$670050*DATE$2021-02-04*TIME$12:55:31*TEMP$24.6*DEWP$20.9*STP$1005.5*SLP$1009.5*VISIB$22.8*WDSP$11.3*PRCP$0.27*SNDP$0.0*FRSHTT$010000*CLDC$51.1*WNDDIR$174
STN$547760*DATE$2021-02-04*TIME$12:55:31*TEMP$-2.3*DEWP$-8.3*STP$1022.3*SLP$1025.5*VISIB$22.5*WDSP$17.0*PRCP$0.01*SNDP$0.0*FRSHTT$110000*CLDC$50.4*WNDDIR$72
STN$103490*DATE$2021-02-04*TIME$12:55:31*TEMP$-5.2*DEWP$-6.3*STP$1007.4*SLP$1020.5*VISIB$1.3*WDSP$6.6*PRCP$0.07*SNDP$0.0*FRSHTT$110000*CLDC$51.5*WNDDIR$242
STN$947560*DATE$2021-02-04*TIME$12:55:31*TEMP$16.0*DEWP$9.7*STP$963.0*SLP$1013.2*VISIB$26.6*WDSP$7.6*PRCP$0.49*SNDP$0.0*FRSHTT$010000*CLDC$50.4*WNDDIR$130
STN$749238*DATE$2021-02-04*TIME$12:55:31*TEMP$17.8*DEWP$9.1*STP$1009.8*SLP$1011.8*VISIB$34.2*WDSP$8.6*PRCP$0.00*SNDP$0.0*FRSHTT$000000*CLDC$29.2*WNDDIR$161
STN$964650*DATE$2021-02-04*TIME$12:55:31*TEMP$16.3*DEWP$12.5*STP$1006.6*SLP$1010.2*VISIB$23.3*WDSP$13.6*PRCP$0.09*SNDP$0.0*FRSHTT$010000*CLDC$96.4*WNDDIR$192
STN$562940*DATE$2021-02-04*TIME$12:55:31*TEMP$3.3*DEWP$0.6*STP$992.7*SLP$1018.1*VISIB$4.8*WDSP$4.5*PRCP$0.02*SNDP$0.0*FRSHTT$010000*CLDC$51.0*WNDDIR$165
STN$73160*DATE$2021-02-04*TIME$12:55:31*TEMP$2.8*DEWP$-0.3*STP$1007.9*SLP$1011.4*VISIB$8.9*WDSP$27.9*PRCP$0.60*SNDP$0.0*FRSHTT$010000*CLDC$87.2*WNDDIR$39
STN$73140*DATE$2021-02-04*TIME$12:55:31*TEMP$3.5*DEWP$1.6*STP$1014.3*SLP$1017.8*VISIB$15.3*WDSP$20.4*PRCP$0.16*SNDP$0.0*FRSHTT$010000*CLDC$51.7*WNDDIR$242
STN$119030*DATE$2021-02-04*TIME$12:55:31*TEMP$-3.7*DEWP$-6.1*STP$980.0*SLP$1018.4*VISIB$4.6*WDSP$4.8*PRCP$0.11*SNDP$3.1*FRSHTT$111000*CLDC$67.3*WNDDIR$332
STN$728030*DATE$2021-02-04*TIME$12:55:31*TEMP$-7.8*DEWP$-15.0*STP$983.9*SLP$1002.9*VISIB$33.7*WDSP$41.2*PRCP$0.00*SNDP$0.0*FRSHTT$100000*CLDC$98.8*WNDDIR$241
STN$108030*DATE$2021-02-04*TIME$12:55:31*TEMP$0.2*DEWP$-3.6*STP$1008.4*SLP$1020.4*VISIB$17.1*WDSP$10.2*PRCP$0.08*SNDP$3.2*FRSHTT$011000*CLDC$54.7*WNDDIR$113
STN$915540*DATE$2021-02-04*TIME$12:55:31*TEMP$22.4*DEWP$19.6*STP$1001.5*SLP$1007.5*VISIB$23.7*WDSP$6.7*PRCP$0.13*SNDP$0.0*FRSHTT$010000*CLDC$77.0*WNDDIR$230
STN$917530*DATE$2021-02-04*TIME$12:55:31*TEMP$18.7*DEWP$16.7*STP$1001.5*SLP$1007.1*VISIB$20.4*WDSP$10.5*PRCP$0.57*SNDP$0.0*FRSHTT$010000*CLDC$99.7*WNDDIR$218
STN$476780*DATE$2021-02-04*TIME$12:55:31*TEMP$7.1*DEWP$1.1*STP$1009.2*SLP$1016.2*VISIB$33.7*WDSP$20.0*PRCP$0.29*SNDP$0.0*FRSHTT$010000*CLDC$99.5*WNDDIR$283
STN$62000*DATE$2021-02-04*TIME$12:55:31*TEMP$-0.5*DEWP$-3.0*STP$1024.3*SLP$1030.0*VISIB$5.8*WDSP$12.2*PRCP$0.00*SNDP$0.0*FRSHTT$100000*CLDC$17.2*WNDDIR$253
STN$915550*DATE$2021-02-04*TIME$12:55:31*TEMP$23.8*DEWP$21.3*STP$1003.0*SLP$1011.5*VISIB$21.9*WDSP$12.1*PRCP$0.00*SNDP$0.0*FRSHTT$000000*CLDC$14.0*WNDDIR$347
STN$728010*DATE$2021-02-04*TIME$12:55:31*TEMP$-4.3*DEWP$-9.9*STP$987.5*SLP$1003.3*VISIB$7.4*WDSP$39.1*PRCP$0.02*SNDP$0.0*FRSHTT$110000*CLDC$50.1*WNDDIR$281
STN$476770*DATE$2021-02-04*TIME$12:55:31*TEMP$6.6*DEWP$1.1*STP$1012.2*SLP$1016.7*VISIB$29.7*WDSP$27.3*PRCP$0.11*SNDP$0.0*FRSHTT$010000*CLDC$50.2*WNDDIR$102
STN$31670*DATE$2021-02-04*TIME$12:55:31*TEMP$3.2*DEWP$-0.7*STP$997.0*SLP$994.4*VISIB$32.4*WDSP$49.9*PRCP$0.00*SNDP$0.0*FRSHTT$000000*CLDC$58.7*WNDDIR$44
STN$123450*DATE$2021-02-04*TIME$12:55:31*TEMP$-1.8*DEWP$-3.8*STP$1005.8*SLP$1017.2*VISIB$6.9*WDSP$20.5*PRCP$0.03*SNDP$1.7*FRSHTT$111000*CLDC$52.0*WNDDIR$28
STN$30910*DATE$2021-02-04*TIME$12:55:31*TEMP$0.5*DEWP$-3.3*STP$1005.5*SLP$1008.0*VISIB$18.8*WDSP$16.6*PRCP$0.06*SNDP$0.3*FRSHTT$011000*CLDC$50.0*WNDDIR$61
STN$918300*DATE$2021-02-04*TIME$12:55:31*TEMP$21.1*DEWP$16.8*STP$1012.6*SLP$1010.0*VISIB$59.4*WDSP$16.1*PRCP$0.33*SNDP$0.0*FRSHTT$010000*CLDC$50.0*WNDDIR$249
STN$605900*DATE$2021-02-04*TIME$12:55:31*TEMP$1.3*DEWP$-5.0*STP$1011.3*SLP$1016.8*VISIB$11.9*WDSP$9.7*PRCP$0.00*SNDP$0.0*FRSHTT$000000*CLDC$31.5*WNDDIR$347
STN$77680*DATE$2021-02-04*TIME$12:55:31*TEMP$2.4*DEWP$-0.1*STP$1032.6*SLP$1006.7*VISIB$25.2*WDSP$13.6*PRCP$0.92*SNDP$0.0*FRSHTT$010000*CLDC$50.0*WNDDIR$145
STN$865823*DATE$2021-02-04*TIME$12:55:31*TEMP$16.1*DEWP$9.6*STP$1001.9*SLP$1006.6*VISIB$10.7*WDSP$21.6*PRCP$0.00*SNDP$0.0*FRSHTT$000000*CLDC$42.5*WNDDIR$74
STN$727255*DATE$2021-02-04*TIME$12:55:31*TEMP$-19.2*DEWP$-22.9*STP$1016.5*SLP$1019.1*VISIB$20.2*WDSP$7.5*PRCP$0.00*SNDP$0.0*FRSHTT$100000*CLDC$44.2*WNDDIR$176
STN$476540*DATE$2021-02-04*TIME$12:55:31*TEMP$2.7*DEWP$-5.0*STP$1013.0*SLP$1017.2*VISIB$28.3*WDSP$13.0*PRCP$0.00*SNDP$0.0*FRSHTT$000000*CLDC$96.0*WNDDIR$43
STN$61740*DATE$2021-02-04*TIME$12:55:31*TEMP$0.7*DEWP$-1.5*STP$1005.3*SLP$1008.8*VISIB$16.6*WDSP$19.2*PRCP$0.00*SNDP$0.0*FRSHTT$000000*CLDC$0.1*WNDDIR$108
STN$155300*DATE$2021-02-04*TIME$12:55:31*TEMP$-3.8*DEWP$-5.1*STP$1005.0*SLP$1029.7*VISIB$5.5*WDSP$7.9*PRCP$0.83*SNDP$29.1*FRSHTT$111000*CLDC$50.4*WNDDIR$219
STN$728560*DATE$2021-02-04*TIME$12:55:32*TEMP$-15.0*DEWP$-21.1*STP$1002.3*SLP$1032.4*VISIB$25.2*WDSP$9.8*PRCP$0.00*SNDP$8.1*FRSHTT$101000*CLDC$52.4*WNDDIR$162
STN$124690*DATE$2021-02-04*TIME$12:55:32*TEMP$-0.5*DEWP$-3.9*STP$1001.9*SLP$1015.4*VISIB$8.7*WDSP$15.2*PRCP$0.09*SNDP$0.8*FRSHTT$111000*CLDC$64.1*WNDDIR$194
STN$32150*DATE$2021-02-04*TIME$12:55:32*TEMP$1.9*DEWP$-0.5*STP$1010.5*SLP$1011.7*VISIB$23.4*WDSP$20.0*PRCP$0.35*SNDP$0.0*FRSHTT$010000*CLDC$51.0*WNDDIR$5
STN$475200*DATE$2021-02-04*TIME$12:55:32*TEMP$-4.4*DEWP$-6.3*STP$1006.3*SLP$1019.3*VISIB$8.5*WDSP$9.4*PRCP$0.30*SNDP$0.0*FRSHTT$110000*CLDC$96.2*WNDDIR$35
STN$728550*DATE$2021-02-04*TIME$12:55:32*TEMP$-11.9*DEWP$-18.3*STP$992.2*SLP$1033.0*VISIB$23.0*WDSP$29.7*PRCP$0.00*SNDP$9.7*FRSHTT$101000*CLDC$50.7*WNDDIR$206
STN$93850*DATE$2021-02-04*TIME$12:55:32*TEMP$-1.2*DEWP$-4.4*STP$1011.9*SLP$1016.0*VISIB$4.4*WDSP$16.8*PRCP$0.09*SNDP$0.2*FRSHTT$111000*CLDC$71.5*WNDDIR$166
STN$76380*DATE$2021-02-04*TIME$12:55:32*TEMP$2.9*DEWP$-1.2*STP$1019.8*SLP$1018.3*VISIB$20.2*WDSP$17.3*PRCP$0.11*SNDP$0.0*FRSHTT$010000*CLDC$72.1*WNDDIR$329
STN$690020*DATE$2021-02-04*TIME$12:55:32*TEMP$3.5*DEWP$-1.0*STP$978.9*SLP$1016.7*VISIB$15.9*WDSP$1.9*PRCP$0.00*SNDP$0.0*FRSHTT$000000*CLDC$86.3*WNDDIR$114
STN$353860*DATE$2021-02-04*TIME$12:55:32*TEMP$-1.5*DEWP$-3.5*STP$1018.5*SLP$1036.1*VISIB$10.5*WDSP$26.4*PRCP$0.16*SNDP$0.0*FRSHTT$110000*CLDC$96.9*WNDDIR$163
STN$107430*DATE$2021-02-04*TIME$12:55:32*TEMP$-1.4*DEWP$-4.7*STP$977.8*SLP$1013.8*VISIB$13.8*WDSP$18.4*PRCP$0.05*SNDP$0.6*FRSHTT$111000*CLDC$50.2*WNDDIR$356
STN$333012*DATE$2021-02-04*TIME$12:55:32*TEMP$0.0*DEWP$-1.1*STP$1004.5*SLP$985.6*VISIB$2.8*WDSP$14.2*PRCP$0.00*SNDP$0.0*FRSHTT$100000*CLDC$72.1*WNDDIR$44
STN$103820*DATE$2021-02-04*TIME$12:55:32*TEMP$-1.6*DEWP$-4.7*STP$1001.2*SLP$1002.8*VISIB$8.3*WDSP$15.9*PRCP$0.05*SNDP$0.2*FRSHTT$111000*CLDC$69.4*WNDDIR$297
STN$762430*DATE$2021-02-04*TIME$12:55:32*TEMP$9.3*DEWP$-0.1*STP$991.1*SLP$1020.0*VISIB$16.2*WDSP$12.1*PRCP$0.00*SNDP$0.0*FRSHTT$000000*CLDC$55.7*WNDDIR$202
STN$103810*DATE$2021-02-04*TIME$12:55:32*TEMP$-1.1*DEWP$-3.7*STP$1016.5*SLP$1017.4*VISIB$8.7*WDSP$14.5*PRCP$0.10*SNDP$0.4*FRSHTT$111000*CLDC$50.2*WNDDIR$250
STN$524180*DATE$2021-02-04*TIME$12:55:32*TEMP$-3.2*DEWP$-15.1*STP$919.0*SLP$1029.5*VISIB$32.0*WDSP$3.8*PRCP$0.00*SNDP$0.0*FRSHTT$100000*CLDC$94.2*WNDDIR$16
STN$623662*DATE$2021-02-04*TIME$12:55:32*TEMP$5.5*DEWP$-0.3*STP$1014.8*SLP$1000.0*VISIB$8.0*WDSP$9.7*PRCP$0.00*SNDP$0.0*FRSHTT$000000*CLDC$97.2*WNDDIR$225
STN$172180*DATE$2021-02-04*TIME$12:55:32*TEMP$1.1*DEWP$-3.3*STP$1008.0*SLP$1015.6*VISIB$14.0*WDSP$18.5*PRCP$0.06*SNDP$0.0*FRSHTT$010000*CLDC$50.2*WNDDIR$134
STN$488970*DATE$2021-02-04*TIME$12:55:32*TEMP$7.6*DEWP$3.1*STP$1013.1*SLP$1009.3*VISIB$15.9*WDSP$22.6*PRCP$0.00*SNDP$0.0*FRSHTT$000000*CLDC$20.6*WNDDIR$113
STN$623660*DATE$2021-02-04*TIME$12:55:32*TEMP$2.8*DEWP$-5.3*STP$1019.2*SLP$1018.7*VISIB$15.5*WDSP$18.0*PRCP$0.01*SNDP$0.0*FRSHTT$010000*CLDC$51.2*WNDDIR$68
STN$718310*DATE$2021-02-04*TIME$12:55:32*TEMP$-21.0*DEWP$-25.4*STP$991.4*SLP$1020.7*VISIB$17.0*WDSP$12.2*PRCP$0.06*SNDP$31.1*FRSHTT$111000*CLDC$78.9*WNDDIR$32
STN$637200*DATE$2021-02-04*TIME$12:55:32*TEMP$5.0*DEWP$-6.7*STP$977.0*SLP$980.1*VISIB$27.5*WDSP$4.2*PRCP$0.00*SNDP$0.0*FRSHTT$000000*CLDC$19.8*WNDDIR$218
STN$726686*DATE$2021-02-04*TIME$12:55:32*TEMP$-3.5*DEWP$-7.4*STP$975.5*SLP$1024.1*VISIB$23.0*WDSP$16.4*PRCP$0.05*SNDP$1.5*FRSHTT$111000*CLDC$50.2*WNDDIR$208
STN$726685*DATE$2021-02-04*TIME$12:55:32*TEMP$-8.1*DEWP$-12.6*STP$1020.4*SLP$1025.5*VISIB$20.9*WDSP$16.3*PRCP$0.02*SNDP$2.4*FRSHTT$111000*CLDC$50.6*WNDDIR$63
STN$726682*DATE$2021-02-04*TIME$12:55:32*TEMP$-16.9*DEWP$-19.8*STP$996.6*SLP$983.1*VISIB$10.6*WDSP$8.6*PRCP$0.00*SNDP$0.0*FRSHTT$100000*CLDC$50.0*WNDDIR$303
STN$478000*DATE$2021-02-04*TIME$12:55:32*TEMP$2.7*DEWP$-5.0*STP$1023.5*SLP$1021.6*VISIB$23.9*WDSP$16.9*PRCP$0.05*SNDP$0.0*FRSHTT$010000*CLDC$79.5*WNDDIR$352
STN$91620*DATE$2021-02-04*TIME$12:55:32*TEMP$-1.6*DEWP$-5.0*STP$1018.6*SLP$1014.5*VISIB$7.7*WDSP$19.1*PRCP$0.07*SNDP$0.3*FRSHTT$111000*CLDC$50.8*WNDDIR$303
STN$726680*DATE$2021-02-04*TIME$12:55:32*TEMP$-9.8*DEWP$-13.7*STP$1018.8*SLP$1029.5*VISIB$5.8*WDSP$22.4*PRCP$0.00*SNDP$8.1*FRSHTT$101000*CLDC$50.7*WNDDIR$327
STN$726679*DATE$2021-02-04*TIME$12:55:32*TEMP$-18.7*DEWP$-24.2*STP$1005.2*SLP$1016.3*VISIB$16.0*WDSP$9.8*PRCP$0.00*SNDP$0.0*FRSHTT$100000*CLDC$0.8*WNDDIR$198
STN$726676*DATE$2021-02-04*TIME$12:55:32*TEMP$-5.4*DEWP$-7.8*STP$1007.3*SLP$1020.2*VISIB$14.1*WDSP$18.1*PRCP$0.00*SNDP$0.0*FRSHTT$100000*CLDC$82.0*WNDDIR$279
STN$726675*DATE$2021-02-04*TIME$12:55:32*TEMP$-7.8*DEWP$-11.5*STP$927.9*SLP$1026.2*VISIB$19.6*WDSP$19.6*PRCP$0.02*SNDP$4.0*FRSHTT$111000*CLDC$97.6*WNDDIR$205
STN$723965*DATE$2021-02-04*TIME$12:55:32*TEMP$1.9*DEWP$-1.7*STP$1018.5*SLP$1019.4*VISIB$20.8*WDSP$10.5*PRCP$0.09*SNDP$0.0*FRSHTT$010000*CLDC$62.3*WNDDIR$251
STN$306690*DATE$2021-02-04*TIME$12:55:32*TEMP$-28.1*DEWP$-31.8*STP$1038.4*SLP$1029.3*VISIB$44.2*WDSP$5.5*PRCP$0.00*SNDP$2.5*FRSHTT$101000*CLDC$63.2*WNDDIR$32
STN$12120*DATE$2021-02-04*TIME$12:55:32*TEMP$0.9*DEWP$-2.6*STP$1002.3*SLP$1001.9*VISIB$31.9*WDSP$39.0*PRCP$0.37*SNDP$1.6*FRSHTT$011000*CLDC$50.2*WNDDIR$190
STN$234450*DATE$2021-02-04*TIME$12:55:32*TEMP$-26.4*DEWP$-25.1*STP$1033.7*SLP$1017.3*VISIB$4.4*WDSP$4.4*PRCP$0.00*SNDP$36.1*FRSHTT$101000*CLDC$94.1*WNDDIR$149
STN$164050*DATE$2021-02-04*TIME$12:55:32*TEMP$7.7*DEWP$3.4*STP$1017.2*SLP$1017.1*VISIB$11.0*WDSP$14.3*PRCP$0.03*SNDP$0.0*FRSHTT$010000*CLDC$51.9*WNDDIR$272
STN$27550*DATE$2021-02-04*TIME$12:55:32*TEMP$-7.5*DEWP$-8.3*STP$1004.1*SLP$1014.0*VISIB$14.8*WDSP$5.4*PRCP$0.00*SNDP$0.0*FRSHTT$100000*CLDC$93.7*WNDDIR$286
STN$723940*DATE$2021-02-04*TIME$12:55:32*TEMP$2.1*DEWP$-4.5*STP$1009.5*SLP$1018.7*VISIB$28.7*WDSP$12.5*PRCP$0.17*SNDP$0.0*FRSHTT$010000*CLDC$50.9*WNDDIR$17
STN$287560*DATE$2021-02-04*TIME$12:55:32*TEMP$-11.4*DEWP$-14.5*STP$1022.4*SLP$1017.7*VISIB$16.9*WDSP$15.0*PRCP$0.02*SNDP$3.6*FRSHTT$111000*CLDC$50.6*WNDDIR$253
STN$586660*DATE$2021-02-04*TIME$12:55:32*TEMP$4.5*DEWP$0.9*STP$1020.7*SLP$1024.4*VISIB$13.1*WDSP$29.4*PRCP$0.11*SNDP$0.0*FRSHTT$010000*CLDC$51.6*WNDDIR$125
STN$983280*DATE$2021-02-04*TIME$12:55:32*TEMP$6.0*DEWP$1.3*STP$906.0*SLP$1012.0*VISIB$11.1*WDSP$5.4*PRCP$0.00*SNDP$0.0*FRSHTT$000000*CLDC$10.1*WNDDIR$347
STN$167430*DATE$2021-02-04*TIME$12:55:32*TEMP$3.6*DEWP$-1.7*STP$1010.8*SLP$1020.7*VISIB$17.9*WDSP$24.9*PRCP$0.03*SNDP$0.0*FRSHTT$010000*CLDC$51.3*WNDDIR$40
STN$722226*DATE$2021-02-04*TIME$12:55:32*TEMP$6.4*DEWP$1.2*STP$1015.7*SLP$1021.1*VISIB$7.8*WDSP$9.7*PRCP$0.15*SNDP$0.0*FRSHTT$010000*CLDC$50.4*WNDDIR$146
STN$320530*DATE$2021-02-04*TIME$12:55:32*TEMP$-19.7*DEWP$-24.0*STP$1012.4*SLP$1012.2*VISIB$11.0*WDSP$13.2*PRCP$0.08*SNDP$15.1*FRSHTT$111000*CLDC$81.5*WNDDIR$127
STN$722225*DATE$2021-02-04*TIME$12:55:32*TEMP$7.8*DEWP$2.0*STP$1021.7*SLP$1020.6*VISIB$11.0*WDSP$16.2*PRCP$0.12*SNDP$0.0*FRSHTT$010000*CLDC$51.8*WNDDIR$339
STN$95820*DATE$2021-02-04*TIME$12:55:32*TEMP$-3.6*DEWP$-4.7*STP$914.2*SLP$917.1*VISIB$9.3*WDSP$20.7*PRCP$0.19*SNDP$7.9*FRSHTT$111000*CLDC$95.8*WNDDIR$273
STN$722230*DATE$2021-02-04*TIME$12:55:32*TEMP$5.2*DEWP$-1.1*STP$1011.6*SLP$1021.5*VISIB$13.6*WDSP$16.9*PRCP$0.29*SNDP$0.0*FRSHTT$010000*CLDC$70.6*WNDDIR$138
STN$661040*DATE$2021-02-04*TIME$12:55:32*TEMP$13.1*DEWP$10.4*STP$1016.8*SLP$1009.2*VISIB$28.0*WDSP$12.3*PRCP$0.00*SNDP$0.0*FRSHTT$000000*CLDC$12.9*WNDDIR$221
STN$201860*DATE$2021-02-04*TIME$12:55:32*TEMP$-26.5*DEWP$-27.1*STP$1020.9*SLP$1009.5*VISIB$38.7*WDSP$7.2*PRCP$0.00*SNDP$0.0*FRSHTT$100000*CLDC$59.6*WNDDIR$34
STN$60620*DATE$2021-02-04*TIME$12:55:32*TEMP$-2.5*DEWP$-3.9*STP$992.6*SLP$1015.5*VISIB$10.3*WDSP$16.1*PRCP$0.00*SNDP$0.0*FRSHTT$100000*CLDC$69.6*WNDDIR$223
STN$722235*DATE$2021-02-04*TIME$12:55:32*TEMP$7.5*DEWP$1.8*STP$1017.4*SLP$1017.4*VISIB$15.4*WDSP$11.5*PRCP$0.01*SNDP$0.0*FRSHTT$010000*CLDC$93.4*WNDDIR$24
STN$911860*DATE$2021-02-04*TIME$12:55:32*TEMP$13.6*DEWP$7.8*STP$1012.0*SLP$1010.6*VISIB$41.1*WDSP$22.1*PRCP$0.05*SNDP$0.0*FRSHTT$010000*CLDC$85.8*WNDDIR$250
STN$723555*DATE$2021-02-04*TIME$12:55:32*TEMP$1.2*DEWP$-4.8*STP$995.8*SLP$1005.2*VISIB$22.1*WDSP$17.0*PRCP$0.01*SNDP$0.0*FRSHTT$010000*CLDC$51.0*WNDDIR$293
STN$133330*DATE$2021-02-04*TIME$12:55:32*TEMP$1.3*DEWP$-6.8*STP$1019.4*SLP$1016.1*VISIB$11.5*WDSP$9.3*PRCP$0.09*SNDP$0.0*FRSHTT$010000*CLDC$57.9*WNDDIR$318
STN$723556*DATE$2021-02-04*TIME$12:55:32*TEMP$2.2*DEWP$-2.0*STP$1014.3*SLP$1019.5*VISIB$25.7*WDSP$18.1*PRCP$0.03*SNDP$0.0*FRSHTT$010000*CLDC$68.7*WNDDIR$64
STN$741030*DATE$2021-02-04*TIME$12:55:32*TEMP$-20.4*DEWP$-24.6*STP$964.8*SLP$1037.4*VISIB$18.1*WDSP$1.3*PRCP$0.00*SNDP$1.1*FRSHTT$101000*CLDC$60.1*WNDDIR$234
STN$741050*DATE$2021-02-04*TIME$12:55:32*TEMP$-1.2*DEWP$-12.2*STP$1027.9*SLP$1027.9*VISIB$24.7*WDSP$9.3*PRCP$0.00*SNDP$0.0*FRSHTT$100000*CLDC$95.4*WNDDIR$347
STN$307100*DATE$2021-02-04*TIME$12:55:32*TEMP$-17.9*DEWP$-20.9*STP$1016.8*SLP$1023.5*VISIB$6.0*WDSP$8.6*PRCP$0.01*SNDP$0.0*FRSHTT$110000*CLDC$50.5*WNDDIR$137
STN$515670*DATE$2021-02-04*TIME$12:55:32*TEMP$-2.7*DEWP$-9.5*STP$1001.3*SLP$1034.2*VISIB$10.6*WDSP$6.3*PRCP$0.00*SNDP$0.0*FRSHTT$100000*CLDC$54.2*WNDDIR$205
STN$741040*DATE$2021-02-04*TIME$12:55:32*TEMP$-5.5*DEWP$-8.6*STP$906.5*SLP$1018.6*VISIB$21.9*WDSP$15.2*PRCP$0.03*SNDP$4.3*FRSHTT$111000*CLDC$50.1*WNDDIR$355
STN$234050*DATE$2021-02-04*TIME$12:55:32*TEMP$-14.4*DEWP$-16.4*STP$1013.7*SLP$1014.5*VISIB$19.7*WDSP$13.7*PRCP$0.17*SNDP$17.1*FRSHTT$111000*CLDC$51.1*WNDDIR$20
STN$102530*DATE$2021-02-04*TIME$12:55:32*TEMP$-1.3*DEWP$-3.9*STP$1018.8*SLP$1016.8*VISIB$11.3*WDSP$11.1*PRCP$0.08*SNDP$0.2*FRSHTT$111000*CLDC$71.8*WNDDIR$11
STN$142350*DATE$2021-02-04*TIME$12:55:32*TEMP$-1.9*DEWP$-4.5*STP$898.5*SLP$902.1*VISIB$11.3*WDSP$8.0*PRCP$0.28*SNDP$22.9*FRSHTT$111000*CLDC$93.1*WNDDIR$285
STN$280090*DATE$2021-02-04*TIME$12:55:32*TEMP$-12.1*DEWP$-15.3*STP$1003.7*SLP$1019.8*VISIB$9.9*WDSP$8.3*PRCP$0.05*SNDP$7.5*FRSHTT$111000*CLDC$75.4*WNDDIR$312
STN$946600*DATE$2021-02-04*TIME$12:55:32*TEMP$19.5*DEWP$10.8*STP$1013.7*SLP$1014.4*VISIB$16.5*WDSP$12.2*PRCP$0.00*SNDP$0.0*FRSHTT$000000*CLDC$38.2*WNDDIR$8
STN$402650*DATE$2021-02-04*TIME$12:55:32*TEMP$1.1*DEWP$-0.3*STP$1046.8*SLP$1041.7*VISIB$10.1*WDSP$16.2*PRCP$0.00*SNDP$0.0*FRSHTT$000000*CLDC$34.4*WNDDIR$89
STN$142340*DATE$2021-02-04*TIME$12:55:32*TEMP$-0.9*DEWP$-4.7*STP$995.0*SLP$1020.4*VISIB$17.7*WDSP$6.0*PRCP$0.16*SNDP$1.9*FRSHTT$111000*CLDC$50.7*WNDDIR$283
STN$102540*DATE$2021-02-04*TIME$12:55:32*TEMP$-3.3*DEWP$-4.9*STP$1011.5*SLP$1015.2*VISIB$1.4*WDSP$13.0*PRCP$0.06*SNDP$0.0*FRSHTT$110000*CLDC$50.3*WNDDIR$116
STN$579320*DATE$2021-02-04*TIME$12:55:32*TEMP$3.3*DEWP$-0.1*STP$1024.7*SLP$1027.8*VISIB$13.2*WDSP$4.9*PRCP$0.03*SNDP$0.0*FRSHTT$010000*CLDC$50.6*WNDDIR$277
STN$561720*DATE$2021-02-04*TIME$12:55:32*TEMP$0.4*DEWP$-13.7*STP$777.8*SLP$780.3*VISIB$33.0*WDSP$5.0*PRCP$0.02*SNDP$0.0*FRSHTT$010000*CLDC$50.9*WNDDIR$0
STN$561730*DATE$2021-02-04*TIME$12:55:32*TEMP$-7.6*DEWP$-16.1*STP$659.6*SLP$663.5*VISIB$28.2*WDSP$5.3*PRCP$0.01*SNDP$0.0*FRSHTT$110000*CLDC$51.3*WNDDIR$263
STN$517650*DATE$2021-02-04*TIME$12:55:32*TEMP$-1.6*DEWP$-11.2*STP$939.4*SLP$1030.5*VISIB$30.4*WDSP$6.3*PRCP$0.00*SNDP$0.0*FRSHTT$100000*CLDC$13.2*WNDDIR$111
STN$874530*DATE$2021-02-04*TIME$12:55:32*TEMP$15.5*DEWP$7.8*STP$981.2*SLP$1010.2*VISIB$17.9*WDSP$15.0*PRCP$0.27*SNDP$0.0*FRSHTT$010000*CLDC$51.4*WNDDIR$47
STN$407620*DATE$2021-02-04*TIME$12:55:32*TEMP$10.0*DEWP$6.8*STP$850.4*SLP$1010.3*VISIB$10.5*WDSP$10.3*PRCP$0.00*SNDP$0.0*FRSHTT$000000*CLDC$99.0*WNDDIR$303
STN$560800*DATE$2021-02-04*TIME$12:55:32*TEMP$-5.3*DEWP$-16.8*STP$734.3*SLP$735.5*VISIB$27.1*WDSP$3.8*PRCP$0.00*SNDP$0.0*FRSHTT$100000*CLDC$43.0*WNDDIR$153
STN$82270*DATE$2021-02-04*TIME$12:55:32*TEMP$0.5*DEWP$-4.6*STP$976.3*SLP$992.4*VISIB$12.3*WDSP$10.2*PRCP$0.02*SNDP$0.0*FRSHTT$010000*CLDC$50.0*WNDDIR$340
STN$21080*DATE$2021-02-04*TIME$12:55:32*TEMP$-6.1*DEWP$-8.4*STP$986.8*SLP$1007.9*VISIB$29.5*WDSP$9.7*PRCP$0.14*SNDP$45.1*FRSHTT$111000*CLDC$85.4*WNDDIR$171
STN$786270*DATE$2021-02-04*TIME$12:55:32*TEMP$11.1*DEWP$2.1*STP$818.7*SLP$810.9*VISIB$11.6*WDSP$5.5*PRCP$0.00*SNDP$0.0*FRSHTT$000000*CLDC$63.0*WNDDIR$147
STN$560790*DATE$2021-02-04*TIME$12:55:32*TEMP$-4.2*DEWP$-14.8*STP$664.9*SLP$667.3*VISIB$32.5*WDSP$7.6*PRCP$0.01*SNDP$0.0*FRSHTT$110000*CLDC$68.8*WNDDIR$287
STN$257770*DATE$2021-02-04*TIME$12:55:32*TEMP$-19.8*DEWP$-23.5*STP$1036.2*SLP$1012.9*VISIB$8.9*WDSP$37.1*PRCP$0.00*SNDP$0.0*FRSHTT$100000*CLDC$90.4*WNDDIR$81
STN$859340*DATE$2021-02-04*TIME$12:55:32*TEMP$6.2*DEWP$1.2*STP$1004.2*SLP$1002.8*VISIB$16.1*WDSP$27.0*PRCP$0.09*SNDP$0.0*FRSHTT$010000*CLDC$78.7*WNDDIR$339
STN$286420*DATE$2021-02-04*TIME$12:55:32*TEMP$-11.3*DEWP$-13.8*STP$1012.6*SLP$1019.1*VISIB$2.5*WDSP$15.8*PRCP$0.02*SNDP$4.7*FRSHTT$111000*CLDC$50.8*WNDDIR$206
STN$330001*DATE$2021-02-04*TIME$12:55:32*TEMP$-0.4*DEWP$-2.5*STP$988.3*SLP$989.7*VISIB$9.0*WDSP$5.3*PRCP$0.00*SNDP$0.0*FRSHTT$100000*CLDC$44.2*WNDDIR$118
STN$680380*DATE$2021-02-04*TIME$12:55:32*TEMP$15.0*DEWP$7.8*STP$1017.8*SLP$1011.0*VISIB$10.4*WDSP$16.4*PRCP$0.00*SNDP$0.0*FRSHTT$000000*CLDC$99.7*WNDDIR$265
STN$944480*DATE$2021-02-04*TIME$12:55:32*TEMP$14.0*DEWP$-0.2*STP$967.0*SLP$1009.4*VISIB$33.9*WDSP$10.1*PRCP$0.06*SNDP$0.0*FRSHTT$010000*CLDC$54.0*WNDDIR$23
STN$347590*DATE$2021-02-04*TIME$12:55:32*TEMP$-3.4*DEWP$-5.6*STP$1014.2*SLP$1021.5*VISIB$8.8*WDSP$15.8*PRCP$0.03*SNDP$2.3*FRSHTT$111000*CLDC$50.8*WNDDIR$310
STN$317250*DATE$2021-02-04*TIME$12:55:32*TEMP$-25.1*DEWP$-28.6*STP$1016.1*SLP$1020.0*VISIB$19.3*WDSP$8.7*PRCP$0.01*SNDP$2.0*FRSHTT$111000*CLDC$50.3*WNDDIR$229
STN$408590*DATE$2021-02-04*TIME$12:55:32*TEMP$6.0*DEWP$5.5*STP$872.1*SLP$1016.9*VISIB$10.3*WDSP$0.0*PRCP$1.83*SNDP$0.0*FRSHTT$010000*CLDC$73.3*WNDDIR$184
STN$577070*DATE$2021-02-04*TIME$12:55:32*TEMP$1.3*DEWP$-1.2*STP$852.5*SLP$852.4*VISIB$4.7*WDSP$4.5*PRCP$0.02*SNDP$0.0*FRSHTT$010000*CLDC$66.3*WNDDIR$62
STN$408580*DATE$2021-02-04*TIME$12:55:32*TEMP$13.4*DEWP$9.7*STP$1002.2*SLP$1003.9*VISIB$12.1*WDSP$10.0*PRCP$0.00*SNDP$0.0*FRSHTT$000000*CLDC$86.7*WNDDIR$238
STN$39760*DATE$2021-02-04*TIME$12:55:32*TEMP$2.9*DEWP$0.3*STP$1005.5*SLP$1008.7*VISIB$23.8*WDSP$23.6*PRCP$0.24*SNDP$0.0*FRSHTT$010000*CLDC$51.3*WNDDIR$5
STN$167540*DATE$2021-02-04*TIME$12:55:32*TEMP$2.8*DEWP$-3.0*STP$1016.4*SLP$1015.1*VISIB$8.7*WDSP$24.9*PRCP$0.11*SNDP$0.0*FRSHTT$010000*CLDC$89.9*WNDDIR$131
STN$167543*DATE$2021-02-04*TIME$12:55:32*TEMP$7.2*DEWP$0.8*STP$996.6*SLP$1008.4*VISIB$11.7*WDSP$27.5*PRCP$0.00*SNDP$0.0*FRSHTT$000000*CLDC$43.1*WNDDIR$357
STN$320610*DATE$2021-02-04*TIME$12:55:32*TEMP$-18.2*DEWP$-21.3*STP$1013.7*SLP$1014.4*VISIB$16.3*WDSP$22.4*PRCP$0.08*SNDP$8.7*FRSHTT$111000*CLDC$50.9*WNDDIR$256
STN$711430*DATE$2021-02-04*TIME$12:55:32*TEMP$-14.5*DEWP$-18.0*STP$989.2*SLP$1023.7*VISIB$19.8*WDSP$7.9*PRCP$0.05*SNDP$21.5*FRSHTT$111000*CLDC$50.1*WNDDIR$17
STN$722243*DATE$2021-02-04*TIME$12:55:32*TEMP$7.0*DEWP$0.0*STP$1010.4*SLP$1009.8*VISIB$13.1*WDSP$6.3*PRCP$0.00*SNDP$0.0*FRSHTT$000000*CLDC$50.2*WNDDIR$288
STN$722252*DATE$2021-02-04*TIME$12:55:32*TEMP$-2.1*DEWP$-2.9*STP$1005.0*SLP$993.6*VISIB$2.5*WDSP$18.3*PRCP$0.00*SNDP$0.0*FRSHTT$100000*CLDC$40.7*WNDDIR$128
STN$722255*DATE$2021-02-04*TIME$12:55:32*TEMP$2.9*DEWP$-4.4*STP$1008.6*SLP$1021.3*VISIB$19.2*WDSP$11.3*PRCP$0.12*SNDP$0.0*FRSHTT$010000*CLDC$50.1*WNDDIR$309
STN$442980*DATE$2021-02-04*TIME$12:55:32*TEMP$-6.3*DEWP$-14.7*STP$1001.9*SLP$1030.2*VISIB$47.5*WDSP$8.0*PRCP$0.00*SNDP$0.0*FRSHTT$100000*CLDC$71.0*WNDDIR$250
STN$722249*DATE$2021-02-04*TIME$12:55:32*TEMP$-15.2*DEWP$-20.8*STP$1009.5*SLP$1038.3*VISIB$13.1*WDSP$16.4*PRCP$0.00*SNDP$0.0*FRSHTT$100000*CLDC$23.2*WNDDIR$240
STN$722250*DATE$2021-02-04*TIME$12:55:32*TEMP$2.0*DEWP$-3.5*STP$1018.0*SLP$1021.4*VISIB$13.5*WDSP$9.6*PRCP$0.09*SNDP$0.0*FRSHTT$010000*CLDC$98.6*WNDDIR$160
STN$170672*DATE$2021-02-04*TIME$12:55:32*TEMP$-2.0*DEWP$-3.2*STP$1000.0*SLP$969.6*VISIB$4.8*WDSP$5.4*PRCP$0.00*SNDP$0.0*FRSHTT$100000*CLDC$84.3*WNDDIR$215
STN$170674*DATE$2021-02-04*TIME$12:55:32*TEMP$1.6*DEWP$-1.0*STP$1019.7*SLP$1034.0*VISIB$5.7*WDSP$12.8*PRCP$0.00*SNDP$0.0*FRSHTT$000000*CLDC$64.6*WNDDIR$157
STN$725383*DATE$2021-02-04*TIME$12:55:32*TEMP$-7.7*DEWP$-10.3*STP$1010.1*SLP$1015.5*VISIB$11.9*WDSP$8.2*PRCP$0.00*SNDP$0.0*FRSHTT$100000*CLDC$74.3*WNDDIR$55
STN$725384*DATE$2021-02-04*TIME$12:55:32*TEMP$-6.7*DEWP$-9.7*STP$997.6*SLP$1006.0*VISIB$9.3*WDSP$16.6*PRCP$0.00*SNDP$0.0*FRSHTT$100000*CLDC$59.6*WNDDIR$265
STN$478240*DATE$2021-02-04*TIME$12:55:32*TEMP$0.0*DEWP$-4.1*STP$1005.1*SLP$1023.3*VISIB$14.2*WDSP$2.9*PRCP$0.01*SNDP$0.0*FRSHTT$110000*CLDC$50.2*WNDDIR$188
STN$29170*DATE$2021-02-04*TIME$12:55:32*TEMP$-5.3*DEWP$-7.0*STP$1005.5*SLP$1008.9*VISIB$11.4*WDSP$15.0*PRCP$0.10*SNDP$14.2*FRSHTT$111000*CLDC$84.5*WNDDIR$113
STN$370540*DATE$2021-02-04*TIME$12:55:32*TEMP$-3.2*DEWP$-5.9*STP$1009.9*SLP$1021.9*VISIB$7.7*WDSP$11.3*PRCP$0.02*SNDP$2.0*FRSHTT$111000*CLDC$55.4*WNDDIR$275
STN$725390*DATE$2021-02-04*TIME$12:55:32*TEMP$-10.1*DEWP$-13.9*STP$990.0*SLP$1021.8*VISIB$13.1*WDSP$13.9*PRCP$0.06*SNDP$5.4*FRSHTT$111000*CLDC$86.5*WNDDIR$208
STN$170660*DATE$2021-02-04*TIME$12:55:32*TEMP$4.0*DEWP$1.7*STP$1025.4*SLP$1025.5*VISIB$11.1*WDSP$4.9*PRCP$0.00*SNDP$0.0*FRSHTT$000000*CLDC$83.7*WNDDIR$166
STN$13610*DATE$2021-02-04*TIME$12:55:32*TEMP$-8.2*DEWP$-9.8*STP$982.9*SLP$1002.0*VISIB$1.0*WDSP$30.2*PRCP$0.22*SNDP$0.0*FRSHTT$110000*CLDC$52.6*WNDDIR$252
STN$729380*DATE$2021-02-04*TIME$12:55:32*TEMP$-18.1*DEWP$-18.9*STP$1016.9*SLP$1018.3*VISIB$22.8*WDSP$17.2*PRCP$0.00*SNDP$16.2*FRSHTT$101000*CLDC$51.5*WNDDIR$66
STN$265540*DATE$2021-02-04*TIME$12:55:32*TEMP$-7.6*DEWP$-9.7*STP$1006.2*SLP$1013.9*VISIB$9.5*WDSP$12.7*PRCP$0.09*SNDP$4.7*FRSHTT$111000*CLDC$50.3*WNDDIR$142
STN$350850*DATE$2021-02-04*TIME$12:55:32*TEMP$-11.9*DEWP$-15.1*STP$1012.8*SLP$1024.7*VISIB$27.7*WDSP$23.7*PRCP$0.02*SNDP$1.6*FRSHTT$111000*CLDC$51.2*WNDDIR$102
STN$71300*DATE$2021-02-04*TIME$12:55:32*TEMP$2.4*DEWP$-0.3*STP$1013.3*SLP$1017.8*VISIB$10.8*WDSP$13.8*PRCP$0.13*SNDP$0.0*FRSHTT$010000*CLDC$52.0*WNDDIR$214
STN$729400*DATE$2021-02-04*TIME$12:55:32*TEMP$-7.8*DEWP$-10.4*STP$949.8*SLP$1032.6*VISIB$40.4*WDSP$4.9*PRCP$0.00*SNDP$0.0*FRSHTT$100000*CLDC$96.3*WNDDIR$263
STN$871210*DATE$2021-02-04*TIME$12:55:32*TEMP$17.6*DEWP$12.7*STP$977.6*SLP$1009.1*VISIB$10.7*WDSP$6.3*PRCP$0.20*SNDP$0.0*FRSHTT$010000*CLDC$90.7*WNDDIR$352
STN$871200*DATE$2021-02-04*TIME$12:55:32*TEMP$16.5*DEWP$14.2*STP$1012.2*SLP$1009.2*VISIB$14.0*WDSP$11.3*PRCP$0.16*SNDP$0.0*FRSHTT$010000*CLDC$51.1*WNDDIR$252
STN$703410*DATE$2021-02-04*TIME$12:55:32*TEMP$-4.8*DEWP$-8.5*STP$1004.0*SLP$1005.8*VISIB$23.7*WDSP$9.0*PRCP$0.12*SNDP$4.7*FRSHTT$111000*CLDC$50.2*WNDDIR$148
STN$949780*DATE$2021-02-04*TIME$12:55:32*TEMP$11.0*DEWP$5.7*STP$992.0*SLP$1014.2*VISIB$19.8*WDSP$14.1*PRCP$0.12*SNDP$0.0*FRSHTT$010000*CLDC$50.5*WNDDIR$349
STN$544970*DATE$2021-02-04*TIME$12:55:32*TEMP$-9.0*DEWP$-17.4*STP$1027.7*SLP$1025.5*VISIB$16.0*WDSP$13.5*PRCP$0.01*SNDP$0.0*FRSHTT$110000*CLDC$50.4*WNDDIR$335
STN$959570*DATE$2021-02-04*TIME$12:55:32*TEMP$8.4*DEWP$-2.1*STP$1022.6*SLP$1024.1*VISIB$51.8*WDSP$12.2*PRCP$0.00*SNDP$0.0*FRSHTT$000000*CLDC$2.1*WNDDIR$182
STN$542660*DATE$2021-02-04*TIME$12:55:32*TEMP$-17.5*DEWP$-23.8*STP$1021.9*SLP$1019.3*VISIB$15.2*WDSP$20.9*PRCP$0.00*SNDP$0.0*FRSHTT$100000*CLDC$10.1*WNDDIR$169
STN$39730*DATE$2021-02-04*TIME$12:55:32*TEMP$1.2*DEWP$0.1*STP$984.9*SLP$1010.7*VISIB$11.1*WDSP$13.6*PRCP$0.31*SNDP$0.2*FRSHTT$011000*CLDC$59.7*WNDDIR$227
STN$785201*DATE$2021-02-04*TIME$12:55:32*TEMP$19.7*DEWP$12.1*STP$1009.4*SLP$1017.1*VISIB$90.5*WDSP$12.4*PRCP$0.00*SNDP$0.0*FRSHTT$000000*CLDC$98.6*WNDDIR$312
STN$330004*DATE$2021-02-04*TIME$12:55:32*TEMP$-1.5*DEWP$-3.1*STP$1002.9*SLP$976.3*VISIB$0.8*WDSP$9.9*PRCP$0.00*SNDP$0.0*FRSHTT$100000*CLDC$9.0*WNDDIR$35
STN$330005*DATE$2021-02-04*TIME$12:55:32*TEMP$-0.6*DEWP$-0.8*STP$996.1*SLP$1028.1*VISIB$0.2*WDSP$8.2*PRCP$0.00*SNDP$0.0*FRSHTT$100000*CLDC$87.6*WNDDIR$146
STN$785203*DATE$2021-02-04*TIME$12:55:32*TEMP$20.2*DEWP$13.2*STP$1002.9*SLP$995.0*VISIB$19.5*WDSP$14.5*PRCP$0.00*SNDP$0.0*FRSHTT$000000*CLDC$27.5*WNDDIR$204
STN$330002*DATE$2021-02-04*TIME$12:55:32*TEMP$-0.3*DEWP$-1.6*STP$996.1*SLP$998.4*VISIB$3.4*WDSP$12.4*PRCP$0.00*SNDP$0.0*FRSHTT$100000*CLDC$30.5*WNDDIR$65
STN$268820*DATE$2021-02-04*TIME$12:55:32*TEMP$-8.7*DEWP$-13.1*STP$1007.5*SLP$1019.9*VISIB$16.2*WDSP$12.4*PRCP$0.03*SNDP$3.3*FRSHTT$111000*CLDC$50.0*WNDDIR$333
STN$330003*DATE$2021-02-04*TIME$12:55:32*TEMP$-0.9*DEWP$-1.9*STP$996.0*SLP$1009.1*VISIB$0.9*WDSP$7.0*PRCP$0.00*SNDP$0.0*FRSHTT$100000*CLDC$2.6*WNDDIR$115
STN$722201*DATE$2021-02-04*TIME$12:55:32*TEMP$1.9*DEWP$-1.4*STP$994.1*SLP$959.7*VISIB$16.2*WDSP$0.3*PRCP$0.00*SNDP$0.0*FRSHTT$000000*CLDC$40.0*WNDDIR$237
STN$800970*DATE$2021-02-04*TIME$12:55:32*TEMP$21.4*DEWP$17.4*STP$976.7*SLP$1011.2*VISIB$7.8*WDSP$11.6*PRCP$0.00*SNDP$0.0*FRSHTT$000000*CLDC$56.2*WNDDIR$150
STN$722200*DATE$2021-02-04*TIME$12:55:32*TEMP$8.4*DEWP$5.2*STP$1020.5*SLP$1021.3*VISIB$12.3*WDSP$11.5*PRCP$0.10*SNDP$0.0*FRSHTT$010000*CLDC$96.6*WNDDIR$174
STN$722202*DATE$2021-02-04*TIME$12:55:32*TEMP$13.6*DEWP$9.3*STP$981.1*SLP$991.3*VISIB$15.7*WDSP$14.6*PRCP$0.00*SNDP$0.0*FRSHTT$000000*CLDC$55.2*WNDDIR$23
STN$167464*DATE$2021-02-04*TIME$12:55:32*TEMP$0.6*DEWP$-2.9*STP$1004.8*SLP$1017.2*VISIB$15.0*WDSP$9.6*PRCP$0.28*SNDP$0.0*FRSHTT$010000*CLDC$50.5*WNDDIR$156
STN$722204*DATE$2021-02-04*TIME$12:55:32*TEMP$-20.4*DEWP$-26.8*STP$1009.5*SLP$1010.0*VISIB$13.5*WDSP$19.4*PRCP$0.00*SNDP$0.0*FRSHTT$100000*CLDC$48.8*WNDDIR$195
STN$863300*DATE$2021-02-04*TIME$12:55:32*TEMP$17.3*DEWP$11.1*STP$1011.5*SLP$1011.2*VISIB$17.0*WDSP$12.6*PRCP$0.30*SNDP$0.0*FRSHTT$010000*CLDC$50.2*WNDDIR$134
STN$94690*DATE$2021-02-04*TIME$12:55:32*TEMP$-1.1*DEWP$-4.0*STP$1021.6*SLP$1016.0*VISIB$5.4*WDSP$19.2*PRCP$0.06*SNDP$0.4*FRSHTT$111000*CLDC$51.2*WNDDIR$238
STN$711896*DATE$2021-02-04*TIME$12:55:32*TEMP$-15.6*DEWP$-21.3*STP$1013.3*SLP$1011.4*VISIB$38.2*WDSP$14.4*PRCP$0.00*SNDP$0.0*FRSHTT$100000*CLDC$49.8*WNDDIR$25
STN$971800*DATE$2021-02-04*TIME$12:55:32*TEMP$9.4*DEWP$6.6*STP$1006.6*SLP$1009.4*VISIB$8.8*WDSP$10.7*PRCP$0.38*SNDP$0.0*FRSHTT$010000*CLDC$50.8*WNDDIR$298
STN$31770*DATE$2021-02-04*TIME$12:55:32*TEMP$1.6*DEWP$-1.7*STP$1010.7*SLP$1007.3*VISIB$25.1*WDSP$28.6*PRCP$0.00*SNDP$0.0*FRSHTT$000000*CLDC$42.0*WNDDIR$177
STN$93980*DATE$2021-02-04*TIME$12:55:32*TEMP$-7.0*DEWP$-7.5*STP$1018.1*SLP$1018.9*VISIB$4.4*WDSP$9.4*PRCP$0.00*SNDP$0.0*FRSHTT$100000*CLDC$71.1*WNDDIR$129
STN$728160*DATE$2021-02-04*TIME$12:55:32*TEMP$-18.1*DEWP$-26.3*STP$994.8*SLP$1001.1*VISIB$29.6*WDSP$31.7*PRCP$0.00*SNDP$58.7*FRSHTT$101000*CLDC$56.5*WNDDIR$213
STN$107100*DATE$2021-02-04*TIME$12:55:32*TEMP$-2.4*DEWP$-3.4*STP$1018.7*SLP$1035.0*VISIB$2.9*WDSP$42.7*PRCP$0.03*SNDP$0.0*FRSHTT$110000*CLDC$52.9*WNDDIR$114
STN$31760*DATE$2021-02-04*TIME$12:55:32*TEMP$0.8*DEWP$-0.3*STP$990.4*SLP$1015.3*VISIB$23.3*WDSP$5.2*PRCP$0.00*SNDP$0.0*FRSHTT$000000*CLDC$99.7*WNDDIR$233
STN$728170*DATE$2021-02-04*TIME$12:55:32*TEMP$-24.4*DEWP$-25.4*STP$1005.7*SLP$1004.4*VISIB$26.1*WDSP$21.4*PRCP$0.00*SNDP$9.7*FRSHTT$101000*CLDC$60.2*WNDDIR$290
STN$728180*DATE$2021-02-04*TIME$12:55:32*TEMP$-16.7*DEWP$-21.8*STP$995.4*SLP$995.9*VISIB$23.4*WDSP$33.6*PRCP$0.00*SNDP$43.6*FRSHTT$101000*CLDC$52.1*WNDDIR$137
STN$107080*DATE$2021-02-04*TIME$12:55:32*TEMP$-0.3*DEWP$-2.9*STP$1005.2*SLP$1019.3*VISIB$6.6*WDSP$10.9*PRCP$0.13*SNDP$0.0*FRSHTT$110000*CLDC$50.7*WNDDIR$267
STN$354260*DATE$2021-02-04*TIME$12:55:32*TEMP$-7.1*DEWP$-8.6*STP$1010.6*SLP$1025.4*VISIB$35.0*WDSP$8.4*PRCP$0.01*SNDP$6.3*FRSHTT$111000*CLDC$80.1*WNDDIR$7
STN$309650*DATE$2021-02-04*TIME$12:55:32*TEMP$-30.3*DEWP$-34.8*STP$1008.0*SLP$1028.1*VISIB$35.1*WDSP$8.3*PRCP$0.00*SNDP$2.2*FRSHTT$101000*CLDC$50.4*WNDDIR$73
STN$105130*DATE$2021-02-04*TIME$12:55:32*TEMP$-0.6*DEWP$-3.4*STP$1015.3*SLP$1016.1*VISIB$12.6*WDSP$9.0*PRCP$0.09*SNDP$0.1*FRSHTT$111000*CLDC$84.5*WNDDIR$50
STN$719570*DATE$2021-02-04*TIME$12:55:32*TEMP$-18.4*DEWP$-21.8*STP$1011.5*SLP$1021.0*VISIB$25.7*WDSP$8.2*PRCP$0.03*SNDP$16.9*FRSHTT$111000*CLDC$50.9*WNDDIR$203
STN$840710*DATE$2021-02-04*TIME$12:55:32*TEMP$9.7*DEWP$4.5*STP$842.8*SLP$845.8*VISIB$9.8*WDSP$9.1*PRCP$0.09*SNDP$0.0*FRSHTT$010000*CLDC$75.8*WNDDIR$67
STN$382640*DATE$2021-02-04*TIME$12:55:32*TEMP$1.9*DEWP$-3.6*STP$1008.4*SLP$1020.4*VISIB$12.5*WDSP$14.9*PRCP$0.01*SNDP$0.3*FRSHTT$011000*CLDC$50.5*WNDDIR$199
STN$854595*DATE$2021-02-04*TIME$12:55:32*TEMP$15.1*DEWP$10.5*STP$986.5*SLP$975.6*VISIB$11.6*WDSP$18.5*PRCP$0.00*SNDP$0.0*FRSHTT$000000*CLDC$21.2*WNDDIR$105
STN$176060*DATE$2021-02-04*TIME$12:55:32*TEMP$1.9*DEWP$-4.4*STP$1032.7*SLP$1021.5*VISIB$12.7*WDSP$8.8*PRCP$0.00*SNDP$0.0*FRSHTT$000000*CLDC$72.0*WNDDIR$93
STN$105140*DATE$2021-02-04*TIME$12:55:32*TEMP$-0.9*DEWP$-3.9*STP$998.4*SLP$1010.4*VISIB$9.2*WDSP$14.4*PRCP$0.03*SNDP$0.1*FRSHTT$111000*CLDC$78.3*WNDDIR$282
STN$105150*DATE$2021-02-04*TIME$12:55:32*TEMP$0.4*DEWP$-4.9*STP$1009.1*SLP$1016.9*VISIB$15.5*WDSP$11.1*PRCP$0.05*SNDP$0.0*FRSHTT$010000*CLDC$54.3*WNDDIR$65
STN$70460*DATE$2021-02-04*TIME$12:55:32*TEMP$2.2*DEWP$0.5*STP$1012.3*SLP$1022.1*VISIB$4.5*WDSP$8.4*PRCP$0.00*SNDP$0.0*FRSHTT$000000*CLDC$81.3*WNDDIR$329
STN$156400*DATE$2021-02-04*TIME$12:55:32*TEMP$-0.9*DEWP$-3.9*STP$985.7*SLP$1017.5*VISIB$14.1*WDSP$8.5*PRCP$0.00*SNDP$0.0*FRSHTT$100000*CLDC$86.7*WNDDIR$85
STN$574260*DATE$2021-02-04*TIME$12:55:32*TEMP$3.6*DEWP$0.2*STP$1020.7*SLP$1022.3*VISIB$9.9*WDSP$5.2*PRCP$0.01*SNDP$0.0*FRSHTT$010000*CLDC$62.0*WNDDIR$210
STN$83970*DATE$2021-02-04*TIME$12:55:32*TEMP$2.6*DEWP$-1.3*STP$1016.4*SLP$1022.9*VISIB$12.6*WDSP$11.4*PRCP$0.03*SNDP$0.0*FRSHTT$010000*CLDC$53.0*WNDDIR$170
STN$467480*DATE$2021-02-04*TIME$12:55:32*TEMP$13.3*DEWP$9.1*STP$1016.5*SLP$1018.5*VISIB$7.5*WDSP$10.5*PRCP$0.01*SNDP$0.0*FRSHTT$010000*CLDC$50.9*WNDDIR$192
STN$423390*DATE$2021-02-04*TIME$12:55:32*TEMP$24.1*DEWP$12.1*STP$992.6*SLP$1012.5*VISIB$3.2*WDSP$2.2*PRCP$0.00*SNDP$0.0*FRSHTT$000000*CLDC$59.8*WNDDIR$142
STN$23310*DATE$2021-02-04*TIME$12:55:32*TEMP$-14.2*DEWP$-17.0*STP$989.4*SLP$973.0*VISIB$25.0*WDSP$4.3*PRCP$0.02*SNDP$0.0*FRSHTT$110000*CLDC$50.4*WNDDIR$261
STN$543420*DATE$2021-02-04*TIME$12:55:32*TEMP$-14.1*DEWP$-20.4*STP$1022.9*SLP$1027.0*VISIB$5.3*WDSP$9.3*PRCP$0.01*SNDP$0.0*FRSHTT$110000*CLDC$50.7*WNDDIR$267
STN$163100*DATE$2021-02-04*TIME$12:55:32*TEMP$3.3*DEWP$-2.4*STP$1009.3*SLP$1017.3*VISIB$12.7*WDSP$12.5*PRCP$0.24*SNDP$0.0*FRSHTT$010000*CLDC$50.8*WNDDIR$46
STN$238430*DATE$2021-02-04*TIME$12:55:32*TEMP$-20.4*DEWP$-21.0*STP$1017.7*SLP$1018.9*VISIB$3.5*WDSP$5.0*PRCP$0.02*SNDP$0.0*FRSHTT$110000*CLDC$52.0*WNDDIR$277
STN$467460*DATE$2021-02-04*TIME$12:55:32*TEMP$14.0*DEWP$10.6*STP$1019.8*SLP$1018.0*VISIB$9.5*WDSP$9.8*PRCP$0.00*SNDP$0.0*FRSHTT$000000*CLDC$71.7*WNDDIR$188
STN$115090*DATE$2021-02-04*TIME$12:55:32*TEMP$-1.3*DEWP$-3.9*STP$997.4*SLP$1017.1*VISIB$11.5*WDSP$11.1*PRCP$0.03*SNDP$0.6*FRSHTT$111000*CLDC$50.9*WNDDIR$54
STN$263140*DATE$2021-02-04*TIME$12:55:32*TEMP$-2.4*DEWP$-4.7*STP$1001.7*SLP$1001.4*VISIB$13.4*WDSP$16.4*PRCP$0.22*SNDP$6.4*FRSHTT$111000*CLDC$51.2*WNDDIR$230
STN$548430*DATE$2021-02-04*TIME$12:55:32*TEMP$-5.5*DEWP$-12.9*STP$1023.0*SLP$1026.8*VISIB$16.4*WDSP$7.5*PRCP$0.01*SNDP$0.0*FRSHTT$110000*CLDC$50.2*WNDDIR$228
STN$561930*DATE$2021-02-04*TIME$12:55:32*TEMP$2.3*DEWP$-1.3*STP$977.4*SLP$1014.5*VISIB$12.0*WDSP$0.9*PRCP$0.00*SNDP$0.0*FRSHTT$000000*CLDC$26.3*WNDDIR$176
STN$717255*DATE$2021-02-04*TIME$12:55:32*TEMP$-21.4*DEWP$-25.9*STP$1024.7*SLP$1020.3*VISIB$20.5*WDSP$13.1*PRCP$0.00*SNDP$0.0*FRSHTT$100000*CLDC$58.5*WNDDIR$83
STN$315040*DATE$2021-02-04*TIME$12:55:32*TEMP$-22.6*DEWP$-27.3*STP$1023.1*SLP$1019.0*VISIB$39.9*WDSP$15.9*PRCP$0.38*SNDP$0.0*FRSHTT$110000*CLDC$51.7*WNDDIR$105
STN$71680*DATE$2021-02-04*TIME$12:55:32*TEMP$0.1*DEWP$-2.1*STP$1010.6*SLP$1020.8*VISIB$8.2*WDSP$17.7*PRCP$0.06*SNDP$0.1*FRSHTT$011000*CLDC$50.0*WNDDIR$101
STN$263130*DATE$2021-02-04*TIME$12:55:32*TEMP$-1.7*DEWP$-4.1*STP$1009.6*SLP$1010.5*VISIB$11.1*WDSP$14.3*PRCP$0.08*SNDP$3.4*FRSHTT$111000*CLDC$68.7*WNDDIR$162
STN$102790*DATE$2021-02-04*TIME$12:55:32*TEMP$-1.8*DEWP$-3.0*STP$1019.8*SLP$1020.1*VISIB$3.1*WDSP$10.8*PRCP$0.04*SNDP$0.0*FRSHTT$110000*CLDC$68.0*WNDDIR$79
STN$297560*DATE$2021-02-04*TIME$12:55:32*TEMP$-8.6*DEWP$-12.9*STP$1047.2*SLP$1029.8*VISIB$51.4*WDSP$2.0*PRCP$0.00*SNDP$0.0*FRSHTT$100000*CLDC$44.0*WNDDIR$263
STN$579570*DATE$2021-02-04*TIME$12:55:32*TEMP$4.0*DEWP$-1.6*STP$1009.1*SLP$1022.6*VISIB$11.4*WDSP$11.8*PRCP$0.13*SNDP$0.0*FRSHTT$010000*CLDC$57.7*WNDDIR$258
