STN$725634*DATE$2021-02-03*TIME$12:59:53*TEMP$-11.8*DEWP$-15.8*STP$1007.9*SLP$1011.5*VISIB$11.1*WDSP$14.0*PRCP$*SNDP$0.0*FRSHTT$100000*CLDC$58.0*WNDDIR$304
STN$725635*DATE$2021-02-03*TIME$12:59:53*TEMP$-10.8*DEWP$-16.8*STP$1004.1*SLP$1005.6*VISIB$28.3*WDSP$14.4*PRCP$0.04*SNDP$0.2*FRSHTT$111000*CLDC$50.1*WNDDIR$182
STN$170420*DATE$2021-02-03*TIME$12:59:53*TEMP$3.7*DEWP$-8.7*STP$1028.1*SLP$1032.2*VISIB$19.8*WDSP$21.4*PRCP$0.00*SNDP$0.0*FRSHTT$000000*CLDC$86.2*WNDDIR$5
STN$913691*DATE$2021-02-03*TIME$12:59:53*TEMP$23.6*DEWP$19.9*STP$1000.4*SLP$1007.7*VISIB$24.7*WDSP$17.8*PRCP$0.36*SNDP$0.0*FRSHTT$010000*CLDC$89.7*WNDDIR$308
STN$725645*DATE$2021-02-03*TIME$12:59:53*TEMP$-4.8*DEWP$-9.6*STP$1018.4*SLP$1019.3*VISIB$34.8*WDSP$22.7*PRCP$0.03*SNDP$2.3*FRSHTT$111000*CLDC$61.5*WNDDIR$54
STN$29430*DATE$2021-02-03*TIME$12:59:53*TEMP$-9.6*DEWP$-13.9*STP$1036.1*SLP$1040.0*VISIB$8.4*WDSP$8.8*PRCP$0.02*SNDP$0.0*FRSHTT$110000*CLDC$96.2*WNDDIR$194
STN$690190*DATE$2021-02-03*TIME$12:59:53*TEMP$0.6*DEWP$-6.9*STP$979.7*SLP$1020.2*VISIB$31.7*WDSP$12.3*PRCP$0.01*SNDP$0.0*FRSHTT$010000*CLDC$50.2*WNDDIR$195
STN$725640*DATE$2021-02-03*TIME$12:59:53*TEMP$-4.4*DEWP$-14.4*STP$828.6*SLP$1019.5*VISIB$47.5*WDSP$24.6*PRCP$0.01*SNDP$0.6*FRSHTT$111000*CLDC$53.7*WNDDIR$350
STN$814050*DATE$2021-02-03*TIME$12:59:53*TEMP$21.5*DEWP$16.1*STP$1013.9*SLP$1012.0*VISIB$25.3*WDSP$14.6*PRCP$0.41*SNDP$0.0*FRSHTT$010000*CLDC$94.3*WNDDIR$265
STN$725745*DATE$2021-02-03*TIME$12:59:53*TEMP$-5.6*DEWP$-10.1*STP$1025.8*SLP$1021.0*VISIB$39.3*WDSP$24.1*PRCP$0.01*SNDP$3.0*FRSHTT$111000*CLDC$68.9*WNDDIR$318
STN$682630*DATE$2021-02-03*TIME$12:59:53*TEMP$6.0*DEWP$-2.7*STP$849.0*SLP$852.4*VISIB$24.2*WDSP$11.1*PRCP$0.03*SNDP$0.0*FRSHTT$010000*CLDC$50.1*WNDDIR$18
STN$682635*DATE$2021-02-03*TIME$12:59:53*TEMP$11.8*DEWP$5.6*STP$991.9*SLP$997.0*VISIB$8.9*WDSP$14.1*PRCP$0.00*SNDP$0.0*FRSHTT$000000*CLDC$5.4*WNDDIR$300
STN$682675*DATE$2021-02-03*TIME$12:59:53*TEMP$8.6*DEWP$-3.3*STP$984.5*SLP$984.6*VISIB$11.4*WDSP$11.6*PRCP$0.00*SNDP$0.0*FRSHTT$000000*CLDC$21.5*WNDDIR$144
STN$407320*DATE$2021-02-03*TIME$12:59:53*TEMP$2.1*DEWP$5.5*STP$1016.9*SLP$1014.8*VISIB$10.4*WDSP$4.3*PRCP$0.00*SNDP$0.0*FRSHTT$000000*CLDC$91.6*WNDDIR$208
STN$23820*DATE$2021-02-03*TIME$12:59:53*TEMP$-6.2*DEWP$-11.0*STP$1007.0*SLP$996.7*VISIB$34.2*WDSP$13.9*PRCP$0.15*SNDP$0.0*FRSHTT$110000*CLDC$50.6*WNDDIR$250
STN$345810*DATE$2021-02-03*TIME$12:59:53*TEMP$-4.2*DEWP$-5.4*STP$992.7*SLP$1002.6*VISIB$38.4*WDSP$20.7*PRCP$0.05*SNDP$0.0*FRSHTT$110000*CLDC$80.0*WNDDIR$173
STN$977900*DATE$2021-02-03*TIME$12:59:53*TEMP$22.3*DEWP$19.2*STP$987.1*SLP$1005.6*VISIB$10.5*WDSP$6.7*PRCP$0.00*SNDP$0.0*FRSHTT$000000*CLDC$39.4*WNDDIR$181
STN$483545*DATE$2021-02-03*TIME$12:59:53*TEMP$12.7*DEWP$3.8*STP$1004.1*SLP$1009.2*VISIB$10.7*WDSP$4.9*PRCP$0.00*SNDP$0.0*FRSHTT$000000*CLDC$66.2*WNDDIR$268
STN$682677*DATE$2021-02-03*TIME$12:59:53*TEMP$4.6*DEWP$-6.2*STP$976.9*SLP$971.2*VISIB$10.7*WDSP$9.5*PRCP$0.00*SNDP$0.0*FRSHTT$000000*CLDC$7.9*WNDDIR$321
STN$483540*DATE$2021-02-03*TIME$12:59:53*TEMP$14.8*DEWP$6.7*STP$999.0*SLP$1008.9*VISIB$7.4*WDSP$4.2*PRCP$0.03*SNDP$0.0*FRSHTT$*CLDC$50.7*WNDDIR$224
STN$171270*DATE$2021-02-03*TIME$12:59:53*TEMP$-4.1*DEWP$-7.2*STP$1016.8*SLP$1021.7*VISIB$12.4*WDSP$4.5*PRCP$0.00*SNDP$0.0*FRSHTT$100000*CLDC$72.8*WNDDIR$115
STN$30280*DATE$2021-02-03*TIME$12:59:53*TEMP$2.0*DEWP$-1.1*STP$998.7*SLP$1008.4*VISIB$25.9*WDSP$34.9*PRCP$0.15*SNDP$0.0*FRSHTT$010000*CLDC$50.2*WNDDIR$71
STN$726588*DATE$2021-02-03*TIME$12:59:53*TEMP$-5.9*DEWP$-10.0*STP$1005.4*SLP$1018.6*VISIB$12.3*WDSP$10.8*PRCP$0.00*SNDP$0.0*FRSHTT$100000*CLDC$48.6*WNDDIR$91
STN$478100*DATE$2021-02-03*TIME$12:59:53*TEMP$1.5*DEWP$-5.9*STP$1005.7*SLP$1014.8*VISIB$11.9*WDSP$14.0*PRCP$0.00*SNDP$0.0*FRSHTT$000000*CLDC$8.2*WNDDIR$259
STN$726589*DATE$2021-02-03*TIME$12:59:53*TEMP$-12.7*DEWP$-13.9*STP$999.7*SLP$999.2*VISIB$9.7*WDSP$15.7*PRCP$0.00*SNDP$0.0*FRSHTT$100000*CLDC$18.3*WNDDIR$296
STN$619760*DATE$2021-02-03*TIME$12:59:53*TEMP$19.6*DEWP$16.3*STP$1006.2*SLP$1007.7*VISIB$15.5*WDSP$22.0*PRCP$0.11*SNDP$0.0*FRSHTT$010000*CLDC$50.2*WNDDIR$100
STN$726590*DATE$2021-02-03*TIME$12:59:53*TEMP$-17.1*DEWP$-20.8*STP$976.9*SLP$1023.6*VISIB$14.0*WDSP$18.6*PRCP$0.01*SNDP$3.4*FRSHTT$111000*CLDC$54.2*WNDDIR$201
STN$325400*DATE$2021-02-03*TIME$12:59:53*TEMP$-9.0*DEWP$-14.0*STP$1003.7*SLP$1001.9*VISIB$20.8*WDSP$17.1*PRCP$0.47*SNDP$3.8*FRSHTT$111000*CLDC$50.3*WNDDIR$25
STN$726584*DATE$2021-02-03*TIME$12:59:53*TEMP$-11.1*DEWP$-15.4*STP$1015.4*SLP$1019.8*VISIB$14.4*WDSP$14.4*PRCP$0.07*SNDP$2.0*FRSHTT$111000*CLDC$50.3*WNDDIR$359
STN$726585*DATE$2021-02-03*TIME$12:59:53*TEMP$-13.4*DEWP$-16.9*STP$1002.9*SLP$999.6*VISIB$15.2*WDSP$21.5*PRCP$0.02*SNDP$0.0*FRSHTT$110000*CLDC$97.8*WNDDIR$301
STN$724070*DATE$2021-02-03*TIME$12:59:53*TEMP$-5.0*DEWP$-10.5*STP$1017.4*SLP$1019.3*VISIB$15.4*WDSP$15.8*PRCP$0.09*SNDP$0.1*FRSHTT$111000*CLDC$64.7*WNDDIR$208
STN$10460*DATE$2021-02-03*TIME$12:59:53*TEMP$-1.6*DEWP$-4.1*STP$1001.4*SLP$1003.0*VISIB$20.8*WDSP$8.4*PRCP$0.00*SNDP$0.0*FRSHTT$100000*CLDC$46.8*WNDDIR$137
STN$724065*DATE$2021-02-03*TIME$12:59:53*TEMP$-5.9*DEWP$-13.0*STP$1014.5*SLP$1019.5*VISIB$9.1*WDSP$10.6*PRCP$0.00*SNDP$0.0*FRSHTT$100000*CLDC$31.3*WNDDIR$157
STN$724066*DATE$2021-02-03*TIME$12:59:53*TEMP$-4.3*DEWP$-9.6*STP$1010.4*SLP$1013.0*VISIB$13.2*WDSP$12.7*PRCP$0.10*SNDP$0.0*FRSHTT$110000*CLDC$85.3*WNDDIR$286
STN$984250*DATE$2021-02-03*TIME$12:59:53*TEMP$22.6*DEWP$16.5*STP$1023.3*SLP$1015.1*VISIB$9.2*WDSP$10.1*PRCP$0.00*SNDP$0.0*FRSHTT$000000*CLDC$14.0*WNDDIR$217
STN$724067*DATE$2021-02-03*TIME$12:59:53*TEMP$-0.9*DEWP$-7.5*STP$997.9*SLP$997.9*VISIB$13.0*WDSP$12.3*PRCP$0.00*SNDP$0.0*FRSHTT$100000*CLDC$22.4*WNDDIR$260
STN$538980*DATE$2021-02-03*TIME$12:59:53*TEMP$-4.0*DEWP$-14.5*STP$1026.2*SLP$1027.3*VISIB$13.4*WDSP$8.6*PRCP$0.01*SNDP$0.0*FRSHTT$110000*CLDC$51.5*WNDDIR$74
STN$80850*DATE$2021-02-03*TIME$12:59:53*TEMP$1.4*DEWP$-3.8*STP$983.4*SLP$1018.8*VISIB$9.2*WDSP$12.4*PRCP$0.01*SNDP$0.0*FRSHTT$010000*CLDC$50.3*WNDDIR$28
STN$150040*DATE$2021-02-03*TIME$12:59:53*TEMP$-2.4*DEWP$-4.1*STP$1010.3*SLP$1020.6*VISIB$9.7*WDSP$3.6*PRCP$0.09*SNDP$2.5*FRSHTT$111000*CLDC$96.1*WNDDIR$266
STN$724074*DATE$2021-02-03*TIME$12:59:53*TEMP$-4.2*DEWP$-14.0*STP$1012.7*SLP$1015.4*VISIB$14.1*WDSP$14.2*PRCP$0.21*SNDP$0.0*FRSHTT$110000*CLDC$50.4*WNDDIR$298
STN$225220*DATE$2021-02-03*TIME$12:59:53*TEMP$-9.9*DEWP$-12.0*STP$1013.1*SLP$1007.6*VISIB$23.3*WDSP$15.0*PRCP$0.02*SNDP$2.5*FRSHTT$111000*CLDC$72.6*WNDDIR$57
STN$23240*DATE$2021-02-03*TIME$12:59:53*TEMP$-4.8*DEWP$-8.5*STP$970.9*SLP$1002.6*VISIB$60.4*WDSP$9.0*PRCP$0.03*SNDP$14.1*FRSHTT$111000*CLDC$81.6*WNDDIR$152
STN$38790*DATE$2021-02-03*TIME$12:59:53*TEMP$2.9*DEWP$-0.3*STP$1020.3*SLP$1018.8*VISIB$13.4*WDSP$23.5*PRCP$0.00*SNDP$0.0*FRSHTT$000000*CLDC$85.7*WNDDIR$3
STN$145420*DATE$2021-02-03*TIME$12:59:53*TEMP$-0.2*DEWP$-3.5*STP$1006.3*SLP$1026.0*VISIB$10.9*WDSP$4.6*PRCP$0.01*SNDP$2.5*FRSHTT$111000*CLDC$85.7*WNDDIR$3
STN$23290*DATE$2021-02-03*TIME$12:59:53*TEMP$-4.6*DEWP$-8.0*STP$950.7*SLP$1007.0*VISIB$15.6*WDSP$4.9*PRCP$0.05*SNDP$0.0*FRSHTT$110000*CLDC$50.2*WNDDIR$46
STN$38840*DATE$2021-02-03*TIME$12:59:53*TEMP$1.1*DEWP$-1.1*STP$1013.1*SLP$1015.7*VISIB$12.3*WDSP$17.9*PRCP$0.12*SNDP$0.0*FRSHTT$010000*CLDC$50.5*WNDDIR$118
STN$995930*DATE$2021-02-03*TIME$12:59:53*TEMP$2.4*DEWP$1.1*STP$1050.2*SLP$1037.6*VISIB$5.0*WDSP$5.4*PRCP$0.00*SNDP$0.0*FRSHTT$000000*CLDC$50.2*WNDDIR$170
STN$943510*DATE$2021-02-03*TIME$12:59:53*TEMP$22.5*DEWP$18.8*STP$978.0*SLP$1009.6*VISIB$50.2*WDSP$9.7*PRCP$0.33*SNDP$0.0*FRSHTT$010000*CLDC$50.4*WNDDIR$272
STN$283190*DATE$2021-02-03*TIME$12:59:53*TEMP$-13.6*DEWP$-16.3*STP$1011.1*SLP$1023.0*VISIB$27.1*WDSP$8.3*PRCP$0.03*SNDP$18.5*FRSHTT$111000*CLDC$50.3*WNDDIR$214
STN$38820*DATE$2021-02-03*TIME$12:59:53*TEMP$-0.2*DEWP$-3.7*STP$1009.8*SLP$1017.1*VISIB$11.6*WDSP$11.6*PRCP$0.08*SNDP$0.0*FRSHTT$110000*CLDC$52.1*WNDDIR$304
STN$163500*DATE$2021-02-03*TIME$12:59:53*TEMP$1.8*DEWP$-3.6*STP$1006.9*SLP$1013.5*VISIB$9.9*WDSP$13.7*PRCP$0.03*SNDP$0.0*FRSHTT$010000*CLDC$57.4*WNDDIR$298
STN$837750*DATE$2021-02-03*TIME$12:59:53*TEMP$18.6*DEWP$15.3*STP$995.6*SLP$1007.2*VISIB$9.8*WDSP$9.8*PRCP$0.00*SNDP$0.0*FRSHTT$000000*CLDC$90.0*WNDDIR$209
STN$467340*DATE$2021-02-03*TIME$12:59:53*TEMP$15.4*DEWP$11.9*STP$1013.6*SLP$1019.1*VISIB$9.8*WDSP$24.1*PRCP$0.00*SNDP$0.0*FRSHTT$000000*CLDC$18.8*WNDDIR$152
STN$873200*DATE$2021-02-03*TIME$12:59:53*TEMP$17.7*DEWP$13.9*STP$990.3*SLP$1014.0*VISIB$28.7*WDSP$13.1*PRCP$0.00*SNDP$0.0*FRSHTT$000000*CLDC$67.1*WNDDIR$111
STN$100060*DATE$2021-02-03*TIME$12:59:53*TEMP$-1.5*DEWP$-3.6*STP$1003.7*SLP$1014.3*VISIB$10.8*WDSP$33.0*PRCP$0.00*SNDP$0.0*FRSHTT$100000*CLDC$34.9*WNDDIR$57
STN$612910*DATE$2021-02-03*TIME$12:59:53*TEMP$12.6*DEWP$-12.6*STP$994.2*SLP$1009.7*VISIB$9.6*WDSP$15.5*PRCP$0.00*SNDP$0.0*FRSHTT$000000*CLDC$25.8*WNDDIR$236
STN$644000*DATE$2021-02-03*TIME$12:59:53*TEMP$11.4*DEWP$8.9*STP$1007.6*SLP$1009.6*VISIB$10.4*WDSP$10.4*PRCP$0.08*SNDP$0.0*FRSHTT$010000*CLDC$89.8*WNDDIR$202
STN$100050*DATE$2021-02-03*TIME$12:59:53*TEMP$1.1*DEWP$-1.2*STP$1023.7*SLP$1006.2*VISIB$10.9*WDSP$32.2*PRCP$0.11*SNDP$0.0*FRSHTT$010000*CLDC$68.4*WNDDIR$320
STN$612900*DATE$2021-02-03*TIME$12:59:53*TEMP$5.9*DEWP$-17.8*STP$998.3*SLP$1006.9*VISIB$19.0*WDSP$10.0*PRCP$0.00*SNDP$0.0*FRSHTT$000000*CLDC$1.6*WNDDIR$351
STN$837753*DATE$2021-02-03*TIME$12:59:53*TEMP$15.9*DEWP$12.8*STP$997.2*SLP$1002.6*VISIB$8.6*WDSP$10.5*PRCP$0.00*SNDP$0.0*FRSHTT$000000*CLDC$24.8*WNDDIR$342
STN$724030*DATE$2021-02-03*TIME$12:59:53*TEMP$-4.0*DEWP$-8.7*STP$1009.0*SLP$1019.7*VISIB$18.9*WDSP$13.1*PRCP$0.22*SNDP$0.8*FRSHTT$111000*CLDC$50.4*WNDDIR$165
STN$322850*DATE$2021-02-03*TIME$12:59:53*TEMP$-24.0*DEWP$-26.3*STP$1006.6*SLP$1013.8*VISIB$31.7*WDSP$26.1*PRCP$0.00*SNDP$0.0*FRSHTT$100000*CLDC$7.8*WNDDIR$137
STN$984280*DATE$2021-02-03*TIME$12:59:53*TEMP$23.7*DEWP$19.7*STP$1013.0*SLP$1012.8*VISIB$14.7*WDSP$12.4*PRCP$0.00*SNDP$0.0*FRSHTT$000000*CLDC$81.5*WNDDIR$6
STN$833620*DATE$2021-02-03*TIME$12:59:53*TEMP$19.4*DEWP$16.4*STP$1005.8*SLP$1011.5*VISIB$13.9*WDSP$7.8*PRCP$0.09*SNDP$0.0*FRSHTT$010000*CLDC$50.1*WNDDIR$336
STN$287910*DATE$2021-02-03*TIME$12:59:53*TEMP$-10.5*DEWP$-14.2*STP$1034.4*SLP$1010.5*VISIB$39.7*WDSP$12.9*PRCP$0.02*SNDP$13.5*FRSHTT$111000*CLDC$57.3*WNDDIR$340
STN$678850*DATE$2021-02-03*TIME$12:59:53*TEMP$10.5*DEWP$5.4*STP$899.6*SLP$905.2*VISIB$42.7*WDSP$7.8*PRCP$0.17*SNDP$0.0*FRSHTT$010000*CLDC$50.7*WNDDIR$8
STN$150140*DATE$2021-02-03*TIME$12:59:53*TEMP$-3.2*DEWP$-4.0*STP$999.6*SLP$1003.5*VISIB$6.7*WDSP$6.0*PRCP$0.00*SNDP$0.8*FRSHTT$101000*CLDC$50.4*WNDDIR$225
STN$375530*DATE$2021-02-03*TIME$12:59:53*TEMP$1.0*DEWP$-5.0*STP$980.3*SLP$999.9*VISIB$20.2*WDSP$4.5*PRCP$0.06*SNDP$1.4*FRSHTT$011000*CLDC$51.0*WNDDIR$305
STN$410300*DATE$2021-02-03*TIME$12:59:53*TEMP$19.9*DEWP$10.2*STP$986.4*SLP$1013.6*VISIB$10.1*WDSP$5.1*PRCP$0.00*SNDP$0.0*FRSHTT$000000*CLDC$11.9*WNDDIR$45
STN$322870*DATE$2021-02-03*TIME$12:59:53*TEMP$-7.0*DEWP$-21.5*STP$1004.7*SLP$1004.8*VISIB$27.1*WDSP$17.8*PRCP$0.06*SNDP$12.2*FRSHTT$111000*CLDC$69.8*WNDDIR$121
STN$982320*DATE$2021-02-03*TIME$12:59:53*TEMP$23.6*DEWP$21.4*STP$1022.5*SLP$1013.3*VISIB$16.4*WDSP$9.2*PRCP$0.00*SNDP$0.0*FRSHTT$000000*CLDC$17.4*WNDDIR$11
STN$471750*DATE$2021-02-03*TIME$12:59:53*TEMP$-4.9*DEWP$-8.6*STP$965.9*SLP$1025.4*VISIB$16.1*WDSP$22.6*PRCP$0.02*SNDP$0.0*FRSHTT$110000*CLDC$50.0*WNDDIR$351
STN$488960*DATE$2021-02-03*TIME$12:59:53*TEMP$9.6*DEWP$2.1*STP$985.3*SLP$1013.6*VISIB$16.2*WDSP$5.0*PRCP$0.00*SNDP$0.0*FRSHTT$000000*CLDC$31.9*WNDDIR$237
STN$488962*DATE$2021-02-03*TIME$12:59:53*TEMP$11.2*DEWP$5.5*STP$1011.2*SLP$1015.2*VISIB$18.0*WDSP$5.9*PRCP$0.00*SNDP$0.0*FRSHTT$000000*CLDC$65.4*WNDDIR$297
STN$172190*DATE$2021-02-03*TIME$12:59:53*TEMP$0.2*DEWP$-5.1*STP$1017.1*SLP$1015.2*VISIB$10.1*WDSP$17.8*PRCP$0.31*SNDP$0.0*FRSHTT$010000*CLDC$98.2*WNDDIR$173
STN$578530*DATE$2021-02-03*TIME$12:59:53*TEMP$1.1*DEWP$-1.3*STP$1021.9*SLP$1025.5*VISIB$9.3*WDSP$4.8*PRCP$0.15*SNDP$0.0*FRSHTT$010000*CLDC$50.4*WNDDIR$329
STN$836890*DATE$2021-02-03*TIME$12:59:53*TEMP$15.9*DEWP$10.3*STP$988.0*SLP$1017.9*VISIB$19.1*WDSP$12.1*PRCP$0.00*SNDP$0.0*FRSHTT$000000*CLDC$54.3*WNDDIR$110
STN$66100*DATE$2021-02-03*TIME$12:59:53*TEMP$-0.6*DEWP$-2.7*STP$969.2*SLP$1022.0*VISIB$12.1*WDSP$8.3*PRCP$0.06*SNDP$0.1*FRSHTT$111000*CLDC$73.8*WNDDIR$270
STN$160760*DATE$2021-02-03*TIME$12:59:53*TEMP$-0.6*DEWP$-5.7*STP$994.1*SLP$1010.3*VISIB$4.0*WDSP$4.6*PRCP$0.01*SNDP$0.1*FRSHTT$111000*CLDC$99.1*WNDDIR$298
STN$470250*DATE$2021-02-03*TIME$12:59:53*TEMP$-7.4*DEWP$-13.8*STP$1016.7*SLP$1022.1*VISIB$13.4*WDSP$7.5*PRCP$0.21*SNDP$0.8*FRSHTT$111000*CLDC$96.8*WNDDIR$68
STN$489006*DATE$2021-02-03*TIME$12:59:53*TEMP$12.5*DEWP$5.4*STP$994.1*SLP$1011.6*VISIB$9.7*WDSP$4.1*PRCP$0.00*SNDP$0.0*FRSHTT$000000*CLDC$60.8*WNDDIR$309
STN$119160*DATE$2021-02-03*TIME$12:59:53*TEMP$-4.2*DEWP$-7.2*STP$900.5*SLP$899.7*VISIB$33.3*WDSP$41.2*PRCP$0.15*SNDP$30.1*FRSHTT$111000*CLDC$50.0*WNDDIR$305
STN$489005*DATE$2021-02-03*TIME$12:59:53*TEMP$14.2*DEWP$4.6*STP$1009.8*SLP$991.9*VISIB$9.7*WDSP$6.2*PRCP$0.00*SNDP$0.0*FRSHTT$000000*CLDC$19.4*WNDDIR$241
STN$264160*DATE$2021-02-03*TIME$12:59:53*TEMP$-3.9*DEWP$-4.8*STP$1018.9*SLP$1033.3*VISIB$34.3*WDSP$10.2*PRCP$0.00*SNDP$7.0*FRSHTT$101000*CLDC$50.4*WNDDIR$91
STN$103870*DATE$2021-02-03*TIME$12:59:53*TEMP$-8.8*DEWP$-10.0*STP$1016.7*SLP$1018.3*VISIB$1.1*WDSP$7.8*PRCP$0.05*SNDP$0.0*FRSHTT$110000*CLDC$50.0*WNDDIR$186
STN$489000*DATE$2021-02-03*TIME$12:59:53*TEMP$11.8*DEWP$4.6*STP$1010.9*SLP$1010.5*VISIB$11.2*WDSP$9.7*PRCP$0.00*SNDP$0.0*FRSHTT$000000*CLDC$0.5*WNDDIR$166
STN$749388*DATE$2021-02-03*TIME$12:59:53*TEMP$-1.7*DEWP$-8.9*STP$1021.3*SLP$1023.3*VISIB$10.7*WDSP$18.3*PRCP$0.00*SNDP$0.0*FRSHTT$100000*CLDC$38.3*WNDDIR$333
STN$718280*DATE$2021-02-03*TIME$12:59:53*TEMP$-23.7*DEWP$-29.3*STP$950.5*SLP$1014.3*VISIB$13.4*WDSP$17.5*PRCP$0.11*SNDP$17.5*FRSHTT$111000*CLDC$50.6*WNDDIR$63
STN$333010*DATE$2021-02-03*TIME$12:59:53*TEMP$-6.4*DEWP$-9.3*STP$1007.8*SLP$1020.9*VISIB$7.0*WDSP$17.5*PRCP$0.08*SNDP$2.8*FRSHTT$111000*CLDC$97.6*WNDDIR$262
STN$333011*DATE$2021-02-03*TIME$12:59:53*TEMP$0.6*DEWP$-6.0*STP$1009.1*SLP$1021.0*VISIB$10.4*WDSP$7.7*PRCP$0.00*SNDP$0.0*FRSHTT$000000*CLDC$11.9*WNDDIR$267
STN$474210*DATE$2021-02-03*TIME$12:59:53*TEMP$-4.8*DEWP$-9.9*STP$1008.3*SLP$1014.1*VISIB$16.3*WDSP$22.6*PRCP$0.16*SNDP$11.7*FRSHTT$111000*CLDC$50.5*WNDDIR$310
STN$841115*DATE$2021-02-03*TIME$12:59:53*TEMP$21.9*DEWP$15.6*STP$1025.4*SLP$1014.8*VISIB$11.4*WDSP$5.6*PRCP$0.00*SNDP$0.0*FRSHTT$000000*CLDC$23.6*WNDDIR$188
STN$810010*DATE$2021-02-03*TIME$12:59:53*TEMP$20.6*DEWP$16.7*STP$1004.9*SLP$1011.6*VISIB$52.5*WDSP$6.0*PRCP$0.00*SNDP$0.0*FRSHTT$000000*CLDC$39.9*WNDDIR$355
STN$872220*DATE$2021-02-03*TIME$12:59:53*TEMP$20.3*DEWP$11.4*STP$966.9*SLP$1004.7*VISIB$18.9*WDSP$22.8*PRCP$0.16*SNDP$0.0*FRSHTT$010000*CLDC$50.2*WNDDIR$176
STN$719690*DATE$2021-02-03*TIME$12:59:53*TEMP$-23.5*DEWP$-24.4*STP$1012.5*SLP$1014.4*VISIB$15.8*WDSP$23.9*PRCP$0.00*SNDP$8.7*FRSHTT$101000*CLDC$50.3*WNDDIR$111
STN$105260*DATE$2021-02-03*TIME$12:59:53*TEMP$-2.4*DEWP$-4.1*STP$977.2*SLP$1018.9*VISIB$15.7*WDSP$14.7*PRCP$0.18*SNDP$3.6*FRSHTT$111000*CLDC$50.1*WNDDIR$153
STN$260580*DATE$2021-02-03*TIME$12:59:53*TEMP$-7.8*DEWP$-10.3*STP$1012.9*SLP$1010.5*VISIB$14.1*WDSP$12.2*PRCP$0.02*SNDP$7.1*FRSHTT$111000*CLDC$50.2*WNDDIR$212
STN$489660*DATE$2021-02-03*TIME$12:59:53*TEMP$18.8*DEWP$13.6*STP$991.4*SLP$992.2*VISIB$10.0*WDSP$11.2*PRCP$0.00*SNDP$0.0*FRSHTT$000000*CLDC$99.7*WNDDIR$341
STN$745940*DATE$2021-02-03*TIME$12:59:53*TEMP$-2.5*DEWP$-8.1*STP$1012.8*SLP$1019.8*VISIB$11.4*WDSP$15.1*PRCP$0.15*SNDP$0.4*FRSHTT$111000*CLDC$72.6*WNDDIR$61
STN$745946*DATE$2021-02-03*TIME$12:59:53*TEMP$-1.1*DEWP$-7.3*STP$1014.9*SLP$1017.1*VISIB$15.1*WDSP$15.0*PRCP$0.11*SNDP$0.0*FRSHTT$110000*CLDC$70.9*WNDDIR$54
STN$959570*DATE$2021-02-03*TIME$12:59:53*TEMP$9.2*DEWP$1.6*STP$1019.7*SLP$1021.0*VISIB$50.0*WDSP$21.5*PRCP$0.00*SNDP$0.0*FRSHTT$000000*CLDC$51.0*WNDDIR$226
STN$542660*DATE$2021-02-03*TIME$12:59:53*TEMP$-18.4*DEWP$-22.2*STP$1041.2*SLP$1025.5*VISIB$16.6*WDSP$13.4*PRCP$0.03*SNDP$0.0*FRSHTT$110000*CLDC$89.7*WNDDIR$237
STN$39730*DATE$2021-02-03*TIME$12:59:53*TEMP$1.5*DEWP$0.2*STP$986.1*SLP$1011.4*VISIB$16.4*WDSP$17.8*PRCP$0.34*SNDP$1.1*FRSHTT$011000*CLDC$50.1*WNDDIR$118
STN$785201*DATE$2021-02-03*TIME$12:59:53*TEMP$18.8*DEWP$13.1*STP$1000.4*SLP$1008.6*VISIB$92.4*WDSP$14.3*PRCP$0.00*SNDP$0.0*FRSHTT$000000*CLDC$30.8*WNDDIR$254
STN$330004*DATE$2021-02-03*TIME$12:59:53*TEMP$0.4*DEWP$-0.2*STP$1007.0*SLP$994.1*VISIB$8.3*WDSP$9.9*PRCP$0.00*SNDP$0.0*FRSHTT$000000*CLDC$59.7*WNDDIR$267
STN$330005*DATE$2021-02-03*TIME$12:59:53*TEMP$-0.3*DEWP$-3.8*STP$1013.8*SLP$1026.4*VISIB$6.3*WDSP$8.1*PRCP$0.00*SNDP$0.0*FRSHTT$100000*CLDC$15.1*WNDDIR$58
STN$785203*DATE$2021-02-03*TIME$12:59:53*TEMP$20.3*DEWP$14.1*STP$1003.9*SLP$1003.8*VISIB$20.9*WDSP$11.7*PRCP$0.00*SNDP$0.0*FRSHTT$000000*CLDC$3.6*WNDDIR$178
STN$330002*DATE$2021-02-03*TIME$12:59:53*TEMP$0.5*DEWP$-0.3*STP$1008.8*SLP$999.8*VISIB$3.2*WDSP$13.0*PRCP$0.00*SNDP$0.0*FRSHTT$000000*CLDC$74.0*WNDDIR$165
STN$268820*DATE$2021-02-03*TIME$12:59:53*TEMP$-8.0*DEWP$-13.2*STP$1009.6*SLP$1020.9*VISIB$15.1*WDSP$11.6*PRCP$0.03*SNDP$4.1*FRSHTT$111000*CLDC$50.0*WNDDIR$57
STN$330003*DATE$2021-02-03*TIME$12:59:53*TEMP$0.4*DEWP$-0.4*STP$1014.4*SLP$1037.4*VISIB$6.8*WDSP$11.2*PRCP$0.00*SNDP$0.0*FRSHTT$000000*CLDC$11.2*WNDDIR$356
STN$22320*DATE$2021-02-03*TIME$12:59:53*TEMP$-9.7*DEWP$-11.1*STP$993.7*SLP$1008.8*VISIB$39.6*WDSP$10.4*PRCP$0.03*SNDP$28.8*FRSHTT$111000*CLDC$50.5*WNDDIR$322
STN$39530*DATE$2021-02-03*TIME$12:59:53*TEMP$3.5*DEWP$0.7*STP$1008.3*SLP$1012.6*VISIB$18.7*WDSP$25.1*PRCP$0.30*SNDP$0.0*FRSHTT$010000*CLDC$50.7*WNDDIR$336
STN$542360*DATE$2021-02-03*TIME$12:59:53*TEMP$-15.3*DEWP$-24.5*STP$1024.5*SLP$1026.7*VISIB$19.4*WDSP$11.9*PRCP$0.06*SNDP$0.0*FRSHTT$110000*CLDC$50.3*WNDDIR$206
STN$577310*DATE$2021-02-03*TIME$12:59:53*TEMP$1.0*DEWP$-2.0*STP$1019.2*SLP$1023.9*VISIB$13.3*WDSP$3.4*PRCP$0.02*SNDP$0.0*FRSHTT$010000*CLDC$50.5*WNDDIR$64
STN$317050*DATE$2021-02-03*TIME$12:59:53*TEMP$-16.7*DEWP$-26.1*STP$992.3*SLP$1018.5*VISIB$50.8*WDSP$11.2*PRCP$0.00*SNDP$6.4*FRSHTT$101000*CLDC$52.2*WNDDIR$3
STN$39520*DATE$2021-02-03*TIME$12:59:53*TEMP$3.8*DEWP$0.9*STP$1007.5*SLP$1011.3*VISIB$15.4*WDSP$24.2*PRCP$0.19*SNDP$0.0*FRSHTT$010000*CLDC$89.8*WNDDIR$285
STN$875850*DATE$2021-02-03*TIME$12:59:53*TEMP$14.4*DEWP$9.6*STP$1006.8*SLP$1009.7*VISIB$9.0*WDSP$7.2*PRCP$1.09*SNDP$0.0*FRSHTT$010000*CLDC$50.5*WNDDIR$244
STN$470580*DATE$2021-02-03*TIME$12:59:53*TEMP$-10.3*DEWP$-17.2*STP$1023.3*SLP$1025.0*VISIB$11.9*WDSP$6.3*PRCP$0.02*SNDP$0.2*FRSHTT$111000*CLDC$50.0*WNDDIR$340
STN$22310*DATE$2021-02-03*TIME$12:59:53*TEMP$-3.1*DEWP$-5.0*STP$976.7*SLP$1000.9*VISIB$29.0*WDSP$6.4*PRCP$0.00*SNDP$0.0*FRSHTT$100000*CLDC$63.9*WNDDIR$282
STN$408790*DATE$2021-02-03*TIME$12:59:53*TEMP$25.8*DEWP$16.1*STP$949.3*SLP$1016.1*VISIB$10.8*WDSP$8.5*PRCP$0.00*SNDP$0.0*FRSHTT$000000*CLDC$82.2*WNDDIR$159
STN$521120*DATE$2021-02-03*TIME$12:59:53*TEMP$-8.9*DEWP$-18.0*STP$1034.1*SLP$1034.0*VISIB$26.0*WDSP$7.1*PRCP$0.00*SNDP$0.0*FRSHTT$100000*CLDC$45.9*WNDDIR$46
STN$313000*DATE$2021-02-03*TIME$12:59:53*TEMP$-26.6*DEWP$-33.0*STP$1029.8*SLP$1025.4*VISIB$34.1*WDSP$7.7*PRCP$0.01*SNDP$1.6*FRSHTT$111000*CLDC$50.3*WNDDIR$249
STN$282400*DATE$2021-02-03*TIME$12:59:53*TEMP$-11.5*DEWP$-13.5*STP$1024.0*SLP$1023.4*VISIB$18.9*WDSP$9.1*PRCP$0.02*SNDP$2.0*FRSHTT$111000*CLDC$50.2*WNDDIR$260
STN$156150*DATE$2021-02-03*TIME$12:59:53*TEMP$-5.1*DEWP$-9.0*STP$817.3*SLP$818.5*VISIB$26.8*WDSP$32.4*PRCP$0.11*SNDP$0.0*FRSHTT$110000*CLDC$74.1*WNDDIR$112
STN$719300*DATE$2021-02-03*TIME$12:59:53*TEMP$-11.3*DEWP$-15.9*STP$925.5*SLP$1021.1*VISIB$22.3*WDSP$7.1*PRCP$0.02*SNDP$12.6*FRSHTT$111000*CLDC$50.3*WNDDIR$189
STN$719320*DATE$2021-02-03*TIME$12:59:53*TEMP$-10.5*DEWP$-14.3*STP$972.9*SLP$1020.5*VISIB$20.5*WDSP$9.3*PRCP$0.02*SNDP$11.0*FRSHTT$111000*CLDC$68.3*WNDDIR$263
STN$590230*DATE$2021-02-03*TIME$12:59:53*TEMP$5.9*DEWP$-0.8*STP$1004.8*SLP$1021.3*VISIB$13.2*WDSP$5.9*PRCP$0.07*SNDP$0.0*FRSHTT$010000*CLDC$94.9*WNDDIR$52
STN$404980*DATE$2021-02-03*TIME$12:59:53*TEMP$9.7*DEWP$-2.0*STP$1010.7*SLP$971.4*VISIB$10.4*WDSP$8.0*PRCP$0.00*SNDP$1.1*FRSHTT$001000*CLDC$64.5*WNDDIR$208
STN$156140*DATE$2021-02-03*TIME$12:59:53*TEMP$-2.6*DEWP$-6.1*STP$966.1*SLP$1021.7*VISIB$6.1*WDSP$10.8*PRCP$0.05*SNDP$2.3*FRSHTT$111000*CLDC$50.2*WNDDIR$37
STN$156130*DATE$2021-02-03*TIME$12:59:53*TEMP$-3.7*DEWP$-9.7*STP$767.3*SLP$768.1*VISIB$29.7*WDSP$34.3*PRCP$0.07*SNDP$49.2*FRSHTT$111000*CLDC$50.6*WNDDIR$83
STN$723400*DATE$2021-02-03*TIME$12:59:53*TEMP$2.9*DEWP$-4.3*STP$1010.3*SLP$1020.0*VISIB$17.2*WDSP$11.4*PRCP$0.00*SNDP$0.0*FRSHTT$000000*CLDC$93.1*WNDDIR$83
STN$834970*DATE$2021-02-03*TIME$12:59:53*TEMP$18.7*DEWP$15.5*STP$1011.1*SLP$1012.1*VISIB$16.9*WDSP$11.5*PRCP$0.27*SNDP$0.0*FRSHTT$010000*CLDC$60.1*WNDDIR$61
STN$723403*DATE$2021-02-03*TIME$12:59:53*TEMP$1.4*DEWP$-5.5*STP$1017.9*SLP$1022.3*VISIB$12.9*WDSP$12.0*PRCP$0.08*SNDP$0.0*FRSHTT$010000*CLDC$68.6*WNDDIR$191
STN$477760*DATE$2021-02-03*TIME$12:59:53*TEMP$2.6*DEWP$1.1*STP$1001.8*SLP$1015.5*VISIB$13.2*WDSP$9.9*PRCP$0.51*SNDP$0.0*FRSHTT$010000*CLDC$66.7*WNDDIR$86
STN$30610*DATE$2021-02-03*TIME$12:59:53*TEMP$1.7*DEWP$-0.8*STP$1006.3*SLP$1009.4*VISIB$28.4*WDSP$17.4*PRCP$0.00*SNDP$0.0*FRSHTT$000000*CLDC$66.3*WNDDIR$104
STN$727020*DATE$2021-02-03*TIME$12:59:53*TEMP$-20.5*DEWP$-24.9*STP$1005.5*SLP$1007.5*VISIB$19.5*WDSP$43.8*PRCP$0.05*SNDP$0.0*FRSHTT$110000*CLDC$67.7*WNDDIR$258
STN$477770*DATE$2021-02-03*TIME$12:59:53*TEMP$1.6*DEWP$-4.9*STP$1020.1*SLP$1022.1*VISIB$16.7*WDSP$12.5*PRCP$0.06*SNDP$0.0*FRSHTT$010000*CLDC$50.3*WNDDIR$249
STN$30620*DATE$2021-02-03*TIME$12:59:53*TEMP$0.5*DEWP$-2.0*STP$1008.8*SLP$998.2*VISIB$28.6*WDSP$23.9*PRCP$0.16*SNDP$0.0*FRSHTT$010000*CLDC$88.1*WNDDIR$152
STN$508880*DATE$2021-02-03*TIME$12:59:53*TEMP$-21.4*DEWP$-27.5*STP$1024.4*SLP$1021.5*VISIB$23.2*WDSP$14.1*PRCP$0.01*SNDP$0.0*FRSHTT$110000*CLDC$61.8*WNDDIR$258
STN$355420*DATE$2021-02-03*TIME$12:59:53*TEMP$-12.1*DEWP$-15.3*STP$1030.7*SLP$1027.6*VISIB$9.6*WDSP$14.9*PRCP$0.01*SNDP$2.3*FRSHTT$111000*CLDC$87.5*WNDDIR$232
STN$723816*DATE$2021-02-03*TIME$12:59:53*TEMP$-0.1*DEWP$-7.4*STP$1004.3*SLP$1017.4*VISIB$40.2*WDSP$11.7*PRCP$0.12*SNDP$0.2*FRSHTT$111000*CLDC$50.3*WNDDIR$41
STN$480960*DATE$2021-02-03*TIME$12:59:53*TEMP$18.0*DEWP$10.0*STP$1005.0*SLP$1012.5*VISIB$7.5*WDSP$10.9*PRCP$0.00*SNDP$0.0*FRSHTT$000000*CLDC$88.0*WNDDIR$83
STN$540260*DATE$2021-02-03*TIME$12:59:53*TEMP$-14.6*DEWP$-26.9*STP$1015.6*SLP$1026.3*VISIB$25.3*WDSP$10.2*PRCP$0.00*SNDP$0.0*FRSHTT$100000*CLDC$33.5*WNDDIR$1
STN$306830*DATE$2021-02-03*TIME$12:59:53*TEMP$-25.7*DEWP$-27.4*STP$1004.5*SLP$1012.8*VISIB$45.5*WDSP$0.5*PRCP$0.00*SNDP$10.3*FRSHTT$101000*CLDC$50.4*WNDDIR$116
STN$723820*DATE$2021-02-03*TIME$12:59:53*TEMP$0.0*DEWP$-9.7*STP$1016.4*SLP$1015.3*VISIB$29.0*WDSP$13.5*PRCP$0.06*SNDP$0.0*FRSHTT$110000*CLDC$54.5*WNDDIR$321
STN$876920*DATE$2021-02-03*TIME$12:59:53*TEMP$12.4*DEWP$7.1*STP$1012.7*SLP$1012.7*VISIB$11.1*WDSP$16.8*PRCP$0.00*SNDP$0.0*FRSHTT$000000*CLDC$97.6*WNDDIR$101
STN$723810*DATE$2021-02-03*TIME$12:59:53*TEMP$0.0*DEWP$-10.4*STP$974.1*SLP$1018.9*VISIB$58.8*WDSP$8.9*PRCP$0.02*SNDP$0.0*FRSHTT$010000*CLDC$50.2*WNDDIR$42
STN$480970*DATE$2021-02-03*TIME$12:59:53*TEMP$16.1*DEWP$8.8*STP$1008.9*SLP$1013.3*VISIB$5.8*WDSP$6.1*PRCP$0.00*SNDP$0.0*FRSHTT$000000*CLDC$26.1*WNDDIR$198
STN$661600*DATE$2021-02-03*TIME$12:59:53*TEMP$10.7*DEWP$8.2*STP$1025.9*SLP$1010.6*VISIB$26.0*WDSP$16.8*PRCP$0.00*SNDP$0.0*FRSHTT$000000*CLDC$10.4*WNDDIR$121
STN$150800*DATE$2021-02-03*TIME$12:59:53*TEMP$-2.7*DEWP$-4.0*STP$1013.7*SLP$1016.3*VISIB$7.9*WDSP$10.1*PRCP$0.05*SNDP$0.6*FRSHTT$111000*CLDC$68.5*WNDDIR$131
STN$718080*DATE$2021-02-03*TIME$12:59:53*TEMP$-15.2*DEWP$-17.5*STP$1007.1*SLP$1009.6*VISIB$16.0*WDSP$18.1*PRCP$0.21*SNDP$10.0*FRSHTT$111000*CLDC$70.3*WNDDIR$243
STN$348380*DATE$2021-02-03*TIME$12:59:53*TEMP$-2.5*DEWP$-5.5*STP$1017.0*SLP$1021.0*VISIB$14.7*WDSP$13.0*PRCP$0.02*SNDP$2.7*FRSHTT$111000*CLDC$50.0*WNDDIR$346
STN$471571*DATE$2021-02-03*TIME$12:59:53*TEMP$-0.1*DEWP$-8.1*STP$1018.2*SLP$1011.3*VISIB$12.1*WDSP$6.9*PRCP$0.00*SNDP$0.0*FRSHTT$100000*CLDC$81.4*WNDDIR$18
STN$298650*DATE$2021-02-03*TIME$12:59:53*TEMP$-14.6*DEWP$-19.2*STP$1024.0*SLP$1030.8*VISIB$20.4*WDSP$11.9*PRCP$0.03*SNDP$0.6*FRSHTT$111000*CLDC$50.6*WNDDIR$290
STN$489170*DATE$2021-02-03*TIME$12:59:53*TEMP$12.4*DEWP$7.3*STP$1012.7*SLP$1012.2*VISIB$20.0*WDSP$7.5*PRCP$0.00*SNDP$0.0*FRSHTT$000000*CLDC$17.8*WNDDIR$303
STN$547510*DATE$2021-02-03*TIME$12:59:53*TEMP$-2.8*DEWP$-9.7*STP$1022.0*SLP$1026.7*VISIB$16.6*WDSP$22.3*PRCP$0.01*SNDP$0.0*FRSHTT$110000*CLDC$71.1*WNDDIR$76
STN$172100*DATE$2021-02-03*TIME$12:59:53*TEMP$1.3*DEWP$-0.4*STP$901.0*SLP$1004.9*VISIB$12.4*WDSP$1.0*PRCP$0.97*SNDP$0.0*FRSHTT$010000*CLDC$50.7*WNDDIR$317
STN$298640*DATE$2021-02-03*TIME$12:59:53*TEMP$-8.4*DEWP$-13.1*STP$1015.9*SLP$1032.9*VISIB$44.8*WDSP$10.1*PRCP$0.00*SNDP$1.1*FRSHTT$101000*CLDC$50.3*WNDDIR$132
STN$964910*DATE$2021-02-03*TIME$12:59:53*TEMP$7.5*DEWP$20.9*STP$1011.1*SLP$1010.7*VISIB$20.6*WDSP$13.6*PRCP$0.30*SNDP$0.0*FRSHTT$010000*CLDC$50.4*WNDDIR$294
STN$718134*DATE$2021-02-03*TIME$12:59:53*TEMP$-17.9*DEWP$-22.9*STP$1017.4*SLP$1015.6*VISIB$22.0*WDSP$15.6*PRCP$0.00*SNDP$0.0*FRSHTT$100000*CLDC$8.0*WNDDIR$44
STN$560180*DATE$2021-02-03*TIME$12:59:53*TEMP$-8.3*DEWP$-20.3*STP$626.5*SLP$629.3*VISIB$26.1*WDSP$10.9*PRCP$0.01*SNDP$0.0*FRSHTT$110000*CLDC$50.4*WNDDIR$172
STN$269510*DATE$2021-02-03*TIME$12:59:53*TEMP$-8.5*DEWP$-11.6*STP$1005.5*SLP$1017.9*VISIB$8.0*WDSP$15.4*PRCP$0.04*SNDP$2.9*FRSHTT$111000*CLDC$50.1*WNDDIR$275
STN$161490*DATE$2021-02-03*TIME$12:59:53*TEMP$0.0*DEWP$-2.9*STP$1012.7*SLP$1013.3*VISIB$5.2*WDSP$7.5*PRCP$0.03*SNDP$0.0*FRSHTT$010000*CLDC$50.3*WNDDIR$69
STN$789880*DATE$2021-02-03*TIME$12:59:53*TEMP$22.2*DEWP$19.0*STP$1013.1*SLP$1013.6*VISIB$31.0*WDSP$23.7*PRCP$0.03*SNDP$0.0*FRSHTT$010000*CLDC$50.4*WNDDIR$242
STN$946100*DATE$2021-02-03*TIME$12:59:53*TEMP$14.0*DEWP$1.7*STP$1010.5*SLP$1007.4*VISIB$27.8*WDSP$18.3*PRCP$0.02*SNDP$0.0*FRSHTT$010000*CLDC$50.2*WNDDIR$127
STN$595620*DATE$2021-02-03*TIME$12:59:53*TEMP$17.5*DEWP$11.7*STP$1020.1*SLP$1019.2*VISIB$19.5*WDSP$8.6*PRCP$0.04*SNDP$0.0*FRSHTT$010000*CLDC$56.4*WNDDIR$75
STN$20690*DATE$2021-02-03*TIME$12:59:53*TEMP$-10.4*DEWP$-12.1*STP$996.2*SLP$1018.7*VISIB$34.8*WDSP$14.4*PRCP$0.00*SNDP$12.5*FRSHTT$101000*CLDC$50.2*WNDDIR$274
STN$560340*DATE$2021-02-03*TIME$12:59:53*TEMP$-6.0*DEWP$-14.0*STP$600.9*SLP$603.9*VISIB$21.6*WDSP$15.6*PRCP$0.01*SNDP$0.0*FRSHTT$110000*CLDC$79.0*WNDDIR$212
STN$610960*DATE$2021-02-03*TIME$12:59:53*TEMP$9.5*DEWP$-13.8*STP$978.8*SLP$1017.5*VISIB$4.6*WDSP$11.6*PRCP$0.00*SNDP$0.0*FRSHTT$000000*CLDC$2.3*WNDDIR$210
STN$789900*DATE$2021-02-03*TIME$12:59:53*TEMP$23.0*DEWP$19.1*STP$1012.5*SLP$1013.3*VISIB$17.2*WDSP$26.8*PRCP$0.01*SNDP$0.0*FRSHTT$010000*CLDC$60.1*WNDDIR$109
STN$766850*DATE$2021-02-03*TIME$12:59:53*TEMP$6.3*DEWP$-5.2*STP$786.3*SLP$1010.5*VISIB$13.8*WDSP$12.2*PRCP$0.03*SNDP$0.0*FRSHTT$010000*CLDC$92.7*WNDDIR$232
STN$943390*DATE$2021-02-03*TIME$12:59:53*TEMP$23.2*DEWP$12.7*STP$987.6*SLP$1008.1*VISIB$49.4*WDSP$7.3*PRCP$0.12*SNDP$0.0*FRSHTT$010000*CLDC$90.2*WNDDIR$81
STN$23160*DATE$2021-02-03*TIME$12:59:53*TEMP$-8.8*DEWP$-12.4*STP$947.9*SLP$1001.4*VISIB$19.9*WDSP$6.7*PRCP$0.00*SNDP$21.6*FRSHTT$101000*CLDC$50.3*WNDDIR$220
STN$766870*DATE$2021-02-03*TIME$12:59:53*TEMP$9.2*DEWP$5.9*STP$867.9*SLP$1015.9*VISIB$18.9*WDSP$2.6*PRCP$0.00*SNDP$0.0*FRSHTT$000000*CLDC$85.7*WNDDIR$262
STN$84330*DATE$2021-02-03*TIME$12:59:53*TEMP$2.4*DEWP$-1.9*STP$1021.1*SLP$1021.5*VISIB$12.7*WDSP$12.3*PRCP$0.03*SNDP$0.0*FRSHTT$010000*CLDC$50.0*WNDDIR$303
STN$303090*DATE$2021-02-03*TIME$12:59:53*TEMP$-12.5*DEWP$-15.5*STP$1006.6*SLP$1018.6*VISIB$7.1*WDSP$8.1*PRCP$0.00*SNDP$0.0*FRSHTT$100000*CLDC$86.2*WNDDIR$68
STN$528360*DATE$2021-02-03*TIME$12:59:53*TEMP$-2.7*DEWP$-17.2*STP$686.7*SLP$687.8*VISIB$30.2*WDSP$8.1*PRCP$0.00*SNDP$0.0*FRSHTT$100000*CLDC$91.7*WNDDIR$292
STN$405640*DATE$2021-02-03*TIME$12:59:53*TEMP$12.6*DEWP$3.8*STP$1029.0*SLP$1019.2*VISIB$42.9*WDSP$20.6*PRCP$0.00*SNDP$0.0*FRSHTT$000000*CLDC$0.1*WNDDIR$250
STN$255510*DATE$2021-02-03*TIME$12:59:53*TEMP$-30.3*DEWP$-31.5*STP$1020.6*SLP$1021.2*VISIB$24.1*WDSP$7.8*PRCP$0.01*SNDP$16.4*FRSHTT$111000*CLDC$60.2*WNDDIR$54
STN$283210*DATE$2021-02-03*TIME$12:59:53*TEMP$-11.7*DEWP$-13.2*STP$1015.4*SLP$1017.2*VISIB$20.4*WDSP$10.2*PRCP$0.21*SNDP$8.4*FRSHTT$111000*CLDC$66.5*WNDDIR$134
STN$479290*DATE$2021-02-03*TIME$12:59:53*TEMP$12.4*DEWP$7.1*STP$1013.3*SLP$1012.4*VISIB$15.3*WDSP$18.7*PRCP$0.19*SNDP$0.0*FRSHTT$010000*CLDC$50.2*WNDDIR$160
STN$724371*DATE$2021-02-03*TIME$12:59:53*TEMP$-2.0*DEWP$-5.3*STP$992.2*SLP$1020.1*VISIB$13.5*WDSP$13.8*PRCP$0.00*SNDP$0.0*FRSHTT$100000*CLDC$75.1*WNDDIR$80
STN$724373*DATE$2021-02-03*TIME$12:59:53*TEMP$-5.3*DEWP$-9.1*STP$1012.4*SLP$1010.8*VISIB$14.9*WDSP$17.0*PRCP$0.08*SNDP$0.0*FRSHTT$110000*CLDC$50.1*WNDDIR$346
STN$724375*DATE$2021-02-03*TIME$12:59:53*TEMP$-4.4*DEWP$-9.1*STP$1017.2*SLP$1018.2*VISIB$11.3*WDSP$12.4*PRCP$0.19*SNDP$0.0*FRSHTT$110000*CLDC$50.6*WNDDIR$240
STN$724361*DATE$2021-02-03*TIME$12:59:53*TEMP$-5.6*DEWP$-10.4*STP$996.8*SLP$*VISIB$13.9*WDSP$13.9*PRCP$0.00*SNDP$0.0*FRSHTT$100000*CLDC$66.4*WNDDIR$327
STN$895710*DATE$2021-02-03*TIME$12:59:53*TEMP$-0.7*DEWP$-7.7*STP$990.6*SLP$992.9*VISIB$30.7*WDSP$18.2*PRCP$0.00*SNDP$0.0*FRSHTT$100000*CLDC$6.8*WNDDIR$216
STN$984400*DATE$2021-02-03*TIME$12:59:53*TEMP$24.2*DEWP$21.9*STP$1014.4*SLP$1014.3*VISIB$20.9*WDSP$16.8*PRCP$0.10*SNDP$0.0*FRSHTT$010000*CLDC$50.2*WNDDIR$261
STN$663180*DATE$2021-02-03*TIME$12:59:53*TEMP$9.8*DEWP$4.7*STP$1012.6*SLP$1017.9*VISIB$31.0*WDSP$7.5*PRCP$0.06*SNDP$0.0*FRSHTT$010000*CLDC$63.1*WNDDIR$154
STN$724365*DATE$2021-02-03*TIME$12:59:53*TEMP$-2.9*DEWP$-4.2*STP$994.3*SLP$999.9*VISIB$15.6*WDSP$14.8*PRCP$0.00*SNDP$0.0*FRSHTT$100000*CLDC$54.3*WNDDIR$247
STN$270830*DATE$2021-02-03*TIME$12:59:53*TEMP$-11.4*DEWP$-13.5*STP$1008.9*SLP$1015.7*VISIB$33.8*WDSP$9.4*PRCP$0.05*SNDP$9.7*FRSHTT$111000*CLDC$50.1*WNDDIR$216
STN$607450*DATE$2021-02-03*TIME$12:59:53*TEMP$1.6*DEWP$-4.8*STP$1004.7*SLP$1022.5*VISIB$10.6*WDSP$12.6*PRCP$0.00*SNDP$0.0*FRSHTT$000000*CLDC$92.8*WNDDIR$335
STN$718930*DATE$2021-02-03*TIME$12:59:53*TEMP$0.7*DEWP$-1.5*STP$1015.6*SLP$1018.3*VISIB$21.9*WDSP$12.3*PRCP$0.25*SNDP$0.3*FRSHTT$011000*CLDC$60.7*WNDDIR$158
STN$175400*DATE$2021-02-03*TIME$12:59:53*TEMP$3.0*DEWP$-4.3*STP$1027.0*SLP$1027.6*VISIB$10.6*WDSP$11.9*PRCP$0.00*SNDP$0.0*FRSHTT$000000*CLDC$81.8*WNDDIR$37
STN$35621*DATE$2021-02-03*TIME$12:59:53*TEMP$0.8*DEWP$-2.0*STP$999.5*SLP$1001.6*VISIB$7.2*WDSP$12.5*PRCP$0.07*SNDP$0.0*FRSHTT$010000*CLDC$92.5*WNDDIR$87
STN$718936*DATE$2021-02-03*TIME$12:59:53*TEMP$0.1*DEWP$-2.0*STP$1020.8*SLP$1017.7*VISIB$17.6*WDSP$7.2*PRCP$0.00*SNDP$0.0*FRSHTT$000000*CLDC$80.0*WNDDIR$172
STN$104480*DATE$2021-02-03*TIME$12:59:53*TEMP$-2.5*DEWP$-4.1*STP$1022.8*SLP$1014.2*VISIB$5.5*WDSP$17.0*PRCP$0.06*SNDP$0.0*FRSHTT$110000*CLDC$87.9*WNDDIR$70
STN$35623*DATE$2021-02-03*TIME$12:59:53*TEMP$1.3*DEWP$-1.5*STP$1004.8*SLP$1010.1*VISIB$7.9*WDSP$14.2*PRCP$0.02*SNDP$0.0*FRSHTT$010000*CLDC$50.2*WNDDIR$212
STN$70050*DATE$2021-02-03*TIME$12:59:53*TEMP$1.1*DEWP$-1.5*STP$1015.7*SLP$1018.2*VISIB$10.7*WDSP$20.0*PRCP$0.13*SNDP$0.0*FRSHTT$010000*CLDC$58.2*WNDDIR$218
STN$718940*DATE$2021-02-03*TIME$12:59:53*TEMP$3.3*DEWP$2.5*STP$1009.9*SLP$1010.9*VISIB$12.7*WDSP$25.4*PRCP$1.14*SNDP$0.0*FRSHTT$010000*CLDC$82.9*WNDDIR$300
STN$718915*DATE$2021-02-03*TIME$12:59:53*TEMP$0.1*DEWP$-2.9*STP$995.7*SLP$974.3*VISIB$15.3*WDSP$5.5*PRCP$0.00*SNDP$0.0*FRSHTT$000000*CLDC$92.3*WNDDIR$199
STN$403730*DATE$2021-02-03*TIME$12:59:53*TEMP$6.3*DEWP$-6.5*STP$993.2*SLP$1016.8*VISIB$8.8*WDSP$15.5*PRCP$0.00*SNDP$0.0*FRSHTT$000000*CLDC$12.2*WNDDIR$260
STN$350420*DATE$2021-02-03*TIME$12:59:53*TEMP$-14.1*DEWP$-17.2*STP$1011.6*SLP$1027.1*VISIB$16.9*WDSP$23.8*PRCP$0.01*SNDP$0.9*FRSHTT$111000*CLDC$50.4*WNDDIR$112
STN$266000*DATE$2021-02-03*TIME$12:59:53*TEMP$0.1*DEWP$-1.0*STP$1033.4*SLP$1007.3*VISIB$5.0*WDSP$24.8*PRCP$0.22*SNDP$0.0*FRSHTT$010000*CLDC$50.6*WNDDIR$70
STN$702960*DATE$2021-02-03*TIME$12:59:53*TEMP$-6.2*DEWP$-9.5*STP$1008.7*SLP$1007.1*VISIB$31.6*WDSP$11.1*PRCP$0.09*SNDP$2.2*FRSHTT$111000*CLDC$50.5*WNDDIR$136
STN$720202*DATE$2021-02-03*TIME$12:59:53*TEMP$0.3*DEWP$0.0*STP$993.2*SLP$970.7*VISIB$12.9*WDSP$4.6*PRCP$0.00*SNDP$0.0*FRSHTT$000000*CLDC$74.3*WNDDIR$284
STN$105780*DATE$2021-02-03*TIME$12:59:53*TEMP$-3.7*DEWP$-4.5*STP$982.7*SLP$975.0*VISIB$9.3*WDSP$35.1*PRCP$0.11*SNDP$4.0*FRSHTT$111000*CLDC$50.5*WNDDIR$190
STN$350370*DATE$2021-02-03*TIME$12:59:53*TEMP$-12.8*DEWP$-15.8*STP$1000.6*SLP$1026.4*VISIB$21.9*WDSP$15.0*PRCP$0.04*SNDP$8.2*FRSHTT$111000*CLDC$50.5*WNDDIR$11
STN$522030*DATE$2021-02-03*TIME$12:59:53*TEMP$-6.7*DEWP$-15.6*STP$989.3*SLP$1030.1*VISIB$35.5*WDSP$6.8*PRCP$0.00*SNDP$0.0*FRSHTT$100000*CLDC$11.6*WNDDIR$219
STN$105770*DATE$2021-02-03*TIME$12:59:53*TEMP$-2.5*DEWP$-5.1*STP$1018.0*SLP$1022.3*VISIB$5.4*WDSP$15.7*PRCP$0.07*SNDP$1.5*FRSHTT$111000*CLDC$71.2*WNDDIR$21
STN$949260*DATE$2021-02-03*TIME$12:59:53*TEMP$4.4*DEWP$7.8*STP$970.2*SLP$1017.2*VISIB$19.1*WDSP$13.4*PRCP$0.15*SNDP$0.0*FRSHTT$010000*CLDC$75.0*WNDDIR$47
STN$478050*DATE$2021-02-03*TIME$12:59:53*TEMP$4.6*DEWP$-3.4*STP$1016.6*SLP$1023.9*VISIB$22.7*WDSP$13.9*PRCP$0.07*SNDP$0.0*FRSHTT$010000*CLDC$66.2*WNDDIR$89
STN$654720*DATE$2021-02-03*TIME$12:59:53*TEMP$15.7*DEWP$5.6*STP$981.3*SLP$1012.1*VISIB$3.6*WDSP$7.3*PRCP$0.00*SNDP$0.0*FRSHTT$000000*CLDC$20.6*WNDDIR$134
STN$126000*DATE$2021-02-03*TIME$12:59:53*TEMP$-1.8*DEWP$-4.9*STP$1000.3*SLP$1021.9*VISIB$12.1*WDSP$13.7*PRCP$0.10*SNDP$7.3*FRSHTT$111000*CLDC$60.2*WNDDIR$96
STN$726720*DATE$2021-02-03*TIME$12:59:53*TEMP$-8.2*DEWP$-13.2*STP$1033.2*SLP$1004.9*VISIB$14.1*WDSP$9.1*PRCP$0.00*SNDP$0.0*FRSHTT$100000*CLDC$96.2*WNDDIR$218
STN$741895*DATE$2021-02-03*TIME$12:59:53*TEMP$-17.6*DEWP$-23.3*STP$995.1*SLP$999.0*VISIB$22.6*WDSP$29.8*PRCP$0.00*SNDP$0.0*FRSHTT$100000*CLDC$63.6*WNDDIR$109
STN$171400*DATE$2021-02-03*TIME$12:59:53*TEMP$-11.2*DEWP$-16.1*STP$878.6*SLP$883.2*VISIB$14.8*WDSP$3.7*PRCP$0.00*SNDP$8.7*FRSHTT$101000*CLDC$50.3*WNDDIR$158
STN$567860*DATE$2021-02-03*TIME$12:59:53*TEMP$3.1*DEWP$-3.7*STP$822.8*SLP$821.2*VISIB$19.3*WDSP$13.4*PRCP$0.02*SNDP$0.0*FRSHTT$010000*CLDC$50.1*WNDDIR$233
STN$742010*DATE$2021-02-03*TIME$12:59:53*TEMP$1.3*DEWP$-1.3*STP$1013.6*SLP$1014.6*VISIB$22.4*WDSP$7.2*PRCP$0.22*SNDP$0.0*FRSHTT$010000*CLDC$50.1*WNDDIR$316
STN$338387*DATE$2021-02-03*TIME$12:59:53*TEMP$-5.6*DEWP$-9.3*STP$997.7*SLP$1001.8*VISIB$5.6*WDSP$13.1*PRCP$0.00*SNDP$0.0*FRSHTT$100000*CLDC$75.8*WNDDIR$136
STN$108680*DATE$2021-02-03*TIME$12:59:53*TEMP$0.6*DEWP$-1.3*STP$1043.4*SLP$1019.8*VISIB$10.3*WDSP$15.2*PRCP$0.00*SNDP$0.0*FRSHTT$000000*CLDC$31.1*WNDDIR$172
STN$75910*DATE$2021-02-03*TIME$12:59:53*TEMP$-1.1*DEWP$-7.4*STP$928.8*SLP$926.6*VISIB$19.0*WDSP$10.0*PRCP$0.03*SNDP$3.7*FRSHTT$111000*CLDC$88.4*WNDDIR$113
STN$728890*DATE$2021-02-03*TIME$12:59:53*TEMP$-2.1*DEWP$-5.8*STP$982.1*SLP$1025.6*VISIB$22.7*WDSP$22.3*PRCP$0.00*SNDP$0.0*FRSHTT$100000*CLDC$71.8*WNDDIR$181
STN$292740*DATE$2021-02-03*TIME$12:59:53*TEMP$-6.9*DEWP$-9.6*STP$1031.8*SLP$1024.1*VISIB$31.9*WDSP$10.1*PRCP$0.03*SNDP$10.5*FRSHTT$111000*CLDC$50.3*WNDDIR$217
STN$728870*DATE$2021-02-03*TIME$12:59:53*TEMP$-1.1*DEWP$-6.1*STP$985.1*SLP$1029.3*VISIB$38.8*WDSP$20.8*PRCP$0.00*SNDP$0.0*FRSHTT$100000*CLDC$57.7*WNDDIR$193
STN$200340*DATE$2021-02-03*TIME$12:59:53*TEMP$-14.6*DEWP$-15.7*STP$1003.7*SLP$1005.5*VISIB$1.1*WDSP$54.7*PRCP$0.02*SNDP$14.6*FRSHTT$111000*CLDC$89.0*WNDDIR$62
STN$388360*DATE$2021-02-03*TIME$12:59:53*TEMP$6.2*DEWP$-0.5*STP$978.6*SLP$1025.9*VISIB$10.1*WDSP$5.7*PRCP$0.05*SNDP$0.3*FRSHTT$011000*CLDC$82.2*WNDDIR$340
STN$604450*DATE$2021-02-03*TIME$12:59:53*TEMP$0.6*DEWP$-4.6*STP$905.1*SLP$898.2*VISIB$9.4*WDSP$9.3*PRCP$0.00*SNDP$0.1*FRSHTT$001000*CLDC$50.5*WNDDIR$311
STN$106770*DATE$2021-02-03*TIME$12:59:53*TEMP$0.0*DEWP$-0.7*STP$1004.6*SLP$1017.1*VISIB$9.5*WDSP$16.6*PRCP$0.03*SNDP$0.0*FRSHTT$010000*CLDC$92.4*WNDDIR$266
STN$32620*DATE$2021-02-03*TIME$12:59:53*TEMP$2.3*DEWP$-0.7*STP$1013.9*SLP$1014.8*VISIB$16.5*WDSP$23.2*PRCP$0.04*SNDP$0.0*FRSHTT$010000*CLDC$95.0*WNDDIR$126
STN$704851*DATE$2021-02-03*TIME$12:59:53*TEMP$-2.1*DEWP$-3.3*STP$1009.7*SLP$1007.5*VISIB$24.5*WDSP$31.2*PRCP$0.00*SNDP$0.0*FRSHTT$100000*CLDC$55.1*WNDDIR$285
STN$724467*DATE$2021-02-03*TIME$12:59:53*TEMP$-5.9*DEWP$-11.2*STP$1006.2*SLP$1022.6*VISIB$16.8*WDSP$13.2*PRCP$0.02*SNDP$0.7*FRSHTT$111000*CLDC$50.3*WNDDIR$99
STN$724463*DATE$2021-02-03*TIME$12:59:53*TEMP$-2.7*DEWP$-9.0*STP$1014.8*SLP$1014.0*VISIB$13.5*WDSP$13.2*PRCP$0.01*SNDP$0.0*FRSHTT$110000*CLDC$50.2*WNDDIR$206
STN$357960*DATE$2021-02-03*TIME$12:59:53*TEMP$-10.6*DEWP$-13.4*STP$1011.9*SLP$1031.7*VISIB$28.6*WDSP$16.4*PRCP$0.02*SNDP$2.3*FRSHTT$111000*CLDC$62.2*WNDDIR$42
STN$479300*DATE$2021-02-03*TIME$12:59:53*TEMP$15.0*DEWP$8.6*STP$1006.1*SLP$1008.3*VISIB$13.9*WDSP$23.0*PRCP$0.00*SNDP$0.0*FRSHTT$000000*CLDC$10.8*WNDDIR$338
STN$724461*DATE$2021-02-03*TIME$12:59:53*TEMP$-5.3*DEWP$-11.2*STP$995.0*SLP$1014.1*VISIB$11.6*WDSP$15.9*PRCP$0.02*SNDP$1.1*FRSHTT$111000*CLDC$67.4*WNDDIR$75
STN$111570*DATE$2021-02-03*TIME$12:59:53*TEMP$-3.1*DEWP$-6.7*STP$945.7*SLP$1025.6*VISIB$21.9*WDSP$6.8*PRCP$0.07*SNDP$3.5*FRSHTT$111000*CLDC$65.2*WNDDIR$293
STN$724460*DATE$2021-02-03*TIME$12:59:53*TEMP$-7.6*DEWP$-13.0*STP$985.3*SLP$1023.0*VISIB$17.9*WDSP$17.1*PRCP$0.04*SNDP$1.7*FRSHTT$111000*CLDC$50.3*WNDDIR$342
STN$724458*DATE$2021-02-03*TIME$12:59:53*TEMP$-4.7*DEWP$-9.9*STP$1009.8*SLP$1011.9*VISIB$15.8*WDSP$14.0*PRCP$0.02*SNDP$0.0*FRSHTT$110000*CLDC$50.4*WNDDIR$311
STN$724457*DATE$2021-02-03*TIME$12:59:53*TEMP$-3.9*DEWP$-10.5*STP$1009.1*SLP$1023.0*VISIB$11.9*WDSP$13.9*PRCP$0.12*SNDP$1.2*FRSHTT$111000*CLDC$50.0*WNDDIR$339
STN$28050*DATE$2021-02-03*TIME$12:59:53*TEMP$-7.5*DEWP$-9.9*STP$1003.5*SLP$1002.0*VISIB$17.7*WDSP$8.0*PRCP$0.08*SNDP$26.5*FRSHTT$111000*CLDC$50.6*WNDDIR$167
STN$106190*DATE$2021-02-03*TIME$12:59:53*TEMP$1.5*DEWP$-1.5*STP$968.2*SLP$1019.9*VISIB$1.2*WDSP$13.6*PRCP$0.11*SNDP$0.0*FRSHTT$010000*CLDC$71.5*WNDDIR$286
STN$71490*DATE$2021-02-03*TIME$12:59:53*TEMP$1.0*DEWP$-1.3*STP$1011.5*SLP$1017.8*VISIB$8.9*WDSP$16.2*PRCP$0.05*SNDP$0.0*FRSHTT$010000*CLDC$89.9*WNDDIR$24
STN$685880*DATE$2021-02-03*TIME$12:59:53*TEMP$14.2*DEWP$9.5*STP$1015.6*SLP$1014.1*VISIB$14.4*WDSP$16.1*PRCP$0.21*SNDP$0.0*FRSHTT$010000*CLDC$66.1*WNDDIR$149
STN$729340*DATE$2021-02-03*TIME$12:59:53*TEMP$-10.9*DEWP$-12.0*STP$1007.3*SLP$1035.4*VISIB$17.5*WDSP$9.7*PRCP$0.05*SNDP$31.4*FRSHTT$111000*CLDC$90.5*WNDDIR$279
STN$106180*DATE$2021-02-03*TIME$12:59:53*TEMP$-1.3*DEWP$-3.8*STP$973.5*SLP$1020.0*VISIB$13.1*WDSP$13.6*PRCP$0.09*SNDP$0.3*FRSHTT$111000*CLDC$70.9*WNDDIR$245
STN$121350*DATE$2021-02-03*TIME$12:59:53*TEMP$-1.1*DEWP$-3.4*STP$1015.4*SLP$1017.0*VISIB$9.8*WDSP$18.1*PRCP$0.03*SNDP$2.5*FRSHTT$111000*CLDC$50.3*WNDDIR$142
STN$280640*DATE$2021-02-03*TIME$12:59:53*TEMP$-15.6*DEWP$-18.3*STP$1022.0*SLP$1019.5*VISIB$22.9*WDSP$10.1*PRCP$0.01*SNDP$0.0*FRSHTT$110000*CLDC$53.6*WNDDIR$145
STN$121360*DATE$2021-02-03*TIME$12:59:53*TEMP$-0.5*DEWP$-2.0*STP$1021.1*SLP$1029.9*VISIB$7.0*WDSP$7.4*PRCP$0.00*SNDP$0.0*FRSHTT$100000*CLDC$83.3*WNDDIR$147
STN$261148*DATE$2021-02-03*TIME$12:59:53*TEMP$-8.2*DEWP$-10.2*STP$998.1*SLP$1001.0*VISIB$6.4*WDSP$10.2*PRCP$0.00*SNDP$0.0*FRSHTT$100000*CLDC$7.2*WNDDIR$320
STN$703080*DATE$2021-02-03*TIME$12:59:53*TEMP$-5.8*DEWP$-8.1*STP$1001.7*SLP$1001.2*VISIB$9.4*WDSP$36.2*PRCP$0.04*SNDP$3.2*FRSHTT$111000*CLDC$80.0*WNDDIR$106
STN$142460*DATE$2021-02-03*TIME$12:59:53*TEMP$-1.4*DEWP$-4.2*STP$1000.4*SLP$1021.5*VISIB$13.9*WDSP$7.8*PRCP$0.10*SNDP$2.2*FRSHTT$111000*CLDC$56.0*WNDDIR$73
STN$946640*DATE$2021-02-03*TIME$12:59:53*TEMP$16.6*DEWP$8.4*STP$1011.4*SLP$1013.3*VISIB$50.4*WDSP$16.1*PRCP$0.00*SNDP$0.0*FRSHTT$000000*CLDC$74.8*WNDDIR$95
STN$72050*DATE$2021-02-03*TIME$12:59:53*TEMP$1.7*DEWP$-0.2*STP$1017.4*SLP$1018.3*VISIB$8.3*WDSP$18.2*PRCP$0.11*SNDP$0.0*FRSHTT$010000*CLDC$50.2*WNDDIR$263
STN$349540*DATE$2021-02-03*TIME$12:59:53*TEMP$0.9*DEWP$-1.6*STP$1000.3*SLP$1012.4*VISIB$19.3*WDSP$5.0*PRCP$0.00*SNDP$0.0*FRSHTT$000000*CLDC$30.1*WNDDIR$152
STN$384230*DATE$2021-02-03*TIME$12:59:53*TEMP$6.2*DEWP$3.0*STP$1007.6*SLP$1018.4*VISIB$18.5*WDSP$12.7*PRCP$0.00*SNDP$0.0*FRSHTT$000000*CLDC$97.3*WNDDIR$290
STN$488300*DATE$2021-02-03*TIME$12:59:53*TEMP$6.8*DEWP$4.9*STP$994.5*SLP$1026.4*VISIB$19.3*WDSP$14.0*PRCP$0.00*SNDP$0.0*FRSHTT$000000*CLDC$77.6*WNDDIR$25
STN$946650*DATE$2021-02-03*TIME$12:59:53*TEMP$18.4*DEWP$5.1*STP$991.8*SLP$1013.2*VISIB$31.1*WDSP$15.8*PRCP$0.02*SNDP$0.0*FRSHTT$010000*CLDC$84.8*WNDDIR$303
STN$33790*DATE$2021-02-03*TIME$12:59:53*TEMP$1.1*DEWP$-1.3*STP$1010.0*SLP$1014.6*VISIB$12.4*WDSP$22.9*PRCP$0.04*SNDP$0.0*FRSHTT$010000*CLDC$62.4*WNDDIR$144
STN$402600*DATE$2021-02-03*TIME$12:59:53*TEMP$3.6*DEWP$-0.8*STP$939.0*SLP$1017.9*VISIB$8.7*WDSP$23.8*PRCP$0.16*SNDP$0.0*FRSHTT$010000*CLDC$50.1*WNDDIR$9
STN$20130*DATE$2021-02-03*TIME$12:59:53*TEMP$-9.9*DEWP$-15.6*STP$961.3*SLP$1029.5*VISIB$21.5*WDSP$7.7*PRCP$0.12*SNDP$0.0*FRSHTT$110000*CLDC$73.7*WNDDIR$187
STN$875320*DATE$2021-02-03*TIME$12:59:53*TEMP$17.6*DEWP$4.6*STP$1006.0*SLP$1013.6*VISIB$20.2*WDSP$9.4*PRCP$0.00*SNDP$0.0*FRSHTT$000000*CLDC$71.0*WNDDIR$215
STN$20820*DATE$2021-02-03*TIME$12:59:53*TEMP$-3.3*DEWP$-4.4*STP$1002.2*SLP$1019.2*VISIB$9.8*WDSP$19.7*PRCP$0.00*SNDP$0.0*FRSHTT$100000*CLDC$43.0*WNDDIR$333
STN$144280*DATE$2021-02-03*TIME$12:59:53*TEMP$1.7*DEWP$-4.6*STP$1016.9*SLP$1018.0*VISIB$15.2*WDSP$14.4*PRCP$0.01*SNDP$0.0*FRSHTT$010000*CLDC$75.8*WNDDIR$327
STN$664100*DATE$2021-02-03*TIME$12:59:53*TEMP$12.7*DEWP$6.1*STP$1002.9*SLP$1008.4*VISIB$16.6*WDSP$6.6*PRCP$0.00*SNDP$0.0*FRSHTT$000000*CLDC$91.5*WNDDIR$5
STN$20830*DATE$2021-02-03*TIME$12:59:53*TEMP$-2.9*DEWP$-4.1*STP$1018.9*SLP$1018.4*VISIB$8.7*WDSP$24.2*PRCP$0.00*SNDP$0.0*FRSHTT$100000*CLDC$7.9*WNDDIR$352
STN$285060*DATE$2021-02-03*TIME$12:59:53*TEMP$-10.7*DEWP$-12.9*STP$1013.2*SLP$1020.9*VISIB$9.9*WDSP$19.3*PRCP$0.06*SNDP$4.9*FRSHTT$111000*CLDC$50.2*WNDDIR$26
STN$144270*DATE$2021-02-03*TIME$12:59:53*TEMP$2.8*DEWP$-0.7*STP$1033.8*SLP$1026.2*VISIB$32.7*WDSP$15.7*PRCP$0.00*SNDP$0.0*FRSHTT$000000*CLDC$10.4*WNDDIR$36
STN$102150*DATE$2021-02-03*TIME$12:59:53*TEMP$-0.1*DEWP$-2.9*STP$1005.9*SLP$1007.3*VISIB$9.7*WDSP$15.5*PRCP$0.02*SNDP$0.2*FRSHTT$111000*CLDC$85.0*WNDDIR$75
STN$20800*DATE$2021-02-03*TIME$12:59:53*TEMP$-6.1*DEWP$-7.5*STP$982.4*SLP$1009.4*VISIB$35.5*WDSP$9.3*PRCP$0.05*SNDP$17.3*FRSHTT$111000*CLDC$50.5*WNDDIR$299
STN$67200*DATE$2021-02-03*TIME$12:59:53*TEMP$-3.0*DEWP$-7.5*STP$978.8*SLP$1022.0*VISIB$10.9*WDSP$5.6*PRCP$0.09*SNDP$1.4*FRSHTT$111000*CLDC$84.6*WNDDIR$329
STN$722596*DATE$2021-02-03*TIME$12:59:53*TEMP$2.5*DEWP$-3.3*STP$1002.4*SLP$1009.4*VISIB$13.5*WDSP$16.9*PRCP$0.03*SNDP$0.1*FRSHTT$011000*CLDC$51.7*WNDDIR$76
STN$722599*DATE$2021-02-03*TIME$12:59:53*TEMP$3.9*DEWP$-1.6*STP$1013.3*SLP$1017.7*VISIB$15.1*WDSP$13.5*PRCP$0.02*SNDP$0.0*FRSHTT$010000*CLDC$50.0*WNDDIR$123
STN$722598*DATE$2021-02-03*TIME$12:59:53*TEMP$4.5*DEWP$-3.9*STP$1009.5*SLP$992.5*VISIB$19.9*WDSP$13.2*PRCP$0.00*SNDP$0.0*FRSHTT$000000*CLDC$1.3*WNDDIR$194
STN$722593*DATE$2021-02-03*TIME$12:59:53*TEMP$3.7*DEWP$-3.5*STP$997.1*SLP$988.4*VISIB$16.1*WDSP$11.1*PRCP$0.00*SNDP$0.0*FRSHTT$000000*CLDC$60.5*WNDDIR$303
STN$722595*DATE$2021-02-03*TIME$12:59:53*TEMP$2.2*DEWP$-5.1*STP$1006.8*SLP$1020.8*VISIB$17.9*WDSP$13.5*PRCP$0.08*SNDP$0.1*FRSHTT$011000*CLDC$59.9*WNDDIR$278
STN$722594*DATE$2021-02-03*TIME$12:59:53*TEMP$1.9*DEWP$-4.3*STP$1019.0*SLP$1017.9*VISIB$17.3*WDSP$11.7*PRCP$0.04*SNDP$0.0*FRSHTT$010000*CLDC$97.4*WNDDIR$67
STN$466890*DATE$2021-02-03*TIME$12:59:53*TEMP$7.1*DEWP$3.3*STP$1015.9*SLP$1022.0*VISIB$9.1*WDSP$24.4*PRCP$0.01*SNDP$0.0*FRSHTT$010000*CLDC$50.1*WNDDIR$212
STN$130140*DATE$2021-02-03*TIME$12:59:53*TEMP$-3.1*DEWP$-6.2*STP$1005.6*SLP$1018.3*VISIB$6.6*WDSP$2.8*PRCP$0.06*SNDP$3.2*FRSHTT$111000*CLDC$50.3*WNDDIR$349
STN$342470*DATE$2021-02-03*TIME$12:59:53*TEMP$-6.5*DEWP$-9.5*STP$1015.0*SLP$1021.3*VISIB$8.4*WDSP$11.1*PRCP$0.02*SNDP$2.8*FRSHTT$111000*CLDC$72.6*WNDDIR$346
STN$722515*DATE$2021-02-03*TIME$12:59:53*TEMP$11.0*DEWP$6.5*STP$1019.0*SLP$1019.9*VISIB$10.8*WDSP$16.9*PRCP$0.06*SNDP$0.0*FRSHTT$010000*CLDC$50.3*WNDDIR$212
STN$104750*DATE$2021-02-03*TIME$12:59:53*TEMP$0.4*DEWP$-2.3*STP$1047.6*SLP$1014.4*VISIB$7.0*WDSP$18.3*PRCP$0.03*SNDP$0.0*FRSHTT$010000*CLDC$50.1*WNDDIR$281
STN$122350*DATE$2021-02-03*TIME$12:59:53*TEMP$-2.4*DEWP$-3.8*STP$1012.5*SLP$1017.5*VISIB$7.4*WDSP$16.4*PRCP$0.04*SNDP$1.7*FRSHTT$111000*CLDC$50.1*WNDDIR$276
STN$995270*DATE$2021-02-03*TIME$12:59:53*TEMP$2.3*DEWP$-0.1*STP$1018.7*SLP$1006.9*VISIB$9.5*WDSP$62.6*PRCP$0.00*SNDP$0.0*FRSHTT$000000*CLDC$8.3*WNDDIR$92
STN$474740*DATE$2021-02-03*TIME$12:59:53*TEMP$-9.6*DEWP$-14.0*STP$981.3*SLP$974.2*VISIB$9.2*WDSP$9.3*PRCP$0.00*SNDP$0.0*FRSHTT$100000*CLDC$96.9*WNDDIR$119
STN$175150*DATE$2021-02-03*TIME$12:59:53*TEMP$-0.4*DEWP$-10.8*STP$1011.2*SLP$1029.5*VISIB$10.5*WDSP$2.4*PRCP$0.00*SNDP$0.0*FRSHTT$100000*CLDC$88.0*WNDDIR$302
STN$104740*DATE$2021-02-03*TIME$12:59:53*TEMP$-2.0*DEWP$-3.1*STP$1028.0*SLP$1023.2*VISIB$6.7*WDSP$11.9*PRCP$0.04*SNDP$0.0*FRSHTT$110000*CLDC$80.5*WNDDIR$263
STN$607700*DATE$2021-02-03*TIME$12:59:53*TEMP$5.9*DEWP$-0.2*STP$1000.7*SLP$1014.8*VISIB$22.8*WDSP$6.9*PRCP$0.00*SNDP$0.0*FRSHTT$000000*CLDC$14.7*WNDDIR$266
STN$719200*DATE$2021-02-03*TIME$12:59:53*TEMP$-10.5*DEWP$-13.8*STP$951.8*SLP$1014.6*VISIB$20.9*WDSP$14.3*PRCP$0.03*SNDP$22.7*FRSHTT$111000*CLDC$50.5*WNDDIR$40
STN$104730*DATE$2021-02-03*TIME$12:59:53*TEMP$-2.2*DEWP$-4.2*STP$997.4*SLP$1011.6*VISIB$2.0*WDSP$18.9*PRCP$0.00*SNDP$0.0*FRSHTT$100000*CLDC$53.1*WNDDIR$143
STN$295620*DATE$2021-02-03*TIME$12:59:53*TEMP$-16.0*DEWP$-19.5*STP$1030.5*SLP$1031.6*VISIB$27.3*WDSP$7.6*PRCP$0.06*SNDP$6.9*FRSHTT$111000*CLDC$50.1*WNDDIR$111
STN$722345*DATE$2021-02-03*TIME$12:59:53*TEMP$3.5*DEWP$-2.4*STP$1011.3*SLP$1021.6*VISIB$7.8*WDSP$5.3*PRCP$0.28*SNDP$0.0*FRSHTT$010000*CLDC$*WNDDIR$328
STN$722351*DATE$2021-02-03*TIME$12:59:53*TEMP$18.4*DEWP$15.2*STP$1015.4*SLP$992.0*VISIB$10.8*WDSP$22.5*PRCP$0.00*SNDP$0.0*FRSHTT$000000*CLDC$92.7*WNDDIR$178
STN$722350*DATE$2021-02-03*TIME$12:59:53*TEMP$3.1*DEWP$-0.8*STP$1008.9*SLP$1020.5*VISIB$14.7*WDSP$14.2*PRCP$0.09*SNDP$0.1*FRSHTT$011000*CLDC$50.1*WNDDIR$6
STN$26070*DATE$2021-02-03*TIME$12:59:53*TEMP$-1.4*DEWP$-3.5*STP$1011.8*SLP$1014.4*VISIB$13.0*WDSP$19.0*PRCP$0.08*SNDP$1.1*FRSHTT$111000*CLDC$51.3*WNDDIR$91
STN$722348*DATE$2021-02-03*TIME$12:59:53*TEMP$7.2*DEWP$3.7*STP$991.1*SLP$982.7*VISIB$11.0*WDSP$9.2*PRCP$0.00*SNDP$0.0*FRSHTT$000000*CLDC$84.8*WNDDIR$247
STN$132890*DATE$2021-02-03*TIME$12:59:53*TEMP$0.2*DEWP$-2.4*STP$987.7*SLP$978.4*VISIB$7.0*WDSP$18.6*PRCP$0.00*SNDP$17.3*FRSHTT$001000*CLDC$50.5*WNDDIR$103
STN$722338*DATE$2021-02-03*TIME$12:59:53*TEMP$15.3*DEWP$10.1*STP$1008.6*SLP$977.7*VISIB$12.3*WDSP$14.0*PRCP$0.00*SNDP$0.0*FRSHTT$000000*CLDC$85.4*WNDDIR$297
STN$616300*DATE$2021-02-03*TIME$12:59:53*TEMP$14.7*DEWP$-11.3*STP$1029.2*SLP$1012.7*VISIB$3.4*WDSP$10.4*PRCP$0.00*SNDP$0.0*FRSHTT$000000*CLDC$65.4*WNDDIR$37
STN$722343*DATE$2021-02-03*TIME$12:59:53*TEMP$-1.0*DEWP$-3.3*STP$1002.3*SLP$988.9*VISIB$11.0*WDSP$10.9*PRCP$0.00*SNDP$0.0*FRSHTT$100000*CLDC$47.7*WNDDIR$99
STN$722342*DATE$2021-02-03*TIME$12:59:53*TEMP$-25.5*DEWP$-30.4*STP$1022.8*SLP$1010.7*VISIB$15.7*WDSP$20.1*PRCP$0.00*SNDP$0.0*FRSHTT$100000*CLDC$54.5*WNDDIR$133
STN$143700*DATE$2021-02-03*TIME$12:59:53*TEMP$-2.0*DEWP$-5.9*STP$1009.0*SLP$1020.4*VISIB$9.9*WDSP$5.5*PRCP$0.03*SNDP$0.2*FRSHTT$111000*CLDC$51.6*WNDDIR$328
STN$330880*DATE$2021-02-03*TIME$12:59:53*TEMP$-8.2*DEWP$-10.4*STP$1002.0*SLP$1019.7*VISIB$8.2*WDSP$8.7*PRCP$0.12*SNDP$2.5*FRSHTT$111000*CLDC$50.2*WNDDIR$222
STN$101850*DATE$2021-02-03*TIME$12:59:53*TEMP$-2.2*DEWP$-4.1*STP$1023.7*SLP$1020.7*VISIB$6.9*WDSP$15.3*PRCP$0.04*SNDP$0.0*FRSHTT$110000*CLDC$83.8*WNDDIR$280
STN$486990*DATE$2021-02-03*TIME$12:59:53*TEMP$15.9*DEWP$14.2*STP$1007.2*SLP$978.4*VISIB$10.4*WDSP$11.4*PRCP$0.00*SNDP$0.0*FRSHTT$000000*CLDC$32.1*WNDDIR$12
STN$161180*DATE$2021-02-03*TIME$12:59:53*TEMP$-0.7*DEWP$-0.9*STP$988.0*SLP$1009.8*VISIB$1.5*WDSP$0.4*PRCP$0.00*SNDP$0.0*FRSHTT$100000*CLDC$16.0*WNDDIR$68
STN$716200*DATE$2021-02-03*TIME$12:59:53*TEMP$-8.3*DEWP$-12.6*STP$1008.7*SLP$1018.5*VISIB$18.2*WDSP$16.5*PRCP$0.09*SNDP$3.4*FRSHTT$111000*CLDC$58.7*WNDDIR$280
STN$486980*DATE$2021-02-03*TIME$12:59:53*TEMP$16.9*DEWP$15.0*STP$1010.5*SLP$1008.7*VISIB$10.7*WDSP$11.5*PRCP$0.24*SNDP$0.0*FRSHTT$010000*CLDC$50.3*WNDDIR$232
STN$101840*DATE$2021-02-03*TIME$12:59:53*TEMP$-0.1*DEWP$-2.3*STP$1002.7*SLP$1003.4*VISIB$27.2*WDSP$27.3*PRCP$0.05*SNDP$0.0*FRSHTT$110000*CLDC$50.2*WNDDIR$120
STN$890020*DATE$2021-02-03*TIME$12:59:53*TEMP$-10.0*DEWP$-13.4*STP$984.3*SLP$989.3*VISIB$29.8*WDSP$19.9*PRCP$0.00*SNDP$0.0*FRSHTT$100000*CLDC$42.3*WNDDIR$88
STN$285520*DATE$2021-02-03*TIME$12:59:53*TEMP$-11.7*DEWP$-15.2*STP$1020.0*SLP$1024.9*VISIB$12.0*WDSP$8.7*PRCP$0.06*SNDP$8.8*FRSHTT$111000*CLDC$50.1*WNDDIR$278
STN$285370*DATE$2021-02-03*TIME$12:59:53*TEMP$-3.8*DEWP$-16.3*STP$1002.2*SLP$1021.0*VISIB$14.5*WDSP$7.7*PRCP$0.02*SNDP$8.8*FRSHTT$111000*CLDC$57.3*WNDDIR$208
STN$610520*DATE$2021-02-03*TIME$12:59:53*TEMP$11.3*DEWP$-14.3*STP$1005.7*SLP$1011.1*VISIB$10.8*WDSP$16.3*PRCP$0.01*SNDP$0.0*FRSHTT$010000*CLDC$58.5*WNDDIR$193
STN$346550*DATE$2021-02-03*TIME$12:59:53*TEMP$-2.0*DEWP$-3.5*STP$1020.8*SLP$1022.8*VISIB$12.0*WDSP$15.4*PRCP$0.22*SNDP$0.8*FRSHTT$111000*CLDC$74.7*WNDDIR$178
STN$101420*DATE$2021-02-03*TIME$12:59:53*TEMP$-0.3*DEWP$-2.5*STP$1013.4*SLP$1016.4*VISIB$9.9*WDSP$14.2*PRCP$0.06*SNDP$0.9*FRSHTT$111000*CLDC$50.3*WNDDIR$309
STN$945430*DATE$2021-02-03*TIME$12:59:53*TEMP$20.7*DEWP$15.0*STP$999.8*SLP$1011.9*VISIB$47.2*WDSP$6.8*PRCP$0.64*SNDP$0.0*FRSHTT$010000*CLDC$50.1*WNDDIR$14
STN$116980*DATE$2021-02-03*TIME$12:59:53*TEMP$-3.6*DEWP$-6.8*STP$981.0*SLP$1023.4*VISIB$15.7*WDSP$14.5*PRCP$0.02*SNDP$1.7*FRSHTT$111000*CLDC$72.8*WNDDIR$204
STN$67000*DATE$2021-02-03*TIME$12:59:53*TEMP$-1.2*DEWP$-4.0*STP$987.8*SLP$1019.6*VISIB$8.3*WDSP$11.7*PRCP$0.10*SNDP$0.1*FRSHTT$111000*CLDC$78.6*WNDDIR$292
STN$160880*DATE$2021-02-03*TIME$12:59:53*TEMP$-1.3*DEWP$-4.7*STP$1011.6*SLP$1023.9*VISIB$2.3*WDSP$6.0*PRCP$0.04*SNDP$0.0*FRSHTT$110000*CLDC$50.6*WNDDIR$71
STN$407660*DATE$2021-02-03*TIME$12:59:53*TEMP$2.5*DEWP$-3.6*STP$867.2*SLP$1015.9*VISIB$9.4*WDSP$16.1*PRCP$0.06*SNDP$0.3*FRSHTT$011000*CLDC$87.6*WNDDIR$110
STN$36911*DATE$2021-02-03*TIME$12:59:53*TEMP$1.5*DEWP$-1.2*STP$1000.1*SLP$997.1*VISIB$8.7*WDSP$14.4*PRCP$0.00*SNDP$0.0*FRSHTT$000000*CLDC$26.9*WNDDIR$32
STN$401650*DATE$2021-02-03*TIME$12:59:53*TEMP$2.6*DEWP$-2.4*STP$1024.7*SLP$1017.5*VISIB$11.4*WDSP$6.1*PRCP$0.00*SNDP$0.0*FRSHTT$000000*CLDC$85.8*WNDDIR$167
STN$103590*DATE$2021-02-03*TIME$12:59:53*TEMP$-0.7*DEWP$-2.5*STP$1026.4*SLP$1022.7*VISIB$5.8*WDSP$9.4*PRCP$0.05*SNDP$0.0*FRSHTT$110000*CLDC$50.0*WNDDIR$174
STN$749158*DATE$2021-02-03*TIME$12:59:53*TEMP$-4.0*DEWP$-13.0*STP$985.6*SLP$1022.9*VISIB$156.5*WDSP$13.3*PRCP$0.00*SNDP$0.0*FRSHTT$100000*CLDC$99.4*WNDDIR$20
STN$333250*DATE$2021-02-03*TIME$12:59:53*TEMP$-7.9*DEWP$-10.4*STP$1004.5*SLP$1020.8*VISIB$6.8*WDSP$15.3*PRCP$0.21*SNDP$5.7*FRSHTT$111000*CLDC$62.6*WNDDIR$227
STN$749159*DATE$2021-02-03*TIME$12:59:53*TEMP$1.3*DEWP$-7.6*STP$1039.7*SLP$1022.2*VISIB$159.4*WDSP$21.7*PRCP$0.00*SNDP$0.0*FRSHTT$000000*CLDC$59.2*WNDDIR$186
STN$718050*DATE$2021-02-03*TIME$12:59:53*TEMP$-4.1*DEWP$-6.2*STP$1022.4*SLP$1020.0*VISIB$12.7*WDSP$28.2*PRCP$0.02*SNDP$5.8*FRSHTT$111000*CLDC$50.2*WNDDIR$96
STN$72990*DATE$2021-02-03*TIME$12:59:53*TEMP$-0.6*DEWP$-3.7*STP$1002.8*SLP$1020.4*VISIB$7.9*WDSP$10.3*PRCP$0.04*SNDP$0.1*FRSHTT$111000*CLDC$74.5*WNDDIR$251
STN$749155*DATE$2021-02-03*TIME$12:59:53*TEMP$12.0*DEWP$7.8*STP$1030.4*SLP$1022.4*VISIB$116.9*WDSP$12.1*PRCP$0.00*SNDP$0.0*FRSHTT$000000*CLDC$39.4*WNDDIR$114
STN$749167*DATE$2021-02-03*TIME$12:59:53*TEMP$2.8*DEWP$-12.1*STP$1008.3*SLP$1015.9*VISIB$46.8*WDSP$8.3*PRCP$0.00*SNDP$0.0*FRSHTT$000000*CLDC$83.2*WNDDIR$12
STN$172440*DATE$2021-02-03*TIME$12:59:53*TEMP$-1.1*DEWP$-7.4*STP$954.8*SLP$977.4*VISIB$10.5*WDSP$12.8*PRCP$0.06*SNDP$0.9*FRSHTT$111000*CLDC$50.2*WNDDIR$244
STN$763050*DATE$2021-02-03*TIME$12:59:53*TEMP$4.5*DEWP$0.7*STP$1014.6*SLP$1015.3*VISIB$16.8*WDSP$5.8*PRCP$0.00*SNDP$0.0*FRSHTT$000000*CLDC$79.1*WNDDIR$41
STN$32810*DATE$2021-02-03*TIME$12:59:53*TEMP$0.6*DEWP$-0.8*STP$1011.8*SLP$1007.2*VISIB$15.9*WDSP$26.3*PRCP$0.00*SNDP$0.1*FRSHTT$001000*CLDC$83.9*WNDDIR$93
STN$472185*DATE$2021-02-03*TIME$12:59:53*TEMP$-2.9*DEWP$-6.3*STP$981.4*SLP$974.8*VISIB$6.4*WDSP$24.6*PRCP$0.00*SNDP$0.0*FRSHTT$100000*CLDC$90.7*WNDDIR$78
STN$103210*DATE$2021-02-03*TIME$12:59:53*TEMP$0.1*DEWP$-2.3*STP$1009.8*SLP$1014.9*VISIB$14.0*WDSP$17.0*PRCP$0.04*SNDP$0.6*FRSHTT$011000*CLDC$50.2*WNDDIR$20
STN$314420*DATE$2021-02-03*TIME$12:59:53*TEMP$-26.0*DEWP$-29.5*STP$1018.8*SLP$1024.9*VISIB$32.5*WDSP$8.5*PRCP$0.01*SNDP$0.6*FRSHTT$111000*CLDC$50.2*WNDDIR$258
STN$103200*DATE$2021-02-03*TIME$12:59:53*TEMP$0.1*DEWP$-3.4*STP$1013.0*SLP$1015.5*VISIB$8.0*WDSP$13.5*PRCP$0.07*SNDP$0.6*FRSHTT$011000*CLDC$50.0*WNDDIR$254
STN$623250*DATE$2021-02-03*TIME$12:59:53*TEMP$10.5*DEWP$7.3*STP$1026.7*SLP$1015.1*VISIB$8.9*WDSP$7.1*PRCP$0.03*SNDP$0.0*FRSHTT$010000*CLDC$50.4*WNDDIR$87
STN$143280*DATE$2021-02-03*TIME$12:59:53*TEMP$-2.7*DEWP$-6.1*STP$981.0*SLP$1021.8*VISIB$10.2*WDSP$5.1*PRCP$0.16*SNDP$6.0*FRSHTT$111000*CLDC$55.3*WNDDIR$64
STN$592650*DATE$2021-02-03*TIME$12:59:53*TEMP$4.3*DEWP$0.9*STP$1018.3*SLP$1021.1*VISIB$9.5*WDSP$5.3*PRCP$0.12*SNDP$0.0*FRSHTT$010000*CLDC$50.0*WNDDIR$120
STN$870160*DATE$2021-02-03*TIME$12:59:53*TEMP$18.8*DEWP$13.9*STP$1001.9*SLP$1007.9*VISIB$17.3*WDSP$7.7*PRCP$0.04*SNDP$0.0*FRSHTT$010000*CLDC$50.2*WNDDIR$154
STN$292410*DATE$2021-02-03*TIME$12:59:53*TEMP$-5.4*DEWP$-12.1*STP$994.7*SLP$1015.8*VISIB$16.3*WDSP$16.3*PRCP$0.00*SNDP$21.2*FRSHTT$101000*CLDC$50.5*WNDDIR$230
STN$275195*DATE$2021-02-03*TIME$12:59:53*TEMP$0.6*DEWP$-1.7*STP$1004.6*SLP$1028.2*VISIB$7.6*WDSP$31.0*PRCP$0.00*SNDP$0.0*FRSHTT$100000*CLDC$59.4*WNDDIR$247
STN$433530*DATE$2021-02-03*TIME$12:59:53*TEMP$30.0*DEWP$23.3*STP$1023.1*SLP$1010.0*VISIB$4.1*WDSP$7.4*PRCP$0.00*SNDP$0.0*FRSHTT$000000*CLDC$94.1*WNDDIR$72
STN$124010*DATE$2021-02-03*TIME$12:59:53*TEMP$-2.7*DEWP$-4.0*STP$994.0*SLP$1009.6*VISIB$1.6*WDSP$9.2*PRCP$0.19*SNDP$0.0*FRSHTT$110000*CLDC$57.2*WNDDIR$204
STN$275185*DATE$2021-02-03*TIME$12:59:53*TEMP$-3.6*DEWP$-6.1*STP$999.0*SLP$1001.6*VISIB$6.9*WDSP$15.1*PRCP$0.00*SNDP$0.0*FRSHTT$100000*CLDC$17.9*WNDDIR$348
STN$728720*DATE$2021-02-03*TIME$12:59:53*TEMP$-3.9*DEWP$-11.0*STP$941.6*SLP$1028.4*VISIB$35.8*WDSP$16.0*PRCP$0.00*SNDP$0.0*FRSHTT$100000*CLDC$72.2*WNDDIR$259
STN$14830*DATE$2021-02-03*TIME$12:59:53*TEMP$0.0*DEWP$0.0*STP$999.5*SLP$1008.0*VISIB$7.0*WDSP$17.9*PRCP$0.00*SNDP$0.0*FRSHTT$000000*CLDC$27.7*WNDDIR$13
STN$76520*DATE$2021-02-03*TIME$12:59:53*TEMP$3.3*DEWP$-0.1*STP$1018.4*SLP$1020.4*VISIB$15.0*WDSP$26.2*PRCP$0.09*SNDP$0.0*FRSHTT$010000*CLDC$50.1*WNDDIR$28
STN$107370*DATE$2021-02-03*TIME$12:59:53*TEMP$-0.1*DEWP$-3.7*STP$1012.9*SLP$1017.2*VISIB$9.7*WDSP$8.7*PRCP$0.06*SNDP$0.0*FRSHTT$110000*CLDC$50.9*WNDDIR$90
STN$14825*DATE$2021-02-03*TIME$12:59:53*TEMP$-1.1*DEWP$-3.2*STP$1006.1*SLP$997.5*VISIB$7.5*WDSP$17.8*PRCP$0.00*SNDP$0.0*FRSHTT$100000*CLDC$63.9*WNDDIR$262
STN$162592*DATE$2021-02-03*TIME$12:59:53*TEMP$-1.2*DEWP$-3.2*STP$1013.3*SLP$986.9*VISIB$3.1*WDSP$5.2*PRCP$0.00*SNDP$0.0*FRSHTT$100000*CLDC$69.7*WNDDIR$294
STN$942670*DATE$2021-02-03*TIME$12:59:53*TEMP$25.6*DEWP$20.9*STP$1005.4*SLP$1006.5*VISIB$50.2*WDSP$8.6*PRCP$0.25*SNDP$0.0*FRSHTT$010000*CLDC$50.0*WNDDIR$144
STN$483575*DATE$2021-02-03*TIME$12:59:53*TEMP$18.8*DEWP$9.9*STP$971.0*SLP$1005.7*VISIB$11.5*WDSP$3.7*PRCP$0.00*SNDP$0.0*FRSHTT$000000*CLDC$84.9*WNDDIR$139
STN$162603*DATE$2021-02-03*TIME$12:59:53*TEMP$0.4*DEWP$-1.9*STP$1030.8*SLP$1023.8*VISIB$4.6*WDSP$20.3*PRCP$0.00*SNDP$0.0*FRSHTT$000000*CLDC$18.8*WNDDIR$294
STN$483570*DATE$2021-02-03*TIME$12:59:53*TEMP$14.3*DEWP$6.2*STP$993.0*SLP$1012.8*VISIB$12.5*WDSP$7.7*PRCP$0.00*SNDP$0.0*FRSHTT$000000*CLDC$92.6*WNDDIR$125
STN$942660*DATE$2021-02-03*TIME$12:59:53*TEMP$24.5*DEWP$19.1*STP$1001.0*SLP$990.1*VISIB$49.5*WDSP$10.1*PRCP$0.00*SNDP$0.0*FRSHTT$000000*CLDC$22.1*WNDDIR$214
STN$85540*DATE$2021-02-03*TIME$12:59:53*TEMP$6.7*DEWP$2.8*STP$1021.1*SLP$1021.8*VISIB$10.9*WDSP$13.3*PRCP$0.08*SNDP$0.0*FRSHTT$010000*CLDC$82.0*WNDDIR$142
STN$36960*DATE$2021-02-03*TIME$12:59:53*TEMP$1.0*DEWP$-1.4*STP$1021.1*SLP$1019.4*VISIB$10.5*WDSP$20.9*PRCP$0.00*SNDP$0.0*FRSHTT$000000*CLDC$98.6*WNDDIR$13
STN$162610*DATE$2021-02-03*TIME$12:59:53*TEMP$0.8*DEWP$-2.3*STP$1014.3*SLP$1017.8*VISIB$8.4*WDSP$10.5*PRCP$0.05*SNDP$0.0*FRSHTT$010000*CLDC$50.1*WNDDIR$320
STN$407340*DATE$2021-02-03*TIME$12:59:53*TEMP$5.8*DEWP$3.4*STP$1013.6*SLP$1011.5*VISIB$11.2*WDSP$7.5*PRCP$0.00*SNDP$0.0*FRSHTT$000000*CLDC$5.1*WNDDIR$78
STN$488676*DATE$2021-02-03*TIME$12:59:53*TEMP$12.2*DEWP$5.1*STP$1014.1*SLP$998.2*VISIB$12.2*WDSP$9.5*PRCP$0.00*SNDP$0.0*FRSHTT$000000*CLDC$92.9*WNDDIR$351
STN$471074*DATE$2021-02-03*TIME$12:59:53*TEMP$-4.6*DEWP$-13.6*STP$1002.4*SLP$985.5*VISIB$12.0*WDSP$20.0*PRCP$0.00*SNDP$0.0*FRSHTT$100000*CLDC$51.6*WNDDIR$20
STN$263460*DATE$2021-02-03*TIME$12:59:53*TEMP$-1.6*DEWP$-4.2*STP$1013.2*SLP$1017.1*VISIB$10.2*WDSP$12.5*PRCP$0.18*SNDP$0.5*FRSHTT$111000*CLDC$50.2*WNDDIR$150
STN$142320*DATE$2021-02-03*TIME$12:59:53*TEMP$-3.1*DEWP$-5.1*STP$1007.5*SLP$1021.3*VISIB$7.6*WDSP$4.5*PRCP$0.16*SNDP$3.1*FRSHTT$111000*CLDC$73.9*WNDDIR$248
STN$471087*DATE$2021-02-03*TIME$12:59:53*TEMP$-9.5*DEWP$-18.1*STP$976.0*SLP$976.7*VISIB$11.2*WDSP$10.3*PRCP$0.00*SNDP$0.0*FRSHTT$100000*CLDC$61.4*WNDDIR$171
STN$488685*DATE$2021-02-03*TIME$12:59:53*TEMP$10.1*DEWP$3.0*STP$1015.0*SLP$1007.9*VISIB$12.1*WDSP$15.6*PRCP$0.00*SNDP$0.0*FRSHTT$000000*CLDC$91.1*WNDDIR$186
STN$471080*DATE$2021-02-03*TIME$12:59:53*TEMP$-5.7*DEWP$-11.7*STP$1021.2*SLP$1024.0*VISIB$10.8*WDSP$8.8*PRCP$0.01*SNDP$0.1*FRSHTT$111000*CLDC$50.5*WNDDIR$64
STN$670270*DATE$2021-02-03*TIME$12:59:53*TEMP$23.6*DEWP$20.7*STP$1006.6*SLP$1008.7*VISIB$16.8*WDSP$13.3*PRCP$0.12*SNDP$0.0*FRSHTT$010000*CLDC$50.1*WNDDIR$50
STN$471120*DATE$2021-02-03*TIME$12:59:53*TEMP$-5.1*DEWP$-11.8*STP$1019.6*SLP$1023.8*VISIB$14.6*WDSP$11.0*PRCP$0.01*SNDP$0.1*FRSHTT$111000*CLDC$50.6*WNDDIR$10
STN$506320*DATE$2021-02-03*TIME$12:59:53*TEMP$-22.8*DEWP$-27.1*STP$984.0*SLP$1027.8*VISIB$28.3*WDSP$10.0*PRCP$0.01*SNDP$0.0*FRSHTT$110000*CLDC$50.0*WNDDIR$258
STN$729380*DATE$2021-02-03*TIME$12:59:53*TEMP$-10.7*DEWP$-14.8*STP$1027.2*SLP$1027.3*VISIB$20.0*WDSP$20.9*PRCP$0.11*SNDP$16.2*FRSHTT$111000*CLDC$50.0*WNDDIR$146
STN$265540*DATE$2021-02-03*TIME$12:59:53*TEMP$-8.0*DEWP$-10.3*STP$1005.7*SLP$1015.5*VISIB$8.1*WDSP$12.0*PRCP$0.10*SNDP$4.6*FRSHTT$111000*CLDC$50.4*WNDDIR$71
STN$350850*DATE$2021-02-03*TIME$12:59:53*TEMP$-11.4*DEWP$-14.1*STP$1013.4*SLP$1024.8*VISIB$25.9*WDSP$16.4*PRCP$0.03*SNDP$3.2*FRSHTT$111000*CLDC$96.1*WNDDIR$248
STN$71300*DATE$2021-02-03*TIME$12:59:53*TEMP$1.3*DEWP$-0.5*STP$1015.0*SLP$1018.5*VISIB$11.6*WDSP$14.1*PRCP$0.07*SNDP$0.0*FRSHTT$010000*CLDC$50.0*WNDDIR$57
STN$729400*DATE$2021-02-03*TIME$12:59:53*TEMP$-5.3*DEWP$-7.8*STP$951.9*SLP$1035.8*VISIB$33.2*WDSP$8.7*PRCP$0.04*SNDP$10.9*FRSHTT$111000*CLDC$59.4*WNDDIR$275
STN$871210*DATE$2021-02-03*TIME$12:59:53*TEMP$18.3*DEWP$11.5*STP$980.1*SLP$1008.2*VISIB$12.7*WDSP$9.1*PRCP$0.24*SNDP$0.0*FRSHTT$010000*CLDC$70.9*WNDDIR$197
STN$871200*DATE$2021-02-03*TIME$12:59:53*TEMP$18.6*DEWP$13.4*STP$1011.9*SLP$1007.8*VISIB$14.7*WDSP$8.4*PRCP$0.18*SNDP$0.0*FRSHTT$010000*CLDC$67.6*WNDDIR$151
STN$703410*DATE$2021-02-03*TIME$12:59:53*TEMP$-5.3*DEWP$-8.2*STP$1005.6*SLP$1006.4*VISIB$21.9*WDSP$13.5*PRCP$0.10*SNDP$3.7*FRSHTT$111000*CLDC$59.2*WNDDIR$18
STN$949780*DATE$2021-02-03*TIME$12:59:53*TEMP$11.8*DEWP$6.1*STP$990.5*SLP$1013.4*VISIB$20.8*WDSP$17.4*PRCP$0.02*SNDP$0.0*FRSHTT$010000*CLDC$50.5*WNDDIR$324
STN$544970*DATE$2021-02-03*TIME$12:59:53*TEMP$-9.8*DEWP$-18.4*STP$1027.7*SLP$1025.8*VISIB$13.1*WDSP$11.2*PRCP$0.01*SNDP$0.0*FRSHTT$110000*CLDC$50.1*WNDDIR$70
STN$724094*DATE$2021-02-03*TIME$12:59:53*TEMP$-3.2*DEWP$-9.3*STP$1012.4*SLP$1014.0*VISIB$13.7*WDSP$9.8*PRCP$0.27*SNDP$0.0*FRSHTT$110000*CLDC$50.4*WNDDIR$147
STN$724089*DATE$2021-02-03*TIME$12:59:53*TEMP$-3.5*DEWP$-8.5*STP$1020.0*SLP$1019.3*VISIB$16.6*WDSP$15.0*PRCP$0.25*SNDP$0.5*FRSHTT$111000*CLDC$87.0*WNDDIR$142
STN$724088*DATE$2021-02-03*TIME$12:59:53*TEMP$-2.5*DEWP$-7.2*STP$1016.2*SLP$1018.8*VISIB$10.9*WDSP$14.6*PRCP$0.14*SNDP$0.5*FRSHTT$111000*CLDC$64.1*WNDDIR$166
STN$724090*DATE$2021-02-03*TIME$12:59:53*TEMP$-4.5*DEWP$-10.9*STP$1013.2*SLP$1017.0*VISIB$11.3*WDSP$10.6*PRCP$0.28*SNDP$0.3*FRSHTT$111000*CLDC$50.5*WNDDIR$259
STN$724036*DATE$2021-02-03*TIME$12:59:53*TEMP$-2.0*DEWP$-8.5*STP$1008.6*SLP$979.2*VISIB$14.0*WDSP$8.3*PRCP$0.00*SNDP$0.0*FRSHTT$100000*CLDC$14.4*WNDDIR$90
STN$724037*DATE$2021-02-03*TIME$12:59:53*TEMP$-3.7*DEWP$-9.4*STP$1015.8*SLP$1019.8*VISIB$11.0*WDSP$9.6*PRCP$0.17*SNDP$0.8*FRSHTT$111000*CLDC$67.6*WNDDIR$239
STN$128700*DATE$2021-02-03*TIME$12:59:53*TEMP$0.9*DEWP$-1.1*STP$1000.5*SLP$1028.2*VISIB$9.2*WDSP$4.6*PRCP$0.00*SNDP$0.0*FRSHTT$000000*CLDC$46.3*WNDDIR$345
STN$724035*DATE$2021-02-03*TIME$12:59:53*TEMP$-0.7*DEWP$-5.6*STP$1017.7*SLP$1020.1*VISIB$10.3*WDSP$10.8*PRCP$0.14*SNDP$0.7*FRSHTT$111000*CLDC$98.3*WNDDIR$109
STN$270370*DATE$2021-02-03*TIME$12:59:53*TEMP$-9.4*DEWP$-11.6*STP$1013.7*SLP$1015.0*VISIB$10.5*WDSP$13.0*PRCP$0.03*SNDP$6.4*FRSHTT$111000*CLDC$83.3*WNDDIR$33
STN$10490*DATE$2021-02-03*TIME$12:59:53*TEMP$-6.4*DEWP$-10.4*STP$1001.0*SLP$1002.3*VISIB$11.8*WDSP$12.9*PRCP$0.07*SNDP$0.0*FRSHTT$110000*CLDC$50.8*WNDDIR$240
STN$319810*DATE$2021-02-03*TIME$12:59:53*TEMP$-24.1*DEWP$-28.8*STP$1010.0*SLP$1022.8*VISIB$45.5*WDSP$7.9*PRCP$0.01*SNDP$5.0*FRSHTT$111000*CLDC$93.5*WNDDIR$91
STN$319811*DATE$2021-02-03*TIME$12:59:53*TEMP$-7.5*DEWP$-9.4*STP$1001.9*SLP$969.5*VISIB$1.1*WDSP$42.8*PRCP$0.00*SNDP$0.0*FRSHTT$100000*CLDC$23.0*WNDDIR$173
STN$572650*DATE$2021-02-03*TIME$12:59:53*TEMP$-0.6*DEWP$-5.8*STP$1020.8*SLP$1026.1*VISIB$8.4*WDSP$5.0*PRCP$0.03*SNDP$0.0*FRSHTT$110000*CLDC$50.1*WNDDIR$259
STN$24600*DATE$2021-02-03*TIME$12:59:53*TEMP$-5.0*DEWP$-7.4*STP$1008.8*SLP$1010.0*VISIB$10.3*WDSP$17.3*PRCP$0.03*SNDP$4.1*FRSHTT$111000*CLDC$76.8*WNDDIR$298
STN$319870*DATE$2021-02-03*TIME$12:59:53*TEMP$-15.2*DEWP$-23.7*STP$1006.3*SLP$1020.9*VISIB$47.4*WDSP$18.8*PRCP$0.00*SNDP$0.8*FRSHTT$101000*CLDC$50.4*WNDDIR$118
STN$802190*DATE$2021-02-03*TIME$12:59:53*TEMP$22.6*DEWP$14.9*STP$974.1*SLP$1006.9*VISIB$9.6*WDSP$10.0*PRCP$0.00*SNDP$0.0*FRSHTT$000000*CLDC$12.0*WNDDIR$276
STN$129700*DATE$2021-02-03*TIME$12:59:53*TEMP$-1.9*DEWP$-5.0*STP$1005.5*SLP$1020.2*VISIB$6.0*WDSP$11.0*PRCP$0.03*SNDP$1.0*FRSHTT$111000*CLDC$50.6*WNDDIR$143
STN$677790*DATE$2021-02-03*TIME$12:59:53*TEMP$11.7*DEWP$7.1*STP$904.0*SLP$903.7*VISIB$49.5*WDSP$6.5*PRCP$0.19*SNDP$0.0*FRSHTT$010000*CLDC$50.3*WNDDIR$325
STN$389740*DATE$2021-02-03*TIME$12:59:53*TEMP$8.9*DEWP$3.1*STP$1006.0*SLP$1020.4*VISIB$17.7*WDSP$9.2*PRCP$0.09*SNDP$0.2*FRSHTT$011000*CLDC$60.6*WNDDIR$95
STN$289000*DATE$2021-02-03*TIME$12:59:53*TEMP$-9.4*DEWP$-11.5*STP$1013.3*SLP$1008.9*VISIB$6.6*WDSP$12.6*PRCP$0.26*SNDP$0.9*FRSHTT$111000*CLDC$50.2*WNDDIR$193
STN$75030*DATE$2021-02-03*TIME$12:59:53*TEMP$4.2*DEWP$2.0*STP$1020.6*SLP$1017.5*VISIB$9.5*WDSP$15.7*PRCP$*SNDP$0.0*FRSHTT$010000*CLDC$51.1*WNDDIR$161
STN$152800*DATE$2021-02-03*TIME$12:59:53*TEMP$-10.5*DEWP$-12.4*STP$899.1*SLP$899.5*VISIB$22.3*WDSP$42.0*PRCP$0.13*SNDP$27.8*FRSHTT$111000*CLDC$50.1*WNDDIR$216
STN$29420*DATE$2021-02-03*TIME$12:59:53*TEMP$-7.8*DEWP$-10.1*STP$1009.1*SLP$1010.6*VISIB$9.3*WDSP$10.2*PRCP$0.09*SNDP$15.7*FRSHTT$111000*CLDC$84.3*WNDDIR$91
STN$568860*DATE$2021-02-03*TIME$12:59:53*TEMP$2.8*DEWP$-3.4*STP$829.0*SLP$824.1*VISIB$20.6*WDSP$11.6*PRCP$0.02*SNDP$0.0*FRSHTT$010000*CLDC$50.0*WNDDIR$167
STN$509630*DATE$2021-02-03*TIME$12:59:53*TEMP$-25.3*DEWP$-27.8*STP$1020.1*SLP$1025.4*VISIB$12.2*WDSP$14.3*PRCP$0.01*SNDP$0.0*FRSHTT$110000*CLDC$50.9*WNDDIR$248
STN$725650*DATE$2021-02-03*TIME$12:59:53*TEMP$-8.7*DEWP$-18.0*STP$925.1*SLP$1017.0*VISIB$14.3*WDSP$15.2*PRCP$0.02*SNDP$0.3*FRSHTT$111000*CLDC$50.6*WNDDIR$99
STN$249440*DATE$2021-02-03*TIME$12:59:53*TEMP$-31.6*DEWP$-34.7*STP$1013.8*SLP$1026.1*VISIB$20.4*WDSP$6.5*PRCP$0.02*SNDP$8.3*FRSHTT$111000*CLDC$78.5*WNDDIR$115
STN$725660*DATE$2021-02-03*TIME$12:59:53*TEMP$-1.8*DEWP$-9.1*STP$900.5*SLP$1021.5*VISIB$26.9*WDSP$15.9*PRCP$0.02*SNDP$1.1*FRSHTT$111000*CLDC$50.6*WNDDIR$153
STN$249460*DATE$2021-02-03*TIME$12:59:53*TEMP$-27.6*DEWP$-26.2*STP$1021.3*SLP$1028.0*VISIB$37.0*WDSP$5.8*PRCP$0.03*SNDP$14.0*FRSHTT$111000*CLDC$78.8*WNDDIR$68
STN$725636*DATE$2021-02-03*TIME$12:59:53*TEMP$-3.6*DEWP$-9.1*STP$1011.8*SLP$1014.8*VISIB$24.1*WDSP$16.4*PRCP$0.01*SNDP$0.9*FRSHTT$111000*CLDC$65.9*WNDDIR$293
STN$718480*DATE$2021-02-03*TIME$12:59:53*TEMP$-26.2*DEWP$-30.0*STP$1001.9*SLP$1019.8*VISIB$16.4*WDSP$13.4*PRCP$0.02*SNDP$26.1*FRSHTT$111000*CLDC$60.4*WNDDIR$160
STN$119340*DATE$2021-02-03*TIME$12:59:53*TEMP$-2.8*DEWP$-6.8*STP$964.6*SLP$967.2*VISIB$10.7*WDSP$12.9*PRCP$0.03*SNDP$2.5*FRSHTT$111000*CLDC$61.9*WNDDIR$39
STN$119330*DATE$2021-02-03*TIME$12:59:53*TEMP$-3.7*DEWP$-6.8*STP$863.3*SLP$862.9*VISIB$9.8*WDSP$8.9*PRCP$0.23*SNDP$41.6*FRSHTT$111000*CLDC$50.7*WNDDIR$257
STN$948160*DATE$2021-02-03*TIME$12:59:53*TEMP$13.2*DEWP$4.8*STP$1012.0*SLP$1015.9*VISIB$50.0*WDSP$6.7*PRCP$0.00*SNDP$0.0*FRSHTT$000000*CLDC$22.1*WNDDIR$15
STN$104160*DATE$2021-02-03*TIME$12:59:53*TEMP$-0.1*DEWP$-3.6*STP$1001.3*SLP$999.6*VISIB$5.9*WDSP$15.7*PRCP$0.01*SNDP$0.0*FRSHTT$110000*CLDC$50.3*WNDDIR$20
STN$593620*DATE$2021-02-03*TIME$12:59:53*TEMP$15.5*DEWP$12.7*STP$1010.9*SLP$1017.9*VISIB$10.5*WDSP$12.7*PRCP$0.05*SNDP$0.0*FRSHTT$010000*CLDC$81.2*WNDDIR$300
STN$531920*DATE$2021-02-03*TIME$12:59:53*TEMP$-23.8*DEWP$-28.2*STP$918.3*SLP$1035.1*VISIB$28.4*WDSP$7.4*PRCP$0.01*SNDP$0.0*FRSHTT$110000*CLDC$71.9*WNDDIR$85
STN$172950*DATE$2021-02-03*TIME$12:59:53*TEMP$2.8*DEWP$-1.7*STP$1008.2*SLP$1008.5*VISIB$9.5*WDSP$12.5*PRCP$0.74*SNDP$0.0*FRSHTT$010000*CLDC$83.8*WNDDIR$307
STN$593580*DATE$2021-02-03*TIME$12:59:53*TEMP$13.8*DEWP$9.6*STP$1016.3*SLP$1018.5*VISIB$6.8*WDSP$13.3*PRCP$0.05*SNDP$0.0*FRSHTT$010000*CLDC$50.2*WNDDIR$100
STN$718560*DATE$2021-02-03*TIME$12:59:53*TEMP$-22.3*DEWP$-25.3*STP$992.1*SLP$1021.1*VISIB$20.1*WDSP$14.6*PRCP$0.01*SNDP$7.5*FRSHTT$111000*CLDC$63.0*WNDDIR$32
STN$741970*DATE$2021-02-03*TIME$12:59:53*TEMP$-7.1*DEWP$-10.1*STP$1004.9*SLP$1005.2*VISIB$14.3*WDSP$55.1*PRCP$0.07*SNDP$0.0*FRSHTT$110000*CLDC$50.5*WNDDIR$314
STN$477991*DATE$2021-02-03*TIME$12:59:53*TEMP$4.9*DEWP$-4.5*STP$1015.3*SLP$1002.3*VISIB$11.5*WDSP$12.0*PRCP$0.00*SNDP$0.0*FRSHTT$000000*CLDC$83.5*WNDDIR$54
STN$477990*DATE$2021-02-03*TIME$12:59:53*TEMP$3.7*DEWP$-5.0*STP$1000.5*SLP$1000.8*VISIB$11.7*WDSP$14.0*PRCP$0.00*SNDP$0.0*FRSHTT$000000*CLDC$14.8*WNDDIR$52
STN$726667*DATE$2021-02-03*TIME$12:59:53*TEMP$-7.9*DEWP$-11.6*STP$1010.3*SLP$1019.3*VISIB$14.7*WDSP$5.8*PRCP$0.03*SNDP$0.0*FRSHTT$110000*CLDC$50.2*WNDDIR$145
STN$726665*DATE$2021-02-03*TIME$12:59:53*TEMP$-10.0*DEWP$-14.0*STP$1020.6*SLP$1023.4*VISIB$35.6*WDSP$6.5*PRCP$0.00*SNDP$2.3*FRSHTT$101000*CLDC$56.8*WNDDIR$16
STN$741960*DATE$2021-02-03*TIME$12:59:53*TEMP$-3.8*DEWP$-5.1*STP$999.1*SLP$1001.7*VISIB$21.0*WDSP$58.5*PRCP$1.09*SNDP$0.0*FRSHTT$110000*CLDC$63.9*WNDDIR$250
STN$726660*DATE$2021-02-03*TIME$12:59:53*TEMP$-3.4*DEWP$-9.2*STP$903.1*SLP$1022.9*VISIB$40.3*WDSP$11.0*PRCP$0.02*SNDP$3.6*FRSHTT$111000*CLDC$56.0*WNDDIR$23
STN$761600*DATE$2021-02-03*TIME$12:59:53*TEMP$4.9*DEWP$-8.6*STP$1004.5*SLP$1015.0*VISIB$25.7*WDSP$3.3*PRCP$0.00*SNDP$0.0*FRSHTT$000000*CLDC$70.2*WNDDIR$136
STN$13000*DATE$2021-02-03*TIME$12:59:53*TEMP$0.3*DEWP$-3.3*STP$980.0*SLP$989.8*VISIB$12.8*WDSP$47.6*PRCP$0.00*SNDP$0.0*FRSHTT$000000*CLDC$53.1*WNDDIR$25
STN$478170*DATE$2021-02-03*TIME$12:59:53*TEMP$3.0*DEWP$-3.1*STP$1018.1*SLP$1021.2*VISIB$21.5*WDSP$8.9*PRCP$0.08*SNDP$0.0*FRSHTT$010000*CLDC$50.7*WNDDIR$261
STN$161190*DATE$2021-02-03*TIME$12:59:53*TEMP$1.2*DEWP$-0.3*STP$1007.6*SLP$1034.7*VISIB$1.4*WDSP$22.6*PRCP$0.00*SNDP$0.0*FRSHTT$000000*CLDC$21.4*WNDDIR$270
STN$21470*DATE$2021-02-03*TIME$12:59:53*TEMP$-10.7*DEWP$-12.9*STP$987.8*SLP$993.3*VISIB$41.9*WDSP$5.9*PRCP$0.21*SNDP$0.0*FRSHTT$110000*CLDC$50.3*WNDDIR$136
STN$408000*DATE$2021-02-03*TIME$12:59:53*TEMP$5.0*DEWP$-6.4*STP$897.4*SLP$1018.7*VISIB$14.1*WDSP$11.0*PRCP$0.00*SNDP$0.0*FRSHTT$000000*CLDC$29.4*WNDDIR$34
STN$768556*DATE$2021-02-03*TIME$12:59:53*TEMP$21.6*DEWP$15.3*STP$1005.0*SLP$1011.6*VISIB$17.7*WDSP$14.7*PRCP$0.00*SNDP$0.0*FRSHTT$000000*CLDC$17.7*WNDDIR$245
STN$161240*DATE$2021-02-03*TIME$12:59:53*TEMP$0.6*DEWP$-4.9*STP$925.5*SLP$927.8*VISIB$7.6*WDSP$14.7*PRCP$0.77*SNDP$5.2*FRSHTT$011000*CLDC$50.0*WNDDIR$65
STN$716270*DATE$2021-02-03*TIME$12:59:53*TEMP$-12.2*DEWP$-17.7*STP$1014.3*SLP$1018.5*VISIB$18.4*WDSP$17.1*PRCP$0.19*SNDP$5.6*FRSHTT$111000*CLDC$52.0*WNDDIR$328
STN$560930*DATE$2021-02-03*TIME$12:59:53*TEMP$-6.0*DEWP$-11.9*STP$1008.3*SLP$1027.7*VISIB$25.7*WDSP$3.8*PRCP$0.03*SNDP$0.0*FRSHTT$110000*CLDC$51.3*WNDDIR$324
STN$101770*DATE$2021-02-03*TIME$12:59:53*TEMP$-1.5*DEWP$-3.2*STP$1022.8*SLP$1023.0*VISIB$8.0*WDSP$20.8*PRCP$0.04*SNDP$0.0*FRSHTT$110000*CLDC$59.2*WNDDIR$254
STN$486940*DATE$2021-02-03*TIME$12:59:53*TEMP$15.0*DEWP$13.0*STP$1011.0*SLP$1011.0*VISIB$14.5*WDSP$9.5*PRCP$0.12*SNDP$0.0*FRSHTT$010000*CLDC$50.1*WNDDIR$220
STN$716275*DATE$2021-02-03*TIME$12:59:53*TEMP$-14.1*DEWP$-17.3*STP$1018.3*SLP$1017.8*VISIB$15.5*WDSP$17.2*PRCP$0.00*SNDP$0.0*FRSHTT$100000*CLDC$58.6*WNDDIR$111
STN$917540*DATE$2021-02-03*TIME$12:59:53*TEMP$21.5*DEWP$20.0*STP$1001.7*SLP$998.7*VISIB$22.9*WDSP$24.0*PRCP$0.48*SNDP$0.0*FRSHTT$010000*CLDC$85.1*WNDDIR$159
STN$31620*DATE$2021-02-03*TIME$12:59:53*TEMP$-0.1*DEWP$-1.5*STP$1003.9*SLP$1012.7*VISIB$15.4*WDSP$17.7*PRCP$0.38*SNDP$0.8*FRSHTT$111000*CLDC$50.1*WNDDIR$160
STN$476750*DATE$2021-02-03*TIME$12:59:53*TEMP$2.7*DEWP$-4.1*STP$1008.0*SLP$1015.7*VISIB$30.1*WDSP$20.3*PRCP$0.28*SNDP$0.0*FRSHTT$010000*CLDC$63.1*WNDDIR$131
STN$935160*DATE$2021-02-03*TIME$12:59:53*TEMP$13.3*DEWP$11.0*STP$1006.2*SLP$1012.1*VISIB$38.3*WDSP$16.8*PRCP$0.00*SNDP$0.0*FRSHTT$000000*CLDC$92.6*WNDDIR$
STN$915570*DATE$2021-02-03*TIME$12:59:53*TEMP$21.5*DEWP$18.6*STP$1005.5*SLP$1007.8*VISIB$25.4*WDSP$7.4*PRCP$0.12*SNDP$0.0*FRSHTT$010000*CLDC$50.1*WNDDIR$164
STN$915580*DATE$2021-02-03*TIME$12:59:53*TEMP$21.4*DEWP$17.3*STP$1002.0*SLP$1000.8*VISIB$27.0*WDSP$8.3*PRCP$0.17*SNDP$0.0*FRSHTT$010000*CLDC$61.4*WNDDIR$270
STN$728040*DATE$2021-02-03*TIME$12:59:53*TEMP$-8.7*DEWP$-14.0*STP$996.8*SLP$998.3*VISIB$8.0*WDSP$33.8*PRCP$0.28*SNDP$10.9*FRSHTT$111000*CLDC$50.1*WNDDIR$49
STN$31634*DATE$2021-02-03*TIME$12:59:53*TEMP$2.6*DEWP$-1.7*STP$1000.3*SLP$1019.7*VISIB$11.0*WDSP$25.1*PRCP$0.00*SNDP$0.0*FRSHTT$000000*CLDC$40.6*WNDDIR$15
STN$476742*DATE$2021-02-03*TIME$12:59:53*TEMP$-0.6*DEWP$-3.2*STP$979.3*SLP$990.5*VISIB$11.1*WDSP$11.9*PRCP$0.00*SNDP$0.0*FRSHTT$100000*CLDC$66.9*WNDDIR$349
STN$432130*DATE$2021-02-03*TIME$12:59:53*TEMP$30.4*DEWP$17.4*STP$979.9*SLP$1011.5*VISIB$6.6*WDSP$2.4*PRCP$0.00*SNDP$0.0*FRSHTT$000000*CLDC$53.1*WNDDIR$136
STN$713683*DATE$2021-02-03*TIME$12:59:53*TEMP$-2.9*DEWP$-5.8*STP$1006.5*SLP$1013.3*VISIB$13.9*WDSP$13.9*PRCP$0.00*SNDP$0.0*FRSHTT$100000*CLDC$91.9*WNDDIR$48
STN$574941*DATE$2021-02-03*TIME$12:59:53*TEMP$10.2*DEWP$8.3*STP$995.2*SLP$986.4*VISIB$10.9*WDSP$5.4*PRCP$0.00*SNDP$0.0*FRSHTT$000000*CLDC$75.6*WNDDIR$351
STN$713681*DATE$2021-02-03*TIME$12:59:53*TEMP$-5.3*DEWP$-7.5*STP$1013.4*SLP$1016.9*VISIB$14.7*WDSP$14.0*PRCP$0.00*SNDP$0.0*FRSHTT$100000*CLDC$52.1*WNDDIR$332
STN$713680*DATE$2021-02-03*TIME$12:59:53*TEMP$-6.7*DEWP$-10.2*STP$987.4*SLP$1017.5*VISIB$11.0*WDSP$18.8*PRCP$0.12*SNDP$3.6*FRSHTT$111000*CLDC$50.3*WNDDIR$180
STN$782550*DATE$2021-02-03*TIME$12:59:53*TEMP$18.2*DEWP$12.5*STP$1006.6*SLP$1011.0*VISIB$9.4*WDSP$13.0*PRCP$0.00*SNDP$0.0*FRSHTT$000000*CLDC$10.4*WNDDIR$288
STN$574940*DATE$2021-02-03*TIME$12:59:53*TEMP$0.3*DEWP$-4.8*STP$1023.2*SLP$1025.8*VISIB$11.3*WDSP$8.6*PRCP$0.04*SNDP$0.0*FRSHTT$010000*CLDC$54.7*WNDDIR$25
STN$85750*DATE$2021-02-03*TIME$12:59:53*TEMP$0.9*DEWP$-2.0*STP$951.9*SLP$1022.4*VISIB$18.1*WDSP$8.5*PRCP$0.10*SNDP$0.0*FRSHTT$010000*CLDC$50.2*WNDDIR$268
STN$37040*DATE$2021-02-03*TIME$12:59:53*TEMP$4.1*DEWP$3.8*STP$1020.7*SLP$1021.4*VISIB$6.4*WDSP$9.6*PRCP$0.07*SNDP$0.0*FRSHTT$010000*CLDC$89.4*WNDDIR$336
STN$614210*DATE$2021-02-03*TIME$12:59:53*TEMP$13.9*DEWP$-1.4*STP$1023.1*SLP$1013.0*VISIB$18.6*WDSP$16.8*PRCP$0.00*SNDP$0.0*FRSHTT$000000*CLDC$*WNDDIR$242
STN$942750*DATE$2021-02-03*TIME$12:59:53*TEMP$24.5*DEWP$16.6*STP$973.5*SLP$1006.3*VISIB$36.4*WDSP$5.0*PRCP$0.32*SNDP$0.0*FRSHTT$010000*CLDC$50.4*WNDDIR$74
STN$724006*DATE$2021-02-03*TIME$12:59:53*TEMP$1.9*DEWP$-3.0*STP$1014.9*SLP$1005.5*VISIB$14.2*WDSP$6.3*PRCP$0.00*SNDP$0.0*FRSHTT$000000*CLDC$34.2*WNDDIR$106
STN$724007*DATE$2021-02-03*TIME$12:59:53*TEMP$0.9*DEWP$-5.2*STP$987.3*SLP$991.1*VISIB$16.5*WDSP$5.6*PRCP$0.00*SNDP$0.0*FRSHTT$000000*CLDC$0.1*WNDDIR$325
STN$724008*DATE$2021-02-03*TIME$12:59:53*TEMP$1.2*DEWP$-6.8*STP$1012.5*SLP$1017.8*VISIB$14.4*WDSP$11.3*PRCP$0.12*SNDP$0.0*FRSHTT$010000*CLDC$50.2*WNDDIR$168
STN$913340*DATE$2021-02-03*TIME$12:59:53*TEMP$23.3*DEWP$19.5*STP$1010.3*SLP$1009.1*VISIB$23.1*WDSP$17.9*PRCP$0.43*SNDP$0.0*FRSHTT$010000*CLDC$50.0*WNDDIR$130
STN$724010*DATE$2021-02-03*TIME$12:59:53*TEMP$-2.1*DEWP$-7.6*STP$1015.3*SLP$1019.7*VISIB$13.8*WDSP$11.9*PRCP$0.16*SNDP$0.3*FRSHTT$111000*CLDC$88.1*WNDDIR$8
STN$134810*DATE$2021-02-03*TIME$12:59:53*TEMP$-2.9*DEWP$-6.8*STP$1004.3*SLP$1015.4*VISIB$6.9*WDSP$13.5*PRCP$0.00*SNDP$0.0*FRSHTT$100000*CLDC$2.3*WNDDIR$194
STN$134811*DATE$2021-02-03*TIME$12:59:53*TEMP$1.3*DEWP$-2.2*STP$977.4*SLP$997.2*VISIB$8.8*WDSP$7.0*PRCP$0.00*SNDP$0.0*FRSHTT$000000*CLDC$86.4*WNDDIR$99
STN$724014*DATE$2021-02-03*TIME$12:59:53*TEMP$-0.8*DEWP$-11.0*STP$1019.8*SLP$1014.3*VISIB$14.6*WDSP$13.0*PRCP$0.00*SNDP$0.0*FRSHTT$100000*CLDC$72.7*WNDDIR$157
STN$984310*DATE$2021-02-03*TIME$12:59:53*TEMP$23.9*DEWP$19.8*STP$1015.0*SLP$1014.6*VISIB$17.5*WDSP$6.5*PRCP$0.05*SNDP$0.0*FRSHTT$010000*CLDC$50.4*WNDDIR$206
STN$569510*DATE$2021-02-03*TIME$12:59:53*TEMP$7.8*DEWP$-3.0*STP$865.4*SLP$913.4*VISIB$27.9*WDSP$4.3*PRCP$0.03*SNDP$0.0*FRSHTT$010000*CLDC$50.3*WNDDIR$27
STN$66160*DATE$2021-02-03*TIME$12:59:53*TEMP$-0.2*DEWP$-4.5*STP$950.4*SLP$1022.4*VISIB$11.2*WDSP$12.7*PRCP$0.08*SNDP$5.2*FRSHTT$111000*CLDC$64.9*WNDDIR$15
STN$944850*DATE$2021-02-03*TIME$12:59:53*TEMP$19.9*DEWP$1.9*STP$996.3*SLP$989.0*VISIB$49.9*WDSP$7.5*PRCP$0.00*SNDP$0.0*FRSHTT$000000*CLDC$53.9*WNDDIR$56
STN$118580*DATE$2021-02-03*TIME$12:59:53*TEMP$-1.4*DEWP$-4.5*STP$1012.4*SLP$1021.3*VISIB$13.9*WDSP$9.3*PRCP$0.03*SNDP$1.5*FRSHTT$111000*CLDC$91.7*WNDDIR$105
STN$205940*DATE$2021-02-03*TIME$12:59:53*TEMP$-14.4*DEWP$-18.3*STP$1025.3*SLP$1016.6*VISIB$22.2*WDSP$18.2*PRCP$0.02*SNDP$15.3*FRSHTT$111000*CLDC$71.6*WNDDIR$312
STN$485500*DATE$2021-02-03*TIME$12:59:53*TEMP$19.8*DEWP$14.7*STP$1026.8*SLP$1011.6*VISIB$6.6*WDSP$16.7*PRCP$0.03*SNDP$0.0*FRSHTT$010000*CLDC$50.0*WNDDIR$252
STN$876480*DATE$2021-02-03*TIME$12:59:53*TEMP$7.4*DEWP$2.2*STP$1012.7*SLP$1014.3*VISIB$10.7*WDSP$10.6*PRCP$0.00*SNDP$0.0*FRSHTT$000000*CLDC$72.9*WNDDIR$248
STN$470200*DATE$2021-02-03*TIME$12:59:53*TEMP$-20.1*DEWP$-24.9*STP$1022.8*SLP$1029.0*VISIB$8.3*WDSP$5.8*PRCP$0.00*SNDP$0.0*FRSHTT$100000*CLDC$18.6*WNDDIR$49
STN$21910*DATE$2021-02-03*TIME$12:59:53*TEMP$-7.0*DEWP$-10.7*STP$1004.5*SLP$984.0*VISIB$13.6*WDSP$7.6*PRCP$0.18*SNDP$0.0*FRSHTT$110000*CLDC$50.3*WNDDIR$33
STN$83600*DATE$2021-02-03*TIME$12:59:53*TEMP$4.1*DEWP$-1.2*STP$1017.9*SLP$1019.9*VISIB$10.7*WDSP$8.9*PRCP$0.08*SNDP$0.0*FRSHTT$010000*CLDC$52.8*WNDDIR$41
STN$944880*DATE$2021-02-03*TIME$12:59:53*TEMP$26.7*DEWP$11.2*STP$994.0*SLP$1008.4*VISIB$47.7*WDSP$13.1*PRCP$0.14*SNDP$0.0*FRSHTT$010000*CLDC$67.0*WNDDIR$37
STN$727434*DATE$2021-02-03*TIME$12:59:53*TEMP$-2.3*DEWP$-4.7*STP$995.9*SLP$984.3*VISIB$10.0*WDSP$14.5*PRCP$0.00*SNDP$0.0*FRSHTT$100000*CLDC$57.0*WNDDIR$292
STN$123765*DATE$2021-02-03*TIME$12:59:53*TEMP$-0.4*DEWP$-3.1*STP$972.5*SLP$947.1*VISIB$8.2*WDSP$14.7*PRCP$0.00*SNDP$0.0*FRSHTT$100000*CLDC$61.7*WNDDIR$266
STN$727435*DATE$2021-02-03*TIME$12:59:53*TEMP$-13.9*DEWP$-18.1*STP$997.3*SLP$1015.7*VISIB$17.2*WDSP$10.6*PRCP$0.07*SNDP$14.0*FRSHTT$111000*CLDC$68.1*WNDDIR$123
STN$275950*DATE$2021-02-03*TIME$12:59:53*TEMP$-11.3*DEWP$-14.1*STP$1018.7*SLP$1018.6*VISIB$7.6*WDSP$18.6*PRCP$0.02*SNDP$10.8*FRSHTT$111000*CLDC$72.6*WNDDIR$192
STN$727436*DATE$2021-02-03*TIME$12:59:53*TEMP$-9.2*DEWP$-11.5*STP$1010.6*SLP$1005.0*VISIB$11.4*WDSP$11.5*PRCP$0.04*SNDP$9.9*FRSHTT$111000*CLDC$64.5*WNDDIR$54
STN$727437*DATE$2021-02-03*TIME$12:59:53*TEMP$-14.1*DEWP$-17.9*STP$1010.4*SLP$1007.6*VISIB$17.5*WDSP$12.9*PRCP$0.03*SNDP$0.0*FRSHTT$110000*CLDC$72.5*WNDDIR$140
STN$123760*DATE$2021-02-03*TIME$12:59:53*TEMP$-1.5*DEWP$-3.5*STP$1001.5*SLP$1014.8*VISIB$5.7*WDSP$17.9*PRCP$0.00*SNDP$0.0*FRSHTT$100000*CLDC$23.4*WNDDIR$213
STN$727475*DATE$2021-02-03*TIME$12:59:53*TEMP$-13.5*DEWP$-17.7*STP$994.1*SLP$989.7*VISIB$13.6*WDSP$13.9*PRCP$0.00*SNDP$0.0*FRSHTT$100000*CLDC$23.8*WNDDIR$111
STN$727474*DATE$2021-02-03*TIME$12:59:53*TEMP$-15.0*DEWP$-17.3*STP$1000.1*SLP$1015.6*VISIB$12.9*WDSP$10.9*PRCP$0.00*SNDP$0.0*FRSHTT$100000*CLDC$7.0*WNDDIR$299
STN$727473*DATE$2021-02-03*TIME$12:59:53*TEMP$-17.3*DEWP$-21.4*STP$1004.7*SLP$1008.6*VISIB$13.5*WDSP$4.5*PRCP$0.00*SNDP$0.0*FRSHTT$100000*CLDC$66.2*WNDDIR$116
STN$334150*DATE$2021-02-03*TIME$12:59:53*TEMP$-6.7*DEWP$-9.4*STP$1001.2*SLP$1021.8*VISIB$5.4*WDSP$15.5*PRCP$0.05*SNDP$2.8*FRSHTT$111000*CLDC$85.7*WNDDIR$63
STN$718950*DATE$2021-02-03*TIME$12:59:53*TEMP$-0.3*DEWP$-4.8*STP$1008.5*SLP$1009.5*VISIB$23.8*WDSP$10.3*PRCP$0.00*SNDP$0.0*FRSHTT$100000*CLDC$37.4*WNDDIR$215
STN$282240*DATE$2021-02-03*TIME$12:59:53*TEMP$-7.2*DEWP$-7.3*STP$996.5*SLP$1018.1*VISIB$16.0*WDSP$10.5*PRCP$0.00*SNDP$35.2*FRSHTT$101000*CLDC$78.3*WNDDIR$137
STN$718951*DATE$2021-02-03*TIME$12:59:53*TEMP$2.5*DEWP$1.8*STP$1022.7*SLP$999.4*VISIB$24.9*WDSP$11.4*PRCP$0.43*SNDP$*FRSHTT$010000*CLDC$50.0*WNDDIR$30
STN$264770*DATE$2021-02-03*TIME$12:59:53*TEMP$-6.5*DEWP$-10.1*STP$1012.9*SLP$1017.8*VISIB$17.3*WDSP$16.8*PRCP$0.05*SNDP$3.0*FRSHTT$111000*CLDC$50.3*WNDDIR$144
STN$381960*DATE$2021-02-03*TIME$12:59:53*TEMP$0.3*DEWP$-8.4*STP$924.5*SLP$1024.4*VISIB$18.6*WDSP$3.4*PRCP$0.00*SNDP$4.7*FRSHTT$001000*CLDC$85.5*WNDDIR$259
STN$871480*DATE$2021-02-03*TIME$12:59:53*TEMP$17.7*DEWP$9.9*STP$1002.5*SLP$1013.1*VISIB$20.6*WDSP$9.0*PRCP$0.00*SNDP$0.0*FRSHTT$000000*CLDC$51.1*WNDDIR$58
STN$122070*DATE$2021-02-03*TIME$12:59:53*TEMP$-2.6*DEWP$-3.9*STP$998.2*SLP$1020.4*VISIB$3.0*WDSP$12.8*PRCP$0.07*SNDP$0.0*FRSHTT$110000*CLDC$50.2*WNDDIR$22
STN$282250*DATE$2021-02-03*TIME$12:59:53*TEMP$-11.4*DEWP$-13.9*STP$1014.3*SLP$1018.1*VISIB$6.4*WDSP$16.1*PRCP$0.15*SNDP$1.5*FRSHTT$111000*CLDC$50.6*WNDDIR$278
STN$765906*DATE$2021-02-03*TIME$12:59:53*TEMP$20.0*DEWP$15.0*STP$1012.9*SLP$1010.3*VISIB$10.3*WDSP$14.4*PRCP$0.00*SNDP$0.0*FRSHTT$000000*CLDC$42.9*WNDDIR$57
STN$766655*DATE$2021-02-03*TIME$12:59:53*TEMP$12.2*DEWP$2.9*STP$1012.9*SLP$1013.2*VISIB$11.9*WDSP$12.5*PRCP$0.00*SNDP$0.0*FRSHTT$*CLDC$0.3*WNDDIR$119
STN$467540*DATE$2021-02-03*TIME$12:59:53*TEMP$16.3*DEWP$9.9*STP$1027.9*SLP$1018.7*VISIB$19.6*WDSP$12.8*PRCP$0.00*SNDP$0.0*FRSHTT$000000*CLDC$40.0*WNDDIR$200
STN$38400*DATE$2021-02-03*TIME$12:59:53*TEMP$1.1*DEWP$-0.1*STP$998.5*SLP$1021.4*VISIB$12.0*WDSP$17.9*PRCP$0.13*SNDP$0.0*FRSHTT$010000*CLDC$82.5*WNDDIR$26
STN$960870*DATE$2021-02-03*TIME$12:59:53*TEMP$13.0*DEWP$11.2*STP$1006.2*SLP$1009.4*VISIB$9.7*WDSP$7.2*PRCP$1.18*SNDP$0.0*FRSHTT$010000*CLDC$50.2*WNDDIR$352
STN$485010*DATE$2021-02-03*TIME$12:59:53*TEMP$12.9*DEWP$12.2*STP$1010.2*SLP$1010.7*VISIB$6.9*WDSP$2.6*PRCP$1.15*SNDP$0.0*FRSHTT$010000*CLDC$50.5*WNDDIR$206
STN$23360*DATE$2021-02-03*TIME$12:59:53*TEMP$-5.1*DEWP$-7.9*STP$1008.1*SLP$1009.1*VISIB$44.0*WDSP$15.6*PRCP$0.04*SNDP$17.2*FRSHTT$111000*CLDC$83.1*WNDDIR$241
STN$255940*DATE$2021-02-03*TIME$12:59:53*TEMP$-14.7*DEWP$-18.6*STP$1006.5*SLP$1015.1*VISIB$30.1*WDSP$22.1*PRCP$0.16*SNDP$9.8*FRSHTT$111000*CLDC$65.3*WNDDIR$176
STN$467550*DATE$2021-02-03*TIME$12:59:53*TEMP$-2.9*DEWP$-5.7*STP$994.1*SLP$1017.5*VISIB$37.3*WDSP$28.8*PRCP$0.00*SNDP$0.0*FRSHTT$100000*CLDC$3.9*WNDDIR$210
STN$23370*DATE$2021-02-03*TIME$12:59:53*TEMP$-2.1*DEWP$-4.9*STP$1012.8*SLP$974.1*VISIB$11.3*WDSP$29.6*PRCP$0.00*SNDP$2.8*FRSHTT$101000*CLDC$73.2*WNDDIR$146
STN$23380*DATE$2021-02-03*TIME$12:59:53*TEMP$-3.7*DEWP$-5.3*STP$985.5*SLP$1008.5*VISIB$28.2*WDSP$8.6*PRCP$0.04*SNDP$0.0*FRSHTT$110000*CLDC$91.8*WNDDIR$164
STN$81810*DATE$2021-02-03*TIME$12:59:53*TEMP$3.9*DEWP$0.2*STP$1016.3*SLP$1018.9*VISIB$8.4*WDSP$13.8*PRCP$0.06*SNDP$0.0*FRSHTT$010000*CLDC$65.8*WNDDIR$5
STN$722976*DATE$2021-02-03*TIME$12:59:53*TEMP$4.2*DEWP$-6.6*STP$1011.8*SLP$1008.0*VISIB$19.3*WDSP$6.9*PRCP$0.09*SNDP$0.0*FRSHTT$010000*CLDC$50.3*WNDDIR$81
STN$679910*DATE$2021-02-03*TIME$12:59:53*TEMP$15.7*DEWP$6.5*STP$965.9*SLP$961.6*VISIB$40.5*WDSP$7.6*PRCP$0.00*SNDP$0.0*FRSHTT$000000*CLDC$63.3*WNDDIR$232
STN$722977*DATE$2021-02-03*TIME$12:59:53*TEMP$6.5*DEWP$-0.1*STP$1008.6*SLP$1008.2*VISIB$21.0*WDSP$7.4*PRCP$0.03*SNDP$0.0*FRSHTT$010000*CLDC$92.5*WNDDIR$356
STN$722978*DATE$2021-02-03*TIME$12:59:53*TEMP$6.5*DEWP$-1.4*STP$1006.4*SLP$1012.2*VISIB$7.1*WDSP$6.9*PRCP$0.00*SNDP$0.0*FRSHTT$000000*CLDC$78.1*WNDDIR$308
STN$133780*DATE$2021-02-03*TIME$12:59:53*TEMP$-5.1*DEWP$-8.7*STP$986.6*SLP$972.3*VISIB$23.3*WDSP$10.3*PRCP$0.09*SNDP$37.7*FRSHTT$111000*CLDC$50.6*WNDDIR$81
STN$957030*DATE$2021-02-03*TIME$12:59:53*TEMP$26.1*DEWP$9.0*STP$1000.2*SLP$1012.4*VISIB$49.4*WDSP$6.1*PRCP$0.00*SNDP$0.0*FRSHTT$000000*CLDC$32.4*WNDDIR$25
STN$133770*DATE$2021-02-03*TIME$12:59:53*TEMP$-3.7*DEWP$-4.6*STP$1016.8*SLP$1019.5*VISIB$7.9*WDSP$2.9*PRCP$0.76*SNDP$0.0*FRSHTT$110000*CLDC$83.8*WNDDIR$289
STN$411280*DATE$2021-02-03*TIME$12:59:53*TEMP$11.6*DEWP$-3.4*STP$907.4*SLP$908.7*VISIB$8.0*WDSP$9.2*PRCP$0.00*SNDP$0.0*FRSHTT$000000*CLDC$80.1*WNDDIR$91
STN$983270*DATE$2021-02-03*TIME$12:59:53*TEMP$21.2*DEWP$15.0*STP$996.4*SLP$1004.1*VISIB$23.6*WDSP$9.5*PRCP$0.01*SNDP$0.0*FRSHTT$010000*CLDC$55.1*WNDDIR$32
STN$911904*DATE$2021-02-03*TIME$12:59:53*TEMP$15.4*DEWP$7.9*STP$999.9*SLP$997.1*VISIB$23.5*WDSP$24.0*PRCP$0.30*SNDP$0.0*FRSHTT$010000*CLDC$50.5*WNDDIR$91
STN$911905*DATE$2021-02-03*TIME$12:59:53*TEMP$10.6*DEWP$6.0*STP$1002.2*SLP$1002.7*VISIB$21.0*WDSP$15.9*PRCP$0.00*SNDP$0.0*FRSHTT$000000*CLDC$26.1*WNDDIR$37
STN$133890*DATE$2021-02-03*TIME$12:59:53*TEMP$-3.2*DEWP$-6.1*STP$993.2*SLP$1022.7*VISIB$11.8*WDSP$4.5*PRCP$0.01*SNDP$3.2*FRSHTT$111000*CLDC$95.4*WNDDIR$265
STN$11520*DATE$2021-02-03*TIME$12:59:53*TEMP$-1.8*DEWP$-6.3*STP$1000.8*SLP$1003.9*VISIB$16.3*WDSP$29.8*PRCP$0.16*SNDP$1.8*FRSHTT$111000*CLDC$50.3*WNDDIR$186
STN$151500*DATE$2021-02-03*TIME$12:59:53*TEMP$-7.8*DEWP$-10.8*STP$995.6*SLP$1019.1*VISIB$5.9*WDSP$12.0*PRCP$0.02*SNDP$2.7*FRSHTT$111000*CLDC$60.0*WNDDIR$236
STN$740730*DATE$2021-02-03*TIME$12:59:53*TEMP$-11.1*DEWP$-15.5*STP$1010.0*SLP$1032.3*VISIB$23.6*WDSP$8.0*PRCP$0.00*SNDP$16.2*FRSHTT$101000*CLDC$82.1*WNDDIR$245
STN$251210*DATE$2021-02-03*TIME$12:59:53*TEMP$-43.1*DEWP$-47.4*STP$1030.4*SLP$1021.7*VISIB$46.1*WDSP$5.2*PRCP$0.00*SNDP$0.0*FRSHTT$100000*CLDC$54.8*WNDDIR$22
STN$81410*DATE$2021-02-03*TIME$12:59:53*TEMP$0.7*DEWP$-3.5*STP$938.1*SLP$1025.8*VISIB$10.7*WDSP$4.7*PRCP$0.01*SNDP$0.0*FRSHTT$010000*CLDC$97.4*WNDDIR$77
STN$306270*DATE$2021-02-03*TIME$12:59:53*TEMP$-7.9*DEWP$-12.1*STP$1001.6*SLP$1033.1*VISIB$36.5*WDSP$6.8*PRCP$0.01*SNDP$4.3*FRSHTT$111000*CLDC$95.1*WNDDIR$85
STN$341720*DATE$2021-02-03*TIME$12:59:53*TEMP$-8.7*DEWP$-11.3*STP$1014.6*SLP$1022.8*VISIB$6.9*WDSP$16.8*PRCP$0.03*SNDP$7.1*FRSHTT$111000*CLDC$50.0*WNDDIR$294
STN$102240*DATE$2021-02-03*TIME$12:59:53*TEMP$-0.8*DEWP$-3.5*STP$1013.3*SLP$1014.4*VISIB$9.3*WDSP$19.4*PRCP$0.08*SNDP$0.2*FRSHTT$111000*CLDC$50.4*WNDDIR$111
STN$161580*DATE$2021-02-03*TIME$12:59:53*TEMP$1.3*DEWP$-1.8*STP$1019.3*SLP$1015.5*VISIB$7.5*WDSP$9.5*PRCP$0.18*SNDP$0.0*FRSHTT$010000*CLDC$50.0*WNDDIR$56
STN$20770*DATE$2021-02-03*TIME$12:59:53*TEMP$-9.2*DEWP$-10.3*STP$1020.8*SLP$1025.1*VISIB$8.8*WDSP$9.2*PRCP$0.00*SNDP$1.6*FRSHTT$101000*CLDC$99.4*WNDDIR$339
STN$875340*DATE$2021-02-03*TIME$12:59:53*TEMP$10.8*DEWP$9.8*STP$992.0*SLP$1007.2*VISIB$12.3*WDSP$5.2*PRCP$0.28*SNDP$0.0*FRSHTT$010000*CLDC$50.1*WNDDIR$136
STN$785430*DATE$2021-02-03*TIME$12:59:53*TEMP$20.7*DEWP$14.7*STP$1006.2*SLP$1007.6*VISIB$31.3*WDSP$17.0*PRCP$0.10*SNDP$0.0*FRSHTT$010000*CLDC$68.9*WNDDIR$184
STN$257440*DATE$2021-02-03*TIME$12:59:53*TEMP$-27.6*DEWP$-29.3*STP$1010.2*SLP$1018.9*VISIB$32.2*WDSP$23.5*PRCP$0.02*SNDP$3.9*FRSHTT$111000*CLDC$96.9*WNDDIR$215
STN$486650*DATE$2021-02-03*TIME$12:59:53*TEMP$20.7*DEWP$15.0*STP$1008.9*SLP$1010.8*VISIB$20.6*WDSP$9.2*PRCP$0.21*SNDP$0.0*FRSHTT$010000*CLDC$54.5*WNDDIR$236
STN$40040*DATE$2021-02-03*TIME$12:59:53*TEMP$-3.2*DEWP$-6.8*STP$998.9*SLP$997.0*VISIB$46.5*WDSP$38.4*PRCP$0.00*SNDP$0.0*FRSHTT$100000*CLDC$85.0*WNDDIR$316
STN$945780*DATE$2021-02-03*TIME$12:59:53*TEMP$20.3*DEWP$14.7*STP$1012.0*SLP$1010.9*VISIB$22.3*WDSP$13.2*PRCP$0.17*SNDP$0.0*FRSHTT$010000*CLDC$50.8*WNDDIR$44
STN$20760*DATE$2021-02-03*TIME$12:59:53*TEMP$-7.7*DEWP$-9.8*STP$1028.8*SLP$1019.4*VISIB$20.1*WDSP$13.8*PRCP$0.00*SNDP$2.8*FRSHTT$101000*CLDC$50.3*WNDDIR$137
STN$83730*DATE$2021-02-03*TIME$12:59:53*TEMP$4.6*DEWP$0.6*STP$1015.3*SLP$1021.0*VISIB$11.5*WDSP$9.8*PRCP$0.05*SNDP$0.0*FRSHTT$010000*CLDC$50.1*WNDDIR$130
STN$485830*DATE$2021-02-03*TIME$12:59:53*TEMP$16.1*DEWP$13.3*STP$1009.5*SLP$1010.0*VISIB$8.7*WDSP$6.8*PRCP$0.00*SNDP$0.0*FRSHTT$000000*CLDC$43.1*WNDDIR$302
STN$576550*DATE$2021-02-03*TIME$12:59:53*TEMP$1.1*DEWP$-3.6*STP$1022.4*SLP$1025.8*VISIB$10.4*WDSP$4.4*PRCP$0.05*SNDP$0.0*FRSHTT$010000*CLDC$67.3*WNDDIR$29
STN$975600*DATE$2021-02-03*TIME$12:59:53*TEMP$24.4*DEWP$22.9*STP$1029.4*SLP$1009.8*VISIB$29.3*WDSP$9.9*PRCP$0.97*SNDP$0.0*FRSHTT$010000*CLDC$50.6*WNDDIR$83
STN$21520*DATE$2021-02-03*TIME$12:59:53*TEMP$-2.9*DEWP$-4.2*STP$1004.7*SLP$1020.2*VISIB$14.9*WDSP$6.6*PRCP$0.00*SNDP$0.0*FRSHTT$100000*CLDC$51.3*WNDDIR$342
STN$875960*DATE$2021-02-03*TIME$12:59:53*TEMP$17.7*DEWP$10.6*STP$1019.0*SLP$1012.7*VISIB$9.6*WDSP$24.6*PRCP$0.00*SNDP$0.0*FRSHTT$000000*CLDC$91.8*WNDDIR$142
STN$820220*DATE$2021-02-03*TIME$12:59:53*TEMP$23.3*DEWP$16.6*STP$1013.6*SLP$1010.4*VISIB$13.3*WDSP$18.7*PRCP$0.06*SNDP$0.0*FRSHTT$010000*CLDC$50.5*WNDDIR$259
STN$317070*DATE$2021-02-03*TIME$12:59:53*TEMP$-20.6*DEWP$-26.7*STP$1020.9*SLP$1021.9*VISIB$44.6*WDSP$10.6*PRCP$0.01*SNDP$0.3*FRSHTT$111000*CLDC$71.1*WNDDIR$250
STN$39570*DATE$2021-02-03*TIME$12:59:53*TEMP$2.6*DEWP$-0.7*STP$1013.0*SLP$1014.2*VISIB$23.5*WDSP$20.8*PRCP$0.16*SNDP$0.0*FRSHTT$010000*CLDC$50.8*WNDDIR$251
STN$160220*DATE$2021-02-03*TIME$12:59:53*TEMP$-3.2*DEWP$-9.9*STP$782.9*SLP$*VISIB$11.7*WDSP$14.3*PRCP$0.00*SNDP$28.1*FRSHTT$101000*CLDC$50.3*WNDDIR$222
STN$36030*DATE$2021-02-03*TIME$12:59:53*TEMP$1.4*DEWP$-0.1*STP$1008.4*SLP$1012.4*VISIB$14.3*WDSP$26.5*PRCP$0.17*SNDP$0.1*FRSHTT$011000*CLDC$88.7*WNDDIR$301
STN$140080*DATE$2021-02-03*TIME$12:59:53*TEMP$-3.5*DEWP$-12.0*STP$746.2*SLP$747.7*VISIB$40.0*WDSP$27.3*PRCP$0.12*SNDP$80.2*FRSHTT$111000*CLDC$76.5*WNDDIR$31
STN$529550*DATE$2021-02-03*TIME$12:59:53*TEMP$-4.0*DEWP$-20.6*STP$694.8*SLP$692.0*VISIB$28.6*WDSP$6.3*PRCP$0.00*SNDP$0.0*FRSHTT$100000*CLDC$24.7*WNDDIR$256
STN$106420*DATE$2021-02-03*TIME$12:59:53*TEMP$-0.4*DEWP$-2.7*STP$1011.2*SLP$1007.8*VISIB$7.0*WDSP$6.7*PRCP$0.08*SNDP$0.0*FRSHTT$110000*CLDC$50.2*WNDDIR$124
STN$729480*DATE$2021-02-03*TIME$12:59:53*TEMP$-22.7*DEWP$-26.5*STP$1024.2*SLP$1027.1*VISIB$16.2*WDSP$16.2*PRCP$0.00*SNDP$0.0*FRSHTT$100000*CLDC$71.0*WNDDIR$211
STN$404450*DATE$2021-02-03*TIME$12:59:53*TEMP$11.1*DEWP$2.1*STP$1019.4*SLP$1020.5*VISIB$10.4*WDSP$24.1*PRCP$0.00*SNDP$0.0*FRSHTT$000000*CLDC$69.9*WNDDIR$235
STN$296050*DATE$2021-02-03*TIME$12:59:53*TEMP$-14.0*DEWP$-15.9*STP$1021.9*SLP$1030.7*VISIB$16.1*WDSP$10.2*PRCP$0.03*SNDP$8.5*FRSHTT$111000*CLDC$82.3*WNDDIR$32
STN$71210*DATE$2021-02-03*TIME$12:59:53*TEMP$3.6*DEWP$1.5*STP$1018.2*SLP$1016.5*VISIB$12.9*WDSP$22.1*PRCP$0.13*SNDP$0.0*FRSHTT$010000*CLDC$50.3*WNDDIR$197
STN$703263*DATE$2021-02-03*TIME$12:59:53*TEMP$-18.9*DEWP$-22.8*STP$1034.7*SLP$1020.2*VISIB$49.5*WDSP$21.1*PRCP$0.00*SNDP$0.0*FRSHTT$100000*CLDC$20.9*WNDDIR$308
STN$350780*DATE$2021-02-03*TIME$12:59:53*TEMP$-4.5*DEWP$-16.4*STP$1025.9*SLP$1028.6*VISIB$11.4*WDSP$18.7*PRCP$0.01*SNDP$6.4*FRSHTT$111000*CLDC$89.2*WNDDIR$41
STN$167460*DATE$2021-02-03*TIME$12:59:53*TEMP$4.4*DEWP$0.3*STP$1004.8*SLP$1017.1*VISIB$11.6*WDSP$16.8*PRCP$0.15*SNDP$0.0*FRSHTT$010000*CLDC$50.3*WNDDIR$147
STN$722195*DATE$2021-02-03*TIME$12:59:53*TEMP$3.5*DEWP$-0.4*STP$1010.7*SLP$1009.2*VISIB$12.6*WDSP$10.9*PRCP$0.33*SNDP$0.0*FRSHTT$010000*CLDC$52.0*WNDDIR$160
STN$722194*DATE$2021-02-03*TIME$12:59:53*TEMP$-12.5*DEWP$-19.9*STP$1008.9*SLP$1006.9*VISIB$16.6*WDSP$24.0*PRCP$0.00*SNDP$0.0*FRSHTT$100000*CLDC$50.7*WNDDIR$268
STN$722197*DATE$2021-02-03*TIME$12:59:53*TEMP$2.6*DEWP$-0.2*STP$1021.5*SLP$1016.0*VISIB$14.2*WDSP$9.4*PRCP$0.42*SNDP$0.0*FRSHTT$010000*CLDC$50.9*WNDDIR$17
STN$290230*DATE$2021-02-03*TIME$12:59:53*TEMP$-19.2*DEWP$-22.2*STP$1021.0*SLP$1027.5*VISIB$25.3*WDSP$7.4*PRCP$0.03*SNDP$16.2*FRSHTT$111000*CLDC$50.0*WNDDIR$34
STN$131050*DATE$2021-02-03*TIME$12:59:53*TEMP$0.8*DEWP$-3.5*STP$1012.2*SLP$1009.9*VISIB$7.3*WDSP$8.2*PRCP$0.04*SNDP$0.0*FRSHTT$010000*CLDC$79.0*WNDDIR$208
STN$722196*DATE$2021-02-03*TIME$12:59:53*TEMP$2.3*DEWP$-2.7*STP$1013.1*SLP$1017.1*VISIB$13.3*WDSP$14.5*PRCP$0.14*SNDP$0.0*FRSHTT$010000*CLDC$97.7*WNDDIR$36
STN$722199*DATE$2021-02-03*TIME$12:59:53*TEMP$2.9*DEWP$-10.3*STP$995.9*SLP$1001.3*VISIB$16.1*WDSP$13.0*PRCP$0.00*SNDP$0.0*FRSHTT$000000*CLDC$53.1*WNDDIR$30
STN$616410*DATE$2021-02-03*TIME$12:59:53*TEMP$13.4*DEWP$8.2*STP$1016.0*SLP$1012.6*VISIB$9.3*WDSP$20.8*PRCP$0.01*SNDP$0.0*FRSHTT$010000*CLDC$50.3*WNDDIR$329
STN$722198*DATE$2021-02-03*TIME$12:59:53*TEMP$-1.0*DEWP$-10.3*STP$1011.8*SLP$1027.5*VISIB$13.5*WDSP$5.7*PRCP$0.00*SNDP$0.0*FRSHTT$100000*CLDC$1.5*WNDDIR$92
STN$574110*DATE$2021-02-03*TIME$12:59:53*TEMP$2.7*DEWP$-1.6*STP$1006.8*SLP$1023.3*VISIB$5.8*WDSP$3.9*PRCP$0.05*SNDP$0.0*FRSHTT$010000*CLDC$93.8*WNDDIR$241
STN$38880*DATE$2021-02-03*TIME$12:59:53*TEMP$1.3*DEWP$-0.1*STP$1023.9*SLP$1015.6*VISIB$13.0*WDSP$25.8*PRCP$0.00*SNDP$0.0*FRSHTT$000000*CLDC$75.1*WNDDIR$255
STN$405680*DATE$2021-02-03*TIME$12:59:53*TEMP$6.0*DEWP$4.8*STP$990.6*SLP$994.7*VISIB$10.3*WDSP$23.8*PRCP$0.00*SNDP$0.0*FRSHTT$000000*CLDC$37.1*WNDDIR$65
STN$713953*DATE$2021-02-03*TIME$12:59:53*TEMP$-9.6*DEWP$-12.6*STP$1005.8*SLP$1015.9*VISIB$17.9*WDSP$18.2*PRCP$0.00*SNDP$0.0*FRSHTT$100000*CLDC$15.8*WNDDIR$278
STN$238230*DATE$2021-02-03*TIME$12:59:53*TEMP$-13.0*DEWP$-15.9*STP$1013.5*SLP$1015.3*VISIB$27.2*WDSP$12.3*PRCP$0.00*SNDP$20.1*FRSHTT$101000*CLDC$94.2*WNDDIR$213
STN$766753*DATE$2021-02-03*TIME$12:59:53*TEMP$0.8*DEWP$-6.1*STP$1012.0*SLP$1005.7*VISIB$11.3*WDSP$6.7*PRCP$0.00*SNDP$0.0*FRSHTT$000000*CLDC$29.2*WNDDIR$261
STN$405700*DATE$2021-02-03*TIME$12:59:53*TEMP$5.2*DEWP$-7.4*STP$1026.9*SLP$1025.0*VISIB$17.0*WDSP$22.7*PRCP$0.00*SNDP$0.0*FRSHTT$000000*CLDC$73.0*WNDDIR$54
STN$38800*DATE$2021-02-03*TIME$12:59:53*TEMP$1.8*DEWP$-0.5*STP$1017.9*SLP$1021.4*VISIB$7.3*WDSP$20.7*PRCP$0.00*SNDP$0.0*FRSHTT$000000*CLDC$81.6*WNDDIR$56
STN$713970*DATE$2021-02-03*TIME$12:59:53*TEMP$-9.6*DEWP$-12.9*STP$1012.4*SLP$1015.9*VISIB$18.4*WDSP$14.6*PRCP$0.17*SNDP$12.2*FRSHTT$111000*CLDC$50.4*WNDDIR$33
STN$405720*DATE$2021-02-03*TIME$12:59:53*TEMP$16.3*DEWP$11.7*STP$995.7*SLP$1012.4*VISIB$9.9*WDSP$9.9*PRCP$0.00*SNDP$0.0*FRSHTT$000000*CLDC$55.7*WNDDIR$213
STN$239290*DATE$2021-02-03*TIME$12:59:53*TEMP$-13.0*DEWP$-15.2*STP$1015.5*SLP$1016.5*VISIB$28.3*WDSP$11.8*PRCP$0.05*SNDP$9.4*FRSHTT$111000*CLDC$92.9*WNDDIR$240
STN$146480*DATE$2021-02-03*TIME$12:59:53*TEMP$2.3*DEWP$-6.1*STP$1009.6*SLP$1022.9*VISIB$13.3*WDSP$8.2*PRCP$0.01*SNDP$0.5*FRSHTT$011000*CLDC$50.2*WNDDIR$295
STN$406760*DATE$2021-02-03*TIME$12:59:53*TEMP$3.0*DEWP$-3.3*STP$1023.9*SLP$1020.7*VISIB$13.3*WDSP$3.1*PRCP$0.00*SNDP$0.0*FRSHTT$000000*CLDC$84.5*WNDDIR$281
STN$319420*DATE$2021-02-03*TIME$12:59:53*TEMP$-37.6*DEWP$-43.0*STP$1031.2*SLP$1014.6*VISIB$46.5*WDSP$2.1*PRCP$0.05*SNDP$0.0*FRSHTT$110000*CLDC$59.3*WNDDIR$9
STN$24290*DATE$2021-02-03*TIME$12:59:53*TEMP$-2.0*DEWP$-3.2*STP$990.2*SLP$998.1*VISIB$14.2*WDSP$6.0*PRCP$0.18*SNDP$0.0*FRSHTT$110000*CLDC$50.3*WNDDIR$277
STN$85480*DATE$2021-02-03*TIME$12:59:53*TEMP$5.3*DEWP$1.9*STP$1002.5*SLP$1023.4*VISIB$15.1*WDSP$7.3*PRCP$0.19*SNDP$0.0*FRSHTT$010000*CLDC$50.5*WNDDIR$310
STN$942580*DATE$2021-02-03*TIME$12:59:53*TEMP$24.9*DEWP$18.3*STP$998.2*SLP$1005.0*VISIB$47.1*WDSP$4.8*PRCP$0.00*SNDP$0.0*FRSHTT$000000*CLDC$14.2*WNDDIR$195
STN$146520*DATE$2021-02-03*TIME$12:59:53*TEMP$-3.3*DEWP$-6.6*STP$790.8*SLP$788.0*VISIB$9.7*WDSP$61.9*PRCP$0.11*SNDP$67.9*FRSHTT$111000*CLDC$67.1*WNDDIR$104
STN$839280*DATE$2021-02-03*TIME$12:59:53*TEMP$15.1*DEWP$9.4*STP$1008.7*SLP$1017.8*VISIB$12.9*WDSP$13.8*PRCP$0.00*SNDP$0.0*FRSHTT$000000*CLDC$69.2*WNDDIR$29
STN$942590*DATE$2021-02-03*TIME$12:59:53*TEMP$26.9*DEWP$20.2*STP$1005.9*SLP$1006.7*VISIB$50.1*WDSP$11.1*PRCP$0.06*SNDP$0.0*FRSHTT$010000*CLDC$79.6*WNDDIR$262
STN$313620*DATE$2021-02-03*TIME$12:59:53*TEMP$-10.8*DEWP$-17.1*STP$995.7*SLP$1009.5*VISIB$20.5*WDSP$21.1*PRCP$0.00*SNDP$2.2*FRSHTT$101000*CLDC$60.1*WNDDIR$337
STN$259270*DATE$2021-02-03*TIME$12:59:53*TEMP$-19.8*DEWP$-23.3*STP$1005.9*SLP$1011.3*VISIB$36.2*WDSP$16.5*PRCP$0.11*SNDP$16.0*FRSHTT$111000*CLDC$50.1*WNDDIR$47
STN$577660*DATE$2021-02-03*TIME$12:59:53*TEMP$2.2*DEWP$-1.9*STP$1026.0*SLP$1025.1*VISIB$9.1*WDSP$4.7*PRCP$0.14*SNDP$0.0*FRSHTT$010000*CLDC$69.4*WNDDIR$124
STN$762250*DATE$2021-02-03*TIME$12:59:53*TEMP$4.0*DEWP$-10.5*STP$994.5*SLP$1012.1*VISIB$42.5*WDSP$10.7*PRCP$0.01*SNDP$0.0*FRSHTT$010000*CLDC$76.2*WNDDIR$354
STN$259320*DATE$2021-02-03*TIME$12:59:53*TEMP$-26.3*DEWP$-30.9*STP$1017.4*SLP$998.0*VISIB$49.5*WDSP$10.3*PRCP$0.00*SNDP$10.9*FRSHTT$101000*CLDC$50.2*WNDDIR$347
STN$383530*DATE$2021-02-03*TIME$12:59:53*TEMP$0.5*DEWP$-3.9*STP$993.0*SLP$1025.5*VISIB$7.2*WDSP$7.3*PRCP$0.04*SNDP$0.4*FRSHTT$011000*CLDC$50.1*WNDDIR$168
STN$383531*DATE$2021-02-03*TIME$12:59:53*TEMP$2.5*DEWP$1.0*STP$994.2*SLP$1005.6*VISIB$3.1*WDSP$7.3*PRCP$0.00*SNDP$0.0*FRSHTT$000000*CLDC$33.4*WNDDIR$220
STN$762253*DATE$2021-02-03*TIME$12:59:53*TEMP$1.0*DEWP$-17.7*STP$1011.4*SLP$1004.9*VISIB$13.1*WDSP$14.3*PRCP$0.00*SNDP$0.0*FRSHTT$000000*CLDC$26.4*WNDDIR$2
STN$718410*DATE$2021-02-03*TIME$12:59:53*TEMP$-27.7*DEWP$-30.3*STP$978.7*SLP$1020.8*VISIB$21.6*WDSP$9.1*PRCP$0.00*SNDP$35.7*FRSHTT$101000*CLDC$50.2*WNDDIR$186
STN$488870*DATE$2021-02-03*TIME$12:59:53*TEMP$13.7*DEWP$7.6*STP$1011.7*SLP$1012.4*VISIB$19.1*WDSP$15.4*PRCP$0.00*SNDP$0.0*FRSHTT$000000*CLDC$3.2*WNDDIR$24
STN$307260*DATE$2021-02-03*TIME$12:59:53*TEMP$-12.0*DEWP$-14.3*STP$1014.7*SLP$1029.5*VISIB$39.6*WDSP$13.2*PRCP$0.01*SNDP$2.4*FRSHTT$111000*CLDC$50.0*WNDDIR$98
STN$967490*DATE$2021-02-03*TIME$12:59:53*TEMP$18.0*DEWP$14.8*STP$1008.1*SLP$1009.8*VISIB$6.8*WDSP$12.0*PRCP$0.25*SNDP$0.0*FRSHTT$010000*CLDC$84.6*WNDDIR$204
STN$74340*DATE$2021-02-03*TIME$12:59:53*TEMP$1.4*DEWP$-0.9*STP$994.1*SLP$1019.6*VISIB$12.3*WDSP$13.4*PRCP$0.10*SNDP$0.1*FRSHTT$011000*CLDC$53.9*WNDDIR$285
STN$726487*DATE$2021-02-03*TIME$12:59:53*TEMP$-12.6*DEWP$-17.3*STP$1002.7*SLP$1010.6*VISIB$16.6*WDSP$8.9*PRCP$0.00*SNDP$0.0*FRSHTT$100000*CLDC$93.8*WNDDIR$313
STN$726480*DATE$2021-02-03*TIME$12:59:53*TEMP$-6.1*DEWP$-9.5*STP$995.4*SLP$1010.0*VISIB$14.0*WDSP$14.3*PRCP$0.01*SNDP$7.9*FRSHTT$111000*CLDC$50.4*WNDDIR$138
STN$171750*DATE$2021-02-03*TIME$12:59:53*TEMP$3.3*DEWP$-2.9*STP$1007.6*SLP$1017.7*VISIB$14.1*WDSP$5.6*PRCP$0.76*SNDP$0.0*FRSHTT$010000*CLDC$50.4*WNDDIR$129
STN$726482*DATE$2021-02-03*TIME$12:59:53*TEMP$-13.7*DEWP$-17.3*STP$1001.8*SLP$996.6*VISIB$11.4*WDSP$10.8*PRCP$0.00*SNDP$0.0*FRSHTT$100000*CLDC$2.8*WNDDIR$337
STN$726510*DATE$2021-02-03*TIME$12:59:53*TEMP$-13.1*DEWP$-18.1*STP$975.9*SLP$1022.8*VISIB$19.0*WDSP$16.9*PRCP$0.08*SNDP$4.3*FRSHTT$111000*CLDC$50.5*WNDDIR$5
STN$30100*DATE$2021-02-03*TIME$12:59:53*TEMP$2.8*DEWP$1.1*STP$1004.4*SLP$1009.4*VISIB$25.0*WDSP$23.0*PRCP$0.11*SNDP$0.1*FRSHTT$011000*CLDC$52.8*WNDDIR$303
STN$726508*DATE$2021-02-03*TIME$12:59:53*TEMP$-12.8*DEWP$-16.3*STP$1014.0*SLP$1019.6*VISIB$12.0*WDSP$5.6*PRCP$0.01*SNDP$0.0*FRSHTT$110000*CLDC$50.5*WNDDIR$238
STN$681120*DATE$2021-02-03*TIME$12:59:53*TEMP$11.9*DEWP$-1.0*STP$916.1*SLP$914.1*VISIB$63.2*WDSP$7.2*PRCP$0.12*SNDP$0.0*FRSHTT$010000*CLDC$50.3*WNDDIR$135
STN$101720*DATE$2021-02-03*TIME$12:59:53*TEMP$-0.8*DEWP$-3.2*STP$1006.9*SLP$1014.0*VISIB$13.0*WDSP$14.3*PRCP$0.02*SNDP$0.8*FRSHTT$111000*CLDC$50.0*WNDDIR$138
STN$21250*DATE$2021-02-03*TIME$12:59:53*TEMP$-4.6*DEWP$-7.1*STP$1012.9*SLP$1021.1*VISIB$36.9*WDSP$3.1*PRCP$0.00*SNDP$16.2*FRSHTT$101000*CLDC$83.7*WNDDIR$142
STN$143820*DATE$2021-02-03*TIME$12:59:53*TEMP$-1.0*DEWP$-4.2*STP$1007.8*SLP$1020.3*VISIB$12.2*WDSP$9.9*PRCP$0.02*SNDP$1.3*FRSHTT$111000*CLDC$50.2*WNDDIR$300
STN$101700*DATE$2021-02-03*TIME$12:59:53*TEMP$-0.8*DEWP$-2.5*STP$1015.7*SLP$1017.5*VISIB$8.6*WDSP$19.1*PRCP$0.06*SNDP$0.0*FRSHTT$110000*CLDC$50.5*WNDDIR$195
STN$716090*DATE$2021-02-03*TIME$12:59:53*TEMP$-11.8*DEWP$-15.3*STP$1002.5*SLP$1015.5*VISIB$18.7*WDSP$16.2*PRCP$0.23*SNDP$11.8*FRSHTT$111000*CLDC$50.8*WNDDIR$290
STN$610750*DATE$2021-02-03*TIME$12:59:53*TEMP$13.5*DEWP$-19.7*STP$1004.5*SLP$1008.9*VISIB$7.0*WDSP$14.9*PRCP$0.00*SNDP$0.0*FRSHTT$000000*CLDC$19.8*WNDDIR$212
STN$681100*DATE$2021-02-03*TIME$12:59:53*TEMP$7.4*DEWP$-9.4*STP$878.0*SLP$879.7*VISIB$59.5*WDSP$6.7*PRCP$0.14*SNDP$0.0*FRSHTT$010000*CLDC$50.3*WNDDIR$225
STN$40560*DATE$2021-02-03*TIME$12:59:53*TEMP$-6.9*DEWP$-8.9*STP$918.9*SLP$997.5*VISIB$21.2*WDSP$32.5*PRCP$0.01*SNDP$2.2*FRSHTT$111000*CLDC$70.3*WNDDIR$147
STN$161080*DATE$2021-02-03*TIME$12:59:53*TEMP$-0.5*DEWP$-4.8*STP$1014.6*SLP$1016.6*VISIB$6.7*WDSP$7.2*PRCP$0.08*SNDP$0.0*FRSHTT$110000*CLDC$56.0*WNDDIR$233
STN$690110*DATE$2021-02-03*TIME$12:59:53*TEMP$-1.0*DEWP$-6.3*STP$880.0*SLP$1025.1*VISIB$48.2*WDSP$5.3*PRCP$0.00*SNDP$0.0*FRSHTT$100000*CLDC$54.0*WNDDIR$250
STN$107270*DATE$2021-02-03*TIME$12:59:53*TEMP$-1.1*DEWP$-4.4*STP$1013.2*SLP$1018.8*VISIB$11.0*WDSP$10.2*PRCP$0.11*SNDP$0.8*FRSHTT$111000*CLDC$82.2*WNDDIR$78
STN$353946*DATE$2021-02-03*TIME$12:59:53*TEMP$-4.2*DEWP$-8.7*STP$1021.3*SLP$1038.9*VISIB$7.0*WDSP$1.8*PRCP$0.00*SNDP$0.0*FRSHTT$100000*CLDC$62.4*WNDDIR$163
STN$154440*DATE$2021-02-03*TIME$12:59:53*TEMP$-10.2*DEWP$-9.7*STP$1015.4*SLP$1022.9*VISIB$3.6*WDSP$10.6*PRCP$0.00*SNDP$1.1*FRSHTT$101000*CLDC$50.4*WNDDIR$94
STN$353944*DATE$2021-02-03*TIME$12:59:53*TEMP$-5.4*DEWP$-6.9*STP$979.1*SLP$1004.6*VISIB$8.0*WDSP$27.4*PRCP$0.00*SNDP$0.0*FRSHTT$100000*CLDC$86.6*WNDDIR$326
STN$93790*DATE$2021-02-03*TIME$12:59:53*TEMP$-2.1*DEWP$-5.6*STP$1023.2*SLP$1016.3*VISIB$9.7*WDSP$18.0*PRCP$0.09*SNDP$1.0*FRSHTT$111000*CLDC$53.4*WNDDIR$28
STN$32090*DATE$2021-02-03*TIME$12:59:53*TEMP$1.7*DEWP$-0.4*STP$1002.0*SLP$1001.7*VISIB$23.0*WDSP$16.8*PRCP$0.00*SNDP$0.0*FRSHTT$000000*CLDC$79.0*WNDDIR$255
STN$62680*DATE$2021-02-03*TIME$12:59:53*TEMP$0.8*DEWP$-0.7*STP$1021.1*SLP$1016.8*VISIB$9.3*WDSP$27.9*PRCP$0.23*SNDP$0.0*FRSHTT$010000*CLDC$80.1*WNDDIR$282
STN$107290*DATE$2021-02-03*TIME$12:59:53*TEMP$-0.7*DEWP$-4.6*STP$1015.9*SLP$1019.5*VISIB$11.6*WDSP$8.8*PRCP$0.08*SNDP$0.0*FRSHTT$110000*CLDC$50.2*WNDDIR$125
STN$32080*DATE$2021-02-03*TIME$12:59:53*TEMP$2.4*DEWP$-0.3*STP$1009.3*SLP$1013.4*VISIB$23.6*WDSP$27.9*PRCP$0.10*SNDP$0.0*FRSHTT$010000*CLDC$50.1*WNDDIR$222
STN$725905*DATE$2021-02-03*TIME$12:59:53*TEMP$2.4*DEWP$-2.1*STP$1013.3*SLP$1017.9*VISIB$24.0*WDSP$3.9*PRCP$0.27*SNDP$0.0*FRSHTT$010000*CLDC$50.1*WNDDIR$24
STN$603550*DATE$2021-02-03*TIME$12:59:53*TEMP$5.8*DEWP$1.2*STP$1026.3*SLP$1021.0*VISIB$11.6*WDSP$11.6*PRCP$0.03*SNDP$0.0*FRSHTT$010000*CLDC$83.6*WNDDIR$65
STN$29670*DATE$2021-02-03*TIME$12:59:53*TEMP$-0.4*DEWP$-5.8*STP$1009.0*SLP$1009.1*VISIB$16.9*WDSP$35.7*PRCP$0.00*SNDP$0.0*FRSHTT$100000*CLDC$2.7*WNDDIR$105
STN$725915*DATE$2021-02-03*TIME$12:59:53*TEMP$1.1*DEWP$-7.7*STP$1001.6*SLP$1006.5*VISIB$59.3*WDSP$12.9*PRCP$0.03*SNDP$0.0*FRSHTT$010000*CLDC$74.8*WNDDIR$242
STN$125200*DATE$2021-02-03*TIME$12:59:53*TEMP$-3.1*DEWP$-5.7*STP$1010.9*SLP$1022.1*VISIB$10.2*WDSP$11.8*PRCP$0.02*SNDP$2.1*FRSHTT$111000*CLDC$74.2*WNDDIR$302
STN$968050*DATE$2021-02-03*TIME$12:59:53*TEMP$11.5*DEWP$7.6*STP$1009.7*SLP$1010.8*VISIB$10.8*WDSP$4.5*PRCP$0.64*SNDP$0.0*FRSHTT$010000*CLDC$50.4*WNDDIR$106
STN$478810*DATE$2021-02-03*TIME$12:59:53*TEMP$2.5*DEWP$-5.4*STP$1004.2*SLP$1002.4*VISIB$11.5*WDSP$17.5*PRCP$0.00*SNDP$0.0*FRSHTT$000000*CLDC$34.2*WNDDIR$159
STN$726000*DATE$2021-02-03*TIME$12:59:53*TEMP$-2.8*DEWP$-5.6*STP$1014.3*SLP$1014.2*VISIB$14.3*WDSP$36.8*PRCP$0.00*SNDP$0.0*FRSHTT$100000*CLDC$73.7*WNDDIR$188
STN$29580*DATE$2021-02-03*TIME$12:59:53*TEMP$-6.3*DEWP$-8.5*STP$1010.3*SLP$1012.3*VISIB$12.5*WDSP$12.3*PRCP$0.07*SNDP$14.5*FRSHTT$111000*CLDC$60.3*WNDDIR$183
STN$726010*DATE$2021-02-03*TIME$12:59:53*TEMP$-1.8*DEWP$-12.3*STP$1006.6*SLP$1010.7*VISIB$20.2*WDSP$33.0*PRCP$0.22*SNDP$0.0*FRSHTT$110000*CLDC$61.6*WNDDIR$169
STN$726958*DATE$2021-02-03*TIME$12:59:53*TEMP$2.9*DEWP$-0.7*STP$1016.9*SLP$1013.9*VISIB$17.7*WDSP$14.5*PRCP$0.05*SNDP$0.0*FRSHTT$010000*CLDC$75.8*WNDDIR$310
STN$726959*DATE$2021-02-03*TIME$12:59:53*TEMP$2.1*DEWP$-0.4*STP$1024.6*SLP$1018.7*VISIB$12.3*WDSP$5.7*PRCP$0.14*SNDP$0.0*FRSHTT$010000*CLDC$50.0*WNDDIR$163
STN$431170*DATE$2021-02-03*TIME$12:59:53*TEMP$29.4*DEWP$15.5*STP$1013.6*SLP$1012.8*VISIB$8.1*WDSP$4.4*PRCP$0.03*SNDP$0.0*FRSHTT$010000*CLDC$50.1*WNDDIR$253
STN$171160*DATE$2021-02-03*TIME$12:59:53*TEMP$1.0*DEWP$-3.0*STP$1015.6*SLP$1020.7*VISIB$10.8*WDSP$8.8*PRCP$0.28*SNDP$1.9*FRSHTT$011000*CLDC$50.2*WNDDIR$267
STN$294670*DATE$2021-02-03*TIME$12:59:53*TEMP$-10.0*DEWP$-13.5*STP$1035.3*SLP$1025.5*VISIB$12.1*WDSP$17.4*PRCP$0.01*SNDP$3.1*FRSHTT$111000*CLDC$50.2*WNDDIR$252
STN$477700*DATE$2021-02-03*TIME$12:59:53*TEMP$2.0*DEWP$-3.9*STP$1013.9*SLP$1020.6*VISIB$17.2*WDSP$15.5*PRCP$0.09*SNDP$0.0*FRSHTT$010000*CLDC$65.1*WNDDIR$352
STN$108950*DATE$2021-02-03*TIME$12:59:53*TEMP$-2.3*DEWP$-3.8*STP$961.9*SLP$1020.8*VISIB$21.6*WDSP$9.0*PRCP$0.05*SNDP$2.4*FRSHTT$111000*CLDC$84.4*WNDDIR$49
STN$726950*DATE$2021-02-03*TIME$12:59:53*TEMP$2.2*DEWP$0.4*STP$1000.2*SLP$1005.3*VISIB$11.8*WDSP$13.3*PRCP$0.00*SNDP$0.0*FRSHTT$000000*CLDC$26.6*WNDDIR$100
STN$477710*DATE$2021-02-03*TIME$12:59:53*TEMP$1.2*DEWP$-5.5*STP$1006.2*SLP$1007.4*VISIB$11.1*WDSP$11.1*PRCP$0.00*SNDP$0.0*FRSHTT$000000*CLDC$84.1*WNDDIR$209
STN$619880*DATE$2021-02-03*TIME$12:59:53*TEMP$21.6*DEWP$17.8*STP$1006.2*SLP$1011.3*VISIB$21.2*WDSP$19.0*PRCP$0.21*SNDP$0.0*FRSHTT$010000*CLDC$63.7*WNDDIR$347
STN$720265*DATE$2021-02-03*TIME$12:59:53*TEMP$2.0*DEWP$-1.4*STP$978.4*SLP$980.7*VISIB$16.6*WDSP$4.4*PRCP$0.00*SNDP$0.0*FRSHTT$000000*CLDC$71.6*WNDDIR$134
STN$720278*DATE$2021-02-03*TIME$12:59:53*TEMP$1.0*DEWP$-4.3*STP$1006.0*SLP$1029.4*VISIB$13.8*WDSP$3.4*PRCP$0.00*SNDP$0.0*FRSHTT$000000*CLDC$72.5*WNDDIR$191
STN$720279*DATE$2021-02-03*TIME$12:59:53*TEMP$1.0*DEWP$-7.1*STP$1002.6*SLP$983.8*VISIB$15.7*WDSP$11.4*PRCP$0.00*SNDP$0.0*FRSHTT$000000*CLDC$34.9*WNDDIR$135
STN$720277*DATE$2021-02-03*TIME$12:59:53*TEMP$0.0*DEWP$-11.0*STP$981.1*SLP$984.9*VISIB$12.8*WDSP$3.1*PRCP$0.00*SNDP$0.0*FRSHTT$000000*CLDC$65.4*WNDDIR$117
STN$720274*DATE$2021-02-03*TIME$12:59:53*TEMP$0.0*DEWP$-6.1*STP$1027.2*SLP$1013.2*VISIB$13.4*WDSP$1.9*PRCP$0.00*SNDP$0.0*FRSHTT$000000*CLDC$98.5*WNDDIR$121
STN$720275*DATE$2021-02-03*TIME$12:59:53*TEMP$-3.0*DEWP$-4.4*STP$1007.2*SLP$1012.5*VISIB$8.7*WDSP$6.9*PRCP$0.00*SNDP$0.0*FRSHTT$100000*CLDC$86.3*WNDDIR$165
STN$720273*DATE$2021-02-03*TIME$12:59:53*TEMP$18.3*DEWP$16.5*STP$1016.3*SLP$1011.6*VISIB$9.7*WDSP$19.9*PRCP$0.00*SNDP$0.0*FRSHTT$000000*CLDC$22.8*WNDDIR$316
STN$720286*DATE$2021-02-03*TIME$12:59:53*TEMP$-5.9*DEWP$-8.8*STP$1000.7*SLP$1000.6*VISIB$14.9*WDSP$6.1*PRCP$0.00*SNDP$0.0*FRSHTT$100000*CLDC$54.5*WNDDIR$252
STN$720287*DATE$2021-02-03*TIME$12:59:53*TEMP$11.2*DEWP$1.4*STP$1011.2*SLP$985.9*VISIB$14.0*WDSP$22.9*PRCP$0.00*SNDP$0.0*FRSHTT$000000*CLDC$8.6*WNDDIR$169
STN$962950*DATE$2021-02-03*TIME$12:59:53*TEMP$17.6*DEWP$15.8*STP$1037.8*SLP$1011.8*VISIB$11.7*WDSP$11.3*PRCP$0.00*SNDP$0.0*FRSHTT$000000*CLDC$5.7*WNDDIR$13
STN$722906*DATE$2021-02-03*TIME$12:59:53*TEMP$5.4*DEWP$-1.9*STP$1016.2*SLP$1018.1*VISIB$14.7*WDSP$7.6*PRCP$0.12*SNDP$0.0*FRSHTT$010000*CLDC$78.5*WNDDIR$314
STN$711070*DATE$2021-02-03*TIME$12:59:53*TEMP$2.2*DEWP$-0.4*STP$1005.9*SLP$1016.9*VISIB$17.5*WDSP$31.4*PRCP$0.12*SNDP$0.3*FRSHTT$011000*CLDC$60.3*WNDDIR$220
STN$722907*DATE$2021-02-03*TIME$12:59:53*TEMP$4.5*DEWP$-0.8*STP$999.7*SLP$999.5*VISIB$17.5*WDSP$7.4*PRCP$0.43*SNDP$0.0*FRSHTT$010000*CLDC$74.5*WNDDIR$1
STN$711071*DATE$2021-02-03*TIME$12:59:53*TEMP$3.3*DEWP$2.1*STP$985.6*SLP$1000.6*VISIB$18.2*WDSP$47.7*PRCP$0.28*SNDP$0.0*FRSHTT$010000*CLDC$50.0*WNDDIR$115
STN$722908*DATE$2021-02-03*TIME$12:59:53*TEMP$3.7*DEWP$-4.7*STP$1008.7*SLP$1016.7*VISIB$17.8*WDSP$7.6*PRCP$0.19*SNDP$0.0*FRSHTT$010000*CLDC$50.2*WNDDIR$93
STN$722909*DATE$2021-02-03*TIME$12:59:53*TEMP$2.8*DEWP$2.6*STP$1012.7*SLP$1013.6*VISIB$8.9*WDSP$6.3*PRCP$0.00*SNDP$0.0*FRSHTT$000000*CLDC$92.4*WNDDIR$308
STN$722910*DATE$2021-02-03*TIME$12:59:53*TEMP$7.4*DEWP$1.7*STP$1003.1*SLP$1017.7*VISIB$29.9*WDSP$14.4*PRCP$0.09*SNDP$0.0*FRSHTT$010000*CLDC$56.7*WNDDIR$336
STN$711060*DATE$2021-02-03*TIME$12:59:53*TEMP$1.1*DEWP$-1.2*STP$1014.6*SLP$1015.6*VISIB$18.0*WDSP$12.1*PRCP$0.18*SNDP$0.0*FRSHTT$010000*CLDC$50.1*WNDDIR$143
STN$722897*DATE$2021-02-03*TIME$12:59:53*TEMP$4.2*DEWP$-1.2*STP$1005.0*SLP$1004.3*VISIB$20.4*WDSP$8.4*PRCP$0.12*SNDP$0.0*FRSHTT$010000*CLDC$50.1*WNDDIR$200
STN$722899*DATE$2021-02-03*TIME$12:59:53*TEMP$0.6*DEWP$-7.1*STP$1003.5*SLP$1017.6*VISIB$12.5*WDSP$7.7*PRCP$0.11*SNDP$0.0*FRSHTT$010000*CLDC$50.4*WNDDIR$68
STN$724243*DATE$2021-02-03*TIME$12:59:53*TEMP$-1.7*DEWP$-7.1*STP$1012.1*SLP$1018.9*VISIB$14.0*WDSP$11.6*PRCP$0.14*SNDP$0.0*FRSHTT$110000*CLDC$53.8*WNDDIR$24
STN$479420*DATE$2021-02-03*TIME$12:59:53*TEMP$12.9*DEWP$5.8*STP$1010.3*SLP$1013.4*VISIB$14.2*WDSP$19.3*PRCP$0.13*SNDP$0.0*FRSHTT$010000*CLDC$74.0*WNDDIR$170
STN$250340*DATE$2021-02-03*TIME$12:59:53*TEMP$-29.7*DEWP$-32.6*STP$1069.8*SLP$1038.6*VISIB$19.2*WDSP$14.8*PRCP$0.00*SNDP$0.0*FRSHTT$100000*CLDC$62.8*WNDDIR$35
STN$410550*DATE$2021-02-03*TIME$12:59:53*TEMP$10.0*DEWP$-3.0*STP$869.1*SLP$870.3*VISIB$9.6*WDSP$12.6*PRCP$0.01*SNDP$0.0*FRSHTT$010000*CLDC$50.3*WNDDIR$253
STN$724250*DATE$2021-02-03*TIME$12:59:53*TEMP$-3.2*DEWP$-7.9*STP$990.4*SLP$1020.1*VISIB$14.3*WDSP$11.1*PRCP$0.19*SNDP$1.4*FRSHTT$111000*CLDC$50.2*WNDDIR$261
STN$80550*DATE$2021-02-03*TIME$12:59:53*TEMP$0.4*DEWP$-4.2*STP$913.6*SLP$916.7*VISIB$14.5*WDSP$10.3*PRCP$0.02*SNDP$0.0*FRSHTT$010000*CLDC$50.7*WNDDIR$158
STN$479400*DATE$2021-02-03*TIME$12:59:53*TEMP$13.3*DEWP$6.5*STP$1019.6*SLP$1020.3*VISIB$14.7*WDSP$13.4*PRCP$0.05*SNDP$0.0*FRSHTT$010000*CLDC$50.1*WNDDIR$351
STN$724230*DATE$2021-02-03*TIME$12:59:53*TEMP$-2.5*DEWP$-6.9*STP$1002.9*SLP$1021.0*VISIB$12.6*WDSP$13.5*PRCP$0.21*SNDP$0.9*FRSHTT$111000*CLDC$50.3*WNDDIR$133
STN$724233*DATE$2021-02-03*TIME$12:59:53*TEMP$-3.7*DEWP$-8.8*STP$1020.3*SLP$1016.9*VISIB$13.5*WDSP$13.2*PRCP$0.19*SNDP$0.0*FRSHTT$110000*CLDC$81.5*WNDDIR$332
STN$724235*DATE$2021-02-03*TIME$12:59:53*TEMP$-2.4*DEWP$-7.5*STP$1002.6*SLP$1003.8*VISIB$11.5*WDSP$13.8*PRCP$0.04*SNDP$0.0*FRSHTT$110000*CLDC$58.8*WNDDIR$273
STN$725069*DATE$2021-02-03*TIME$12:59:53*TEMP$3.8*DEWP$1.9*STP$1027.4*SLP$1012.9*VISIB$8.4*WDSP$11.3*PRCP$0.02*SNDP$0.0*FRSHTT$010000*CLDC$50.4*WNDDIR$313
STN$725068*DATE$2021-02-03*TIME$12:59:53*TEMP$-5.0*DEWP$-9.3*STP$1011.5*SLP$1016.0*VISIB$14.7*WDSP$18.0*PRCP$0.03*SNDP$0.0*FRSHTT$110000*CLDC$60.9*WNDDIR$88
STN$725067*DATE$2021-02-03*TIME$12:59:53*TEMP$-3.7*DEWP$-8.9*STP$1010.5*SLP$1007.3*VISIB$16.5*WDSP$18.1*PRCP$0.07*SNDP$0.0*FRSHTT$110000*CLDC$70.0*WNDDIR$64
STN$725066*DATE$2021-02-03*TIME$12:59:53*TEMP$-4.4*DEWP$-9.2*STP$1023.7*SLP$1018.2*VISIB$13.1*WDSP$15.2*PRCP$0.16*SNDP$0.0*FRSHTT$110000*CLDC$50.3*WNDDIR$169
STN$725065*DATE$2021-02-03*TIME$12:59:53*TEMP$-3.8*DEWP$-8.5*STP$1017.7*SLP$1014.6*VISIB$15.9*WDSP$13.2*PRCP$0.39*SNDP$0.0*FRSHTT$110000*CLDC$50.2*WNDDIR$105
STN$725064*DATE$2021-02-03*TIME$12:59:53*TEMP$-4.4*DEWP$-8.7*STP$1010.2*SLP$1019.2*VISIB$14.8*WDSP$14.3*PRCP$0.11*SNDP$0.0*FRSHTT$110000*CLDC$68.6*WNDDIR$76
STN$725063*DATE$2021-02-03*TIME$12:59:53*TEMP$-3.1*DEWP$-6.0*STP$1010.6*SLP$1010.8*VISIB$13.0*WDSP$22.4*PRCP$0.13*SNDP$0.0*FRSHTT$110000*CLDC$50.0*WNDDIR$342
STN$75770*DATE$2021-02-03*TIME$12:59:53*TEMP$1.6*DEWP$-1.4*STP$1012.0*SLP$1020.5*VISIB$12.2*WDSP$15.4*PRCP$0.23*SNDP$0.1*FRSHTT$011000*CLDC$50.3*WNDDIR$256
STN$725061*DATE$2021-02-03*TIME$12:59:53*TEMP$-1.5*DEWP$-4.6*STP$1007.5*SLP$1013.6*VISIB$14.8*WDSP$23.4*PRCP$0.12*SNDP$0.0*FRSHTT$110000*CLDC$50.4*WNDDIR$275
STN$478700*DATE$2021-02-03*TIME$12:59:53*TEMP$9.1*DEWP$2.8*STP$999.2*SLP$998.3*VISIB$10.5*WDSP$18.6*PRCP$0.00*SNDP$0.0*FRSHTT$000000*CLDC$42.5*WNDDIR$349
STN$637910*DATE$2021-02-03*TIME$12:59:53*TEMP$7.2*DEWP$0.9*STP$912.7*SLP$924.0*VISIB$17.0*WDSP$8.9*PRCP$0.00*SNDP$0.0*FRSHTT$000000*CLDC$70.3*WNDDIR$91
STN$171890*DATE$2021-02-03*TIME$12:59:53*TEMP$-7.8*DEWP$-11.4*STP$912.1*SLP$932.0*VISIB$10.3*WDSP$4.9*PRCP$0.00*SNDP$0.0*FRSHTT$100000*CLDC$64.1*WNDDIR$304
STN$726083*DATE$2021-02-03*TIME$12:59:53*TEMP$-9.8*DEWP$-13.0*STP$1009.6*SLP$1015.0*VISIB$12.6*WDSP$14.2*PRCP$0.08*SNDP$0.0*FRSHTT$110000*CLDC$54.7*WNDDIR$65
STN$232560*DATE$2021-02-03*TIME$12:59:53*TEMP$-14.9*DEWP$-16.7*STP$1015.7*SLP$1018.2*VISIB$11.5*WDSP$18.9*PRCP$0.01*SNDP$12.7*FRSHTT$111000*CLDC$88.2*WNDDIR$100
STN$845010*DATE$2021-02-03*TIME$12:59:53*TEMP$16.3*DEWP$13.4*STP$1008.3*SLP$1011.7*VISIB$11.7*WDSP$15.2*PRCP$0.00*SNDP$0.0*FRSHTT$000000*CLDC$70.1*WNDDIR$177
STN$74750*DATE$2021-02-03*TIME$12:59:53*TEMP$0.9*DEWP$-3.1*STP$990.0*SLP$1017.9*VISIB$10.4*WDSP$8.8*PRCP$0.01*SNDP$0.1*FRSHTT$011000*CLDC$98.5*WNDDIR$114
STN$477670*DATE$2021-02-03*TIME$12:59:53*TEMP$-0.5*DEWP$-6.5*STP$1021.5*SLP$*VISIB$19.0*WDSP$7.5*PRCP$0.08*SNDP$0.0*FRSHTT$110000*CLDC$50.2*WNDDIR$155
STN$356330*DATE$2021-02-03*TIME$12:59:53*TEMP$-9.5*DEWP$-11.9*STP$1024.7*SLP$1018.7*VISIB$13.2*WDSP$14.0*PRCP$0.02*SNDP$0.4*FRSHTT$111000*CLDC$50.1*WNDDIR$192
STN$637890*DATE$2021-02-03*TIME$12:59:53*TEMP$8.7*DEWP$5.5*STP$981.5*SLP$987.9*VISIB$11.9*WDSP$8.1*PRCP$0.00*SNDP$0.0*FRSHTT$000000*CLDC$68.0*WNDDIR$156
STN$29750*DATE$2021-02-03*TIME$12:59:53*TEMP$-7.0*DEWP$-9.0*STP$1004.9*SLP$1005.5*VISIB$8.9*WDSP$13.5*PRCP$0.00*SNDP$0.0*FRSHTT$100000*CLDC$27.7*WNDDIR$189
STN$726516*DATE$2021-02-03*TIME$12:59:53*TEMP$-7.0*DEWP$-11.5*STP$1013.9*SLP$1018.7*VISIB$14.4*WDSP$13.1*PRCP$0.02*SNDP$0.0*FRSHTT$110000*CLDC$69.7*WNDDIR$319
STN$726515*DATE$2021-02-03*TIME$12:59:53*TEMP$-12.9*DEWP$-18.5*STP$1010.2*SLP$1001.2*VISIB$15.6*WDSP$17.2*PRCP$0.02*SNDP$0.0*FRSHTT$110000*CLDC$60.0*WNDDIR$210
STN$726514*DATE$2021-02-03*TIME$12:59:53*TEMP$-7.3*DEWP$-16.2*STP$1012.3*SLP$1015.9*VISIB$15.8*WDSP$9.8*PRCP$0.00*SNDP$0.0*FRSHTT$100000*CLDC$55.5*WNDDIR$283
STN$726409*DATE$2021-02-03*TIME$12:59:53*TEMP$-5.6*DEWP$-8.9*STP$997.3*SLP$998.3*VISIB$11.9*WDSP$17.6*PRCP$0.00*SNDP$0.0*FRSHTT$100000*CLDC$32.9*WNDDIR$334
STN$726410*DATE$2021-02-03*TIME$12:59:53*TEMP$-11.4*DEWP$-15.2*STP$989.0*SLP$1021.1*VISIB$13.2*WDSP$14.6*PRCP$0.03*SNDP$5.5*FRSHTT$111000*CLDC$92.4*WNDDIR$57
STN$726413*DATE$2021-02-03*TIME$12:59:53*TEMP$-6.7*DEWP$-9.7*STP$996.3*SLP$992.0*VISIB$12.2*WDSP$12.5*PRCP$0.00*SNDP$0.0*FRSHTT$100000*CLDC$59.3*WNDDIR$255
STN$726414*DATE$2021-02-03*TIME$12:59:53*TEMP$-21.0*DEWP$-25.5*STP$1020.7*SLP$1004.8*VISIB$14.8*WDSP$22.5*PRCP$0.00*SNDP$0.0*FRSHTT$100000*CLDC$65.9*WNDDIR$280
STN$726415*DATE$2021-02-03*TIME$12:59:53*TEMP$-9.1*DEWP$-11.4*STP$1002.1*SLP$1007.5*VISIB$12.4*WDSP$14.6*PRCP$0.00*SNDP$0.0*FRSHTT$100000*CLDC$91.1*WNDDIR$226
STN$307310*DATE$2021-02-03*TIME$12:59:53*TEMP$-10.0*DEWP$-13.9*STP$1009.5*SLP$1030.9*VISIB$39.8*WDSP$4.9*PRCP$0.01*SNDP$10.1*FRSHTT$111000*CLDC$97.3*WNDDIR$39
STN$726400*DATE$2021-02-03*TIME$12:59:53*TEMP$-9.6*DEWP$-14.4*STP$995.4*SLP$1020.8*VISIB$13.8*WDSP$18.2*PRCP$0.07*SNDP$5.3*FRSHTT$111000*CLDC$60.8*WNDDIR$271
STN$723710*DATE$2021-02-03*TIME$12:59:53*TEMP$-0.6*DEWP$-9.9*STP$927.2*SLP$1018.2*VISIB$14.6*WDSP$6.8*PRCP$0.00*SNDP$0.0*FRSHTT$100000*CLDC$22.8*WNDDIR$104
STN$723740*DATE$2021-02-03*TIME$12:59:53*TEMP$-4.8*DEWP$-14.8*STP$889.4*SLP$1020.3*VISIB$26.6*WDSP$12.5*PRCP$0.00*SNDP$0.0*FRSHTT$100000*CLDC$55.4*WNDDIR$262
STN$601360*DATE$2021-02-03*TIME$12:59:53*TEMP$4.9*DEWP$-1.2*STP$1014.2*SLP$1021.3*VISIB$24.8*WDSP$8.2*PRCP$0.15*SNDP$0.0*FRSHTT$010000*CLDC$60.1*WNDDIR$55
STN$272250*DATE$2021-02-03*TIME$12:59:53*TEMP$-7.4*DEWP$-10.0*STP$1011.0*SLP$1016.0*VISIB$11.7*WDSP$13.0*PRCP$0.06*SNDP$9.6*FRSHTT$111000*CLDC$52.2*WNDDIR$261
STN$586590*DATE$2021-02-03*TIME$12:59:53*TEMP$4.7*DEWP$-0.3*STP$1023.6*SLP$1025.0*VISIB$13.9*WDSP$7.7*PRCP$0.06*SNDP$0.0*FRSHTT$010000*CLDC$50.2*WNDDIR$136
STN$287660*DATE$2021-02-03*TIME$12:59:53*TEMP$-12.3*DEWP$-15.1*STP$1020.0*SLP$1025.7*VISIB$9.4*WDSP$13.0*PRCP$0.02*SNDP$5.0*FRSHTT$111000*CLDC$50.1*WNDDIR$213
STN$571270*DATE$2021-02-03*TIME$12:59:53*TEMP$0.7*DEWP$-4.6*STP$982.7*SLP$1026.6*VISIB$11.6*WDSP$5.0*PRCP$0.02*SNDP$0.0*FRSHTT$010000*CLDC$50.1*WNDDIR$350
STN$723721*DATE$2021-02-03*TIME$12:59:53*TEMP$-0.6*DEWP$-8.5*STP$845.6*SLP$1018.0*VISIB$50.8*WDSP$11.7*PRCP$0.11*SNDP$0.5*FRSHTT$111000*CLDC$50.1*WNDDIR$347
STN$306920*DATE$2021-02-03*TIME$12:59:53*TEMP$-31.3*DEWP$-38.2*STP$1021.3*SLP$1027.9*VISIB$34.9*WDSP$7.8*PRCP$0.01*SNDP$3.1*FRSHTT$111000*CLDC$50.3*WNDDIR$255
STN$601350*DATE$2021-02-03*TIME$12:59:53*TEMP$4.6*DEWP$0.6*STP$1021.6*SLP$1021.5*VISIB$7.7*WDSP$10.9*PRCP$0.13*SNDP$0.0*FRSHTT$010000*CLDC$82.6*WNDDIR$33
STN$727815*DATE$2021-02-03*TIME$12:59:53*TEMP$-3.5*DEWP$-6.6*STP$910.5*SLP$1021.4*VISIB$26.0*WDSP$15.1*PRCP$0.08*SNDP$44.1*FRSHTT$111000*CLDC$50.2*WNDDIR$340
STN$605450*DATE$2021-02-03*TIME$12:59:53*TEMP$3.2*DEWP$-1.0*STP$1006.8*SLP$998.0*VISIB$14.2*WDSP$18.0*PRCP$0.00*SNDP$0.0*FRSHTT$000000*CLDC$5.8*WNDDIR$252
STN$476840*DATE$2021-02-03*TIME$12:59:53*TEMP$-0.9*DEWP$-7.1*STP$1012.4*SLP$1019.6*VISIB$26.7*WDSP$7.6*PRCP$0.17*SNDP$0.0*FRSHTT$110000*CLDC$50.3*WNDDIR$216
STN$970140*DATE$2021-02-03*TIME$12:59:53*TEMP$23.9*DEWP$21.1*STP$1002.4*SLP$1011.8*VISIB$7.7*WDSP$1.6*PRCP$3.52*SNDP$0.0*FRSHTT$010000*CLDC$53.4*WNDDIR$211
STN$865750*DATE$2021-02-03*TIME$12:59:53*TEMP$14.4*DEWP$6.7*STP$1017.3*SLP$1014.2*VISIB$12.6*WDSP$15.9*PRCP$0.04*SNDP$0.0*FRSHTT$010000*CLDC$50.2*WNDDIR$100
STN$727810*DATE$2021-02-03*TIME$12:59:53*TEMP$-2.9*DEWP$-7.0*STP$986.6*SLP$1022.2*VISIB$22.5*WDSP$10.5*PRCP$0.03*SNDP$1.8*FRSHTT$111000*CLDC$50.5*WNDDIR$68
STN$727930*DATE$2021-02-03*TIME$12:59:53*TEMP$1.5*DEWP$-2.9*STP$1003.6*SLP$1018.0*VISIB$22.3*WDSP$15.6*PRCP$0.21*SNDP$0.5*FRSHTT$011000*CLDC$50.0*WNDDIR$34
STN$727928*DATE$2021-02-03*TIME$12:59:53*TEMP$0.3*DEWP$-2.5*STP$994.2*SLP$1004.2*VISIB$17.0*WDSP$13.6*PRCP$0.00*SNDP$0.0*FRSHTT$000000*CLDC$60.6*WNDDIR$354
STN$476880*DATE$2021-02-03*TIME$12:59:53*TEMP$3.5*DEWP$-5.5*STP$999.7*SLP$1000.8*VISIB$11.1*WDSP$19.4*PRCP$0.00*SNDP$0.0*FRSHTT$000000*CLDC$68.1*WNDDIR$295
STN$727934*DATE$2021-02-03*TIME$12:59:53*TEMP$1.2*DEWP$-4.3*STP$1014.4*SLP$1010.2*VISIB$23.1*WDSP$11.3*PRCP$0.10*SNDP$0.0*FRSHTT$010000*CLDC$50.4*WNDDIR$64
STN$488030*DATE$2021-02-03*TIME$12:59:53*TEMP$11.1*DEWP$10.1*STP$1032.6*SLP$1020.7*VISIB$5.0*WDSP$1.7*PRCP$0.00*SNDP$0.0*FRSHTT$000000*CLDC$34.8*WNDDIR$289
STN$763503*DATE$2021-02-03*TIME$12:59:53*TEMP$12.2*DEWP$6.1*STP$1012.4*SLP$1011.3*VISIB$11.0*WDSP$14.2*PRCP$0.00*SNDP$0.0*FRSHTT$000000*CLDC$61.4*WNDDIR$38
STN$670950*DATE$2021-02-03*TIME$12:59:53*TEMP$22.9*DEWP$20.4*STP$1008.5*SLP$1009.1*VISIB$16.1*WDSP$8.7*PRCP$0.55*SNDP$0.0*FRSHTT$010000*CLDC$50.1*WNDDIR$339
STN$717220*DATE$2021-02-03*TIME$12:59:53*TEMP$-22.5*DEWP$-25.3*STP$1000.1*SLP$1018.4*VISIB$17.5*WDSP$6.4*PRCP$0.03*SNDP$16.9*FRSHTT$111000*CLDC$50.3*WNDDIR$229
STN$471300*DATE$2021-02-03*TIME$12:59:53*TEMP$-2.9*DEWP$-11.4*STP$1018.7*SLP$1021.6*VISIB$22.2*WDSP$15.9*PRCP$0.05*SNDP$0.0*FRSHTT$110000*CLDC$66.8*WNDDIR$165
STN$298380*DATE$2021-02-03*TIME$12:59:53*TEMP$-9.9*DEWP$-12.7*STP$1020.6*SLP$1031.9*VISIB$8.9*WDSP$14.1*PRCP$0.03*SNDP$8.3*FRSHTT$111000*CLDC$77.0*WNDDIR$322
STN$701160*DATE$2021-02-03*TIME$12:59:53*TEMP$-16.9*DEWP$-22.0*STP$1025.3*SLP$1022.3*VISIB$19.2*WDSP$37.3*PRCP$0.00*SNDP$0.0*FRSHTT$100000*CLDC$35.0*WNDDIR$93
STN$104020*DATE$2021-02-03*TIME$12:59:53*TEMP$-0.6*DEWP$-2.9*STP$1013.7*SLP$1015.6*VISIB$6.0*WDSP$14.6*PRCP$0.10*SNDP$0.4*FRSHTT$111000*CLDC$70.6*WNDDIR$122
STN$488896*DATE$2021-02-03*TIME$12:59:53*TEMP$9.4*DEWP$2.0*STP$1009.7*SLP$1015.4*VISIB$15.6*WDSP$12.4*PRCP$0.00*SNDP$0.0*FRSHTT$000000*CLDC$78.7*WNDDIR$110
STN$471310*DATE$2021-02-03*TIME$12:59:53*TEMP$-6.4*DEWP$-11.9*STP$1021.7*SLP$1024.4*VISIB$15.2*WDSP$4.9*PRCP$0.02*SNDP$0.2*FRSHTT$111000*CLDC$71.0*WNDDIR$131
STN$339830*DATE$2021-02-03*TIME$12:59:53*TEMP$-2.2*DEWP$-3.8*STP$1017.1*SLP$1019.5*VISIB$8.2*WDSP$18.7*PRCP$0.04*SNDP$0.5*FRSHTT$111000*CLDC$50.5*WNDDIR$140
STN$323890*DATE$2021-02-03*TIME$12:59:53*TEMP$-15.4*DEWP$-17.6*STP$1007.1*SLP$1005.0*VISIB$19.5*WDSP$13.2*PRCP$0.12*SNDP$15.7*FRSHTT$111000*CLDC$88.3*WNDDIR$154
STN$431100*DATE$2021-02-03*TIME$12:59:53*TEMP$30.5*DEWP$20.1*STP$1014.2*SLP$1012.9*VISIB$8.6*WDSP$7.7*PRCP$0.00*SNDP$0.0*FRSHTT$000000*CLDC$27.7*WNDDIR$156
STN$725015*DATE$2021-02-03*TIME$12:59:53*TEMP$-5.3*DEWP$-11.2*STP$1021.3*SLP$1017.6*VISIB$14.1*WDSP$9.7*PRCP$0.12*SNDP$0.0*FRSHTT$110000*CLDC$57.1*WNDDIR$0
STN$231460*DATE$2021-02-03*TIME$12:59:53*TEMP$-17.9*DEWP$-20.4*STP$1023.4*SLP$1016.3*VISIB$11.0*WDSP$20.5*PRCP$0.05*SNDP$6.2*FRSHTT$111000*CLDC$89.2*WNDDIR$193
STN$28790*DATE$2021-02-03*TIME$12:59:53*TEMP$-8.6*DEWP$-9.9*STP$1010.8*SLP$1010.2*VISIB$18.7*WDSP$8.4*PRCP$0.08*SNDP$18.7*FRSHTT$111000*CLDC$69.0*WNDDIR$70
STN$135860*DATE$2021-02-03*TIME$12:59:53*TEMP$-1.1*DEWP$-4.2*STP$1008.5*SLP$1018.5*VISIB$8.0*WDSP$6.5*PRCP$0.03*SNDP$0.5*FRSHTT$111000*CLDC$69.6*WNDDIR$337
STN$725054*DATE$2021-02-03*TIME$12:59:53*TEMP$-6.8*DEWP$-10.3*STP$1008.8*SLP$1006.5*VISIB$11.3*WDSP$16.7*PRCP$0.00*SNDP$0.0*FRSHTT$100000*CLDC$70.3*WNDDIR$321
STN$28740*DATE$2021-02-03*TIME$12:59:53*TEMP$-5.2*DEWP$-7.2*STP$1020.1*SLP$1009.8*VISIB$17.0*WDSP$12.9*PRCP$0.04*SNDP$12.7*FRSHTT$111000*CLDC$50.2*WNDDIR$349
STN$725040*DATE$2021-02-03*TIME$12:59:53*TEMP$-4.7*DEWP$-10.2*STP$1016.7*SLP$1018.2*VISIB$19.9*WDSP$21.1*PRCP$0.27*SNDP$2.1*FRSHTT$111000*CLDC$50.4*WNDDIR$354
STN$255380*DATE$2021-02-03*TIME$12:59:53*TEMP$-45.2*DEWP$-49.9*STP$1042.4*SLP$1044.4*VISIB$26.6*WDSP$2.2*PRCP$0.00*SNDP$0.0*FRSHTT$100000*CLDC$17.4*WNDDIR$343
STN$84510*DATE$2021-02-03*TIME$12:59:53*TEMP$3.5*DEWP$-0.1*STP$1022.4*SLP$1022.6*VISIB$11.5*WDSP$12.7*PRCP$0.09*SNDP$0.0*FRSHTT$010000*CLDC$67.9*WNDDIR$36
STN$943740*DATE$2021-02-03*TIME$12:59:53*TEMP$21.5*DEWP$16.9*STP$1007.0*SLP$1010.0*VISIB$27.4*WDSP$12.1*PRCP$0.15*SNDP$0.0*FRSHTT$010000*CLDC$68.2*WNDDIR$98
STN$364420*DATE$2021-02-03*TIME$12:59:53*TEMP$-14.3*DEWP$-13.6*STP$1016.4*SLP$1019.2*VISIB$29.6*WDSP$14.1*PRCP$0.00*SNDP$1.6*FRSHTT$101000*CLDC$50.8*WNDDIR$38
STN$22880*DATE$2021-02-03*TIME$12:59:53*TEMP$-6.7*DEWP$-9.6*STP$1006.9*SLP$1006.6*VISIB$20.3*WDSP$24.4*PRCP$0.07*SNDP$0.0*FRSHTT$110000*CLDC$90.9*WNDDIR$171
STN$573780*DATE$2021-02-03*TIME$12:59:53*TEMP$0.4*DEWP$-4.8*STP$1026.1*SLP$1026.2*VISIB$13.0*WDSP$9.3*PRCP$0.07*SNDP$0.0*FRSHTT$010000*CLDC$50.0*WNDDIR$245
STN$467060*DATE$2021-02-03*TIME$12:59:53*TEMP$12.8*DEWP$9.4*STP$1020.8*SLP$1021.0*VISIB$12.4*WDSP$12.7*PRCP$0.72*SNDP$0.0*FRSHTT$010000*CLDC$72.6*WNDDIR$146
STN$943630*DATE$2021-02-03*TIME$12:59:53*TEMP$23.4*DEWP$11.7*STP$990.2*SLP$1010.6*VISIB$49.9*WDSP$5.6*PRCP$0.00*SNDP$0.0*FRSHTT$000000*CLDC$79.0*WNDDIR$14
STN$100150*DATE$2021-02-03*TIME$12:59:53*TEMP$0.7*DEWP$-1.4*STP$1014.8*SLP$1014.8*VISIB$12.9*WDSP$31.8*PRCP$0.11*SNDP$0.0*FRSHTT$010000*CLDC$62.5*WNDDIR$178
STN$224380*DATE$2021-02-03*TIME$12:59:53*TEMP$-9.4*DEWP$-10.7*STP$1013.7*SLP$1009.7*VISIB$15.0*WDSP$22.2*PRCP$0.07*SNDP$0.5*FRSHTT$111000*CLDC$74.3*WNDDIR$309
STN$353210*DATE$2021-02-03*TIME$12:59:53*TEMP$-6.9*DEWP$-10.8*STP$993.0*SLP$1015.7*VISIB$6.6*WDSP$5.2*PRCP$0.00*SNDP$10.9*FRSHTT$101000*CLDC$50.4*WNDDIR$251
STN$744659*DATE$2021-02-03*TIME$12:59:53*TEMP$-12.5*DEWP$-22.1*STP$997.2*SLP$998.0*VISIB$17.0*WDSP$15.1*PRCP$0.00*SNDP$0.0*FRSHTT$100000*CLDC$35.9*WNDDIR$117
STN$61930*DATE$2021-02-03*TIME$12:59:53*TEMP$-0.6*DEWP$-2.8*STP$1014.8*SLP$1014.2*VISIB$13.9*WDSP$34.7*PRCP$0.10*SNDP$0.6*FRSHTT$111000*CLDC$50.8*WNDDIR$133
STN$744658*DATE$2021-02-03*TIME$12:59:53*TEMP$-3.5*DEWP$-7.5*STP$990.0*SLP$979.3*VISIB$12.8*WDSP$12.9*PRCP$0.00*SNDP$0.0*FRSHTT$100000*CLDC$53.5*WNDDIR$305
STN$744657*DATE$2021-02-03*TIME$12:59:53*TEMP$-11.1*DEWP$-21.0*STP$1016.1*SLP$996.8*VISIB$15.7*WDSP$17.8*PRCP$0.00*SNDP$0.0*FRSHTT$100000*CLDC$27.1*WNDDIR$277
STN$744656*DATE$2021-02-03*TIME$12:59:53*TEMP$-13.3*DEWP$-21.2*STP$1000.0*SLP$1013.2*VISIB$15.7*WDSP$9.6*PRCP$0.00*SNDP$0.0*FRSHTT$100000*CLDC$65.8*WNDDIR$251
STN$476600*DATE$2021-02-03*TIME$12:59:53*TEMP$-1.3*DEWP$-10.8*STP$1002.3*SLP$1007.5*VISIB$13.1*WDSP$10.4*PRCP$0.00*SNDP$0.0*FRSHTT$100000*CLDC$21.0*WNDDIR$219
STN$744663*DATE$2021-02-03*TIME$12:59:53*TEMP$-6.8*DEWP$-7.1*STP$973.1*SLP$963.5*VISIB$3.7*WDSP$6.8*PRCP$0.00*SNDP$0.0*FRSHTT$100000*CLDC$30.8*WNDDIR$276
STN$744662*DATE$2021-02-03*TIME$12:59:53*TEMP$-7.0*DEWP$-9.6*STP$1003.6*SLP$1011.6*VISIB$10.6*WDSP$15.2*PRCP$0.00*SNDP$0.0*FRSHTT$100000*CLDC$42.4*WNDDIR$266
STN$744661*DATE$2021-02-03*TIME$12:59:53*TEMP$-2.5*DEWP$-5.7*STP$989.3*SLP$990.1*VISIB$10.2*WDSP$15.5*PRCP$0.00*SNDP$0.0*FRSHTT$100000*CLDC$86.8*WNDDIR$40
STN$585270*DATE$2021-02-03*TIME$12:59:53*TEMP$2.2*DEWP$-2.2*STP$1021.2*SLP$1025.1*VISIB$10.6*WDSP$5.9*PRCP$0.16*SNDP$0.0*FRSHTT$010000*CLDC$76.4*WNDDIR$184
STN$827950*DATE$2021-02-03*TIME$12:59:53*TEMP$18.4*DEWP$10.6*STP$993.7*SLP$986.0*VISIB$11.7*WDSP$15.7*PRCP$0.00*SNDP$0.0*FRSHTT$000000*CLDC$99.3*WNDDIR$26
STN$726625*DATE$2021-02-03*TIME$12:59:53*TEMP$-4.2*DEWP$-10.6*STP$950.9*SLP$1020.3*VISIB$40.6*WDSP$15.8*PRCP$0.01*SNDP$0.5*FRSHTT$111000*CLDC$50.2*WNDDIR$144
STN$431500*DATE$2021-02-03*TIME$12:59:53*TEMP$22.9*DEWP$17.7*STP$1004.9*SLP$1014.2*VISIB$4.6*WDSP$6.7*PRCP$0.01*SNDP$0.0*FRSHTT$010000*CLDC$50.2*WNDDIR$96
STN$171350*DATE$2021-02-03*TIME$12:59:53*TEMP$3.4*DEWP$0.1*STP$926.3*SLP$1013.8*VISIB$19.2*WDSP$6.6*PRCP$0.16*SNDP$0.0*FRSHTT$010000*CLDC$88.9*WNDDIR$275
STN$726626*DATE$2021-02-03*TIME$12:59:53*TEMP$-8.7*DEWP$-11.2*STP$1006.5*SLP$1005.3*VISIB$13.7*WDSP$18.3*PRCP$0.09*SNDP$0.7*FRSHTT$111000*CLDC$67.1*WNDDIR$270
STN$30230*DATE$2021-02-03*TIME$12:59:53*TEMP$1.4*DEWP$0.9*STP$977.0*SLP$977.4*VISIB$13.8*WDSP$39.2*PRCP$0.96*SNDP$0.0*FRSHTT$010000*CLDC$80.4*WNDDIR$274
STN$742060*DATE$2021-02-03*TIME$12:59:53*TEMP$0.9*DEWP$-2.9*STP$1016.4*SLP$1019.4*VISIB$12.4*WDSP$7.9*PRCP$0.19*SNDP$0.2*FRSHTT$011000*CLDC$98.1*WNDDIR$140
STN$478150*DATE$2021-02-03*TIME$12:59:53*TEMP$1.4*DEWP$-6.1*STP$1019.7*SLP$1021.1*VISIB$24.4*WDSP$9.7*PRCP$0.08*SNDP$0.0*FRSHTT$010000*CLDC$50.1*WNDDIR$293
STN$30250*DATE$2021-02-03*TIME$12:59:53*TEMP$2.8*DEWP$0.2*STP$1002.2*SLP$1007.2*VISIB$22.4*WDSP$37.1*PRCP$0.00*SNDP$0.0*FRSHTT$000000*CLDC$16.4*WNDDIR$104
STN$594310*DATE$2021-02-03*TIME$12:59:53*TEMP$4.1*DEWP$-0.5*STP$1013.3*SLP$1020.4*VISIB$12.5*WDSP$6.0*PRCP$0.04*SNDP$0.0*FRSHTT$010000*CLDC$50.3*WNDDIR$38
STN$39600*DATE$2021-02-03*TIME$12:59:53*TEMP$1.6*DEWP$-1.2*STP$1009.4*SLP$1012.0*VISIB$19.8*WDSP$12.7*PRCP$0.18*SNDP$0.0*FRSHTT$010000*CLDC$50.6*WNDDIR$147
STN$347170*DATE$2021-02-03*TIME$12:59:53*TEMP$-0.1*DEWP$-1.5*STP$1003.0*SLP$1027.0*VISIB$5.4*WDSP$18.0*PRCP$0.02*SNDP$0.0*FRSHTT$110000*CLDC$58.5*WNDDIR$104
STN$22520*DATE$2021-02-03*TIME$12:59:53*TEMP$-10.4*DEWP$-12.4*STP$985.7*SLP$1013.5*VISIB$34.8*WDSP$7.6*PRCP$0.01*SNDP$28.1*FRSHTT$111000*CLDC$98.5*WNDDIR$268
STN$524950*DATE$2021-02-03*TIME$12:59:53*TEMP$-5.2*DEWP$-17.0*STP$900.7*SLP$1031.2*VISIB$27.8*WDSP$11.4*PRCP$0.00*SNDP$0.0*FRSHTT$100000*CLDC$60.8*WNDDIR$105
STN$789060*DATE$2021-02-03*TIME$12:59:53*TEMP$19.3*DEWP$11.9*STP$1014.2*SLP$1014.8*VISIB$16.2*WDSP$10.6*PRCP$0.14*SNDP$0.0*FRSHTT$010000*CLDC$50.5*WNDDIR$94
STN$889030*DATE$2021-02-03*TIME$12:59:53*TEMP$4.3*DEWP$3.3*STP$1035.2*SLP$1007.4*VISIB$22.9*WDSP$7.3*PRCP$0.00*SNDP$0.0*FRSHTT$000000*CLDC$94.0*WNDDIR$41
STN$789050*DATE$2021-02-03*TIME$12:59:53*TEMP$18.2*DEWP$13.9*STP$1015.9*SLP$1017.6*VISIB$13.9*WDSP$17.1*PRCP$1.20*SNDP$0.0*FRSHTT$010000*CLDC$66.2*WNDDIR$12
STN$317130*DATE$2021-02-03*TIME$12:59:53*TEMP$-26.2*DEWP$-29.2*STP$1013.2*SLP$1021.8*VISIB$46.9*WDSP$7.8*PRCP$0.03*SNDP$5.6*FRSHTT$111000*CLDC$50.1*WNDDIR$148
STN$22420*DATE$2021-02-03*TIME$12:59:53*TEMP$-3.7*DEWP$-4.5*STP$991.3*SLP$1015.8*VISIB$16.5*WDSP$6.1*PRCP$0.00*SNDP$0.0*FRSHTT$100000*CLDC$15.4*WNDDIR$332
STN$727445*DATE$2021-02-03*TIME$12:59:53*TEMP$-12.8*DEWP$-17.5*STP$1000.6*SLP$1000.2*VISIB$12.6*WDSP$10.0*PRCP$0.00*SNDP$0.0*FRSHTT$100000*CLDC$21.7*WNDDIR$270
STN$727444*DATE$2021-02-03*TIME$12:59:53*TEMP$-12.4*DEWP$-16.8*STP$1000.0*SLP$999.5*VISIB$13.7*WDSP$8.2*PRCP$0.00*SNDP$0.0*FRSHTT$100000*CLDC$5.9*WNDDIR$268
STN$987470*DATE$2021-02-03*TIME$12:59:53*TEMP$22.3*DEWP$18.1*STP$991.1*SLP$1010.9*VISIB$15.0*WDSP$5.7*PRCP$0.00*SNDP$0.0*FRSHTT$000000*CLDC$51.0*WNDDIR$150
STN$727449*DATE$2021-02-03*TIME$12:59:53*TEMP$-12.9*DEWP$-15.5*STP$1001.0*SLP$1002.9*VISIB$13.7*WDSP$8.6*PRCP$0.00*SNDP$0.0*FRSHTT$100000*CLDC$9.2*WNDDIR$222
STN$123750*DATE$2021-02-03*TIME$12:59:53*TEMP$-3.9*DEWP$-5.9*STP$1016.6*SLP$1018.9*VISIB$7.2*WDSP$15.9*PRCP$0.03*SNDP$1.7*FRSHTT$111000*CLDC$93.5*WNDDIR$267
STN$727450*DATE$2021-02-03*TIME$12:59:53*TEMP$-17.9*DEWP$-20.7*STP$967.0*SLP$1021.3*VISIB$18.5*WDSP$16.6*PRCP$0.04*SNDP$19.6*FRSHTT$111000*CLDC$56.5*WNDDIR$107
STN$108450*DATE$2021-02-03*TIME$12:59:53*TEMP$-1.0*DEWP$-4.6*STP$998.1*SLP$997.6*VISIB$6.9*WDSP$11.7*PRCP$0.00*SNDP$0.0*FRSHTT$100000*CLDC$59.4*WNDDIR$75
STN$727453*DATE$2021-02-03*TIME$12:59:53*TEMP$-15.6*DEWP$-19.0*STP$1013.7*SLP$1017.5*VISIB$14.7*WDSP$12.8*PRCP$0.03*SNDP$0.0*FRSHTT$110000*CLDC$92.5*WNDDIR$90
STN$727452*DATE$2021-02-03*TIME$12:59:53*TEMP$-20.7*DEWP$-23.9*STP$1003.7*SLP$998.7*VISIB$13.7*WDSP$15.2*PRCP$0.00*SNDP$0.0*FRSHTT$100000*CLDC$46.1*WNDDIR$141
STN$372600*DATE$2021-02-03*TIME$12:59:53*TEMP$3.5*DEWP$0.2*STP$1015.4*SLP$1019.0*VISIB$11.4*WDSP$9.4*PRCP$0.06*SNDP$0.1*FRSHTT$011000*CLDC$57.1*WNDDIR$330
STN$722078*DATE$2021-02-03*TIME$12:59:53*TEMP$-3.0*DEWP$-7.2*STP$1012.7*SLP$1005.4*VISIB$12.3*WDSP$3.6*PRCP$0.00*SNDP$0.0*FRSHTT$100000*CLDC$34.9*WNDDIR$243
STN$801100*DATE$2021-02-03*TIME$12:59:53*TEMP$14.1*DEWP$4.9*STP$872.2*SLP$876.9*VISIB$14.8*WDSP$9.4*PRCP$0.10*SNDP$0.0*FRSHTT$010000*CLDC$50.6*WNDDIR$17
STN$536980*DATE$2021-02-03*TIME$12:59:53*TEMP$-5.5*DEWP$-18.2*STP$1026.5*SLP$1027.1*VISIB$12.5*WDSP$5.7*PRCP$0.01*SNDP$0.0*FRSHTT$110000*CLDC$92.1*WNDDIR$157
STN$722079*DATE$2021-02-03*TIME$12:59:53*TEMP$-5.0*DEWP$-13.9*STP$989.7*SLP$986.6*VISIB$15.1*WDSP$6.9*PRCP$0.00*SNDP$0.0*FRSHTT$100000*CLDC$82.6*WNDDIR$170
STN$722076*DATE$2021-02-03*TIME$12:59:53*TEMP$20.2*DEWP$16.2*STP$1018.3*SLP$1011.4*VISIB$23.3*WDSP$17.7*PRCP$0.00*SNDP$0.0*FRSHTT$000000*CLDC$2.5*WNDDIR$99
STN$986180*DATE$2021-02-03*TIME$12:59:53*TEMP$23.8*DEWP$19.1*STP$1012.9*SLP$1012.3*VISIB$24.3*WDSP$10.8*PRCP$0.03*SNDP$0.0*FRSHTT$010000*CLDC$50.2*WNDDIR$10
STN$722066*DATE$2021-02-03*TIME$12:59:53*TEMP$11.2*DEWP$6.5*STP$1018.0*SLP$1018.9*VISIB$10.1*WDSP$11.2*PRCP$0.14*SNDP$0.0*FRSHTT$010000*CLDC$75.9*WNDDIR$236
STN$722067*DATE$2021-02-03*TIME$12:59:53*TEMP$8.3*DEWP$3.3*STP$1016.6*SLP$1017.9*VISIB$9.2*WDSP$11.8*PRCP$0.44*SNDP$0.0*FRSHTT$010000*CLDC$50.4*WNDDIR$221
STN$289840*DATE$2021-02-03*TIME$12:59:53*TEMP$-20.4*DEWP$-23.3*STP$1043.7*SLP$1036.6*VISIB$11.5*WDSP$14.7*PRCP$0.28*SNDP$0.0*FRSHTT$110000*CLDC$50.2*WNDDIR$138
STN$722064*DATE$2021-02-03*TIME$12:59:53*TEMP$8.5*DEWP$4.1*STP$1041.0*SLP$1020.9*VISIB$11.7*WDSP$4.2*PRCP$0.00*SNDP$0.0*FRSHTT$000000*CLDC$84.6*WNDDIR$285
STN$63700*DATE$2021-02-03*TIME$12:59:53*TEMP$-0.1*DEWP$-2.8*STP$1016.8*SLP$1016.8*VISIB$8.9*WDSP$15.4*PRCP$0.11*SNDP$0.1*FRSHTT$111000*CLDC$50.0*WNDDIR$156
STN$725280*DATE$2021-02-03*TIME$12:59:53*TEMP$-8.2*DEWP$-11.6*STP$994.0*SLP$1019.4*VISIB$13.1*WDSP$18.5*PRCP$0.05*SNDP$3.7*FRSHTT$111000*CLDC$94.9*WNDDIR$69
STN$478350*DATE$2021-02-03*TIME$12:59:53*TEMP$2.2*DEWP$-5.9*STP$1016.8*SLP$1018.4*VISIB$23.5*WDSP$24.6*PRCP$0.28*SNDP$0.0*FRSHTT$010000*CLDC$50.1*WNDDIR$222
STN$725287*DATE$2021-02-03*TIME$12:59:53*TEMP$-6.5*DEWP$-9.4*STP$1007.6*SLP$1017.9*VISIB$14.5*WDSP$21.0*PRCP$0.10*SNDP$2.6*FRSHTT$111000*CLDC$97.0*WNDDIR$171
STN$110360*DATE$2021-02-03*TIME$12:59:53*TEMP$-1.4*DEWP$-4.8*STP$1010.8*SLP$1016.8*VISIB$8.7*WDSP$19.3*PRCP$0.05*SNDP$0.6*FRSHTT$111000*CLDC$50.6*WNDDIR$207
STN$725306*DATE$2021-02-03*TIME$12:59:53*TEMP$-7.2*DEWP$-11.5*STP$995.7*SLP$1021.5*VISIB$11.0*WDSP$11.9*PRCP$0.10*SNDP$5.0*FRSHTT$111000*CLDC$50.2*WNDDIR$41
STN$308440*DATE$2021-02-03*TIME$12:59:53*TEMP$-36.4*DEWP$-37.5*STP$932.5*SLP$1041.2*VISIB$50.3*WDSP$2.3*PRCP$0.00*SNDP$3.3*FRSHTT$101000*CLDC$50.8*WNDDIR$78
STN$725305*DATE$2021-02-03*TIME$12:59:53*TEMP$-6.9*DEWP$-9.5*STP$1004.0*SLP$1006.0*VISIB$11.2*WDSP$15.6*PRCP$0.02*SNDP$0.0*FRSHTT$110000*CLDC$92.9*WNDDIR$23
STN$725310*DATE$2021-02-03*TIME$12:59:53*TEMP$-7.6*DEWP$-10.9*STP$1001.0*SLP$1021.2*VISIB$12.2*WDSP$17.9*PRCP$0.00*SNDP$0.0*FRSHTT$100000*CLDC$85.3*WNDDIR$260
STN$354970*DATE$2021-02-03*TIME$12:59:53*TEMP$-2.4*DEWP$-13.6*STP$984.8*SLP$1029.4*VISIB$20.8*WDSP$12.6*PRCP$0.02*SNDP$5.3*FRSHTT$111000*CLDC$85.1*WNDDIR$293
STN$284190*DATE$2021-02-03*TIME$12:59:53*TEMP$-11.9*DEWP$-14.5*STP$1017.4*SLP$1019.4*VISIB$3.4*WDSP$13.9*PRCP$0.04*SNDP$12.4*FRSHTT$111000*CLDC$86.2*WNDDIR$96
STN$37760*DATE$2021-02-03*TIME$12:59:53*TEMP$0.7*DEWP$-1.2*STP$1008.0*SLP$1013.3*VISIB$8.3*WDSP$13.3*PRCP$0.09*SNDP$0.0*FRSHTT$010000*CLDC$58.9*WNDDIR$141
STN$362590*DATE$2021-02-03*TIME$12:59:53*TEMP$-10.5*DEWP$-16.9*STP$815.9*SLP$796.7*VISIB$48.4*WDSP$4.3*PRCP$0.00*SNDP$3.8*FRSHTT$101000*CLDC$50.4*WNDDIR$82
STN$266970*DATE$2021-02-03*TIME$12:59:53*TEMP$0.4*DEWP$-0.5*STP$1012.8*SLP$1010.9*VISIB$2.3*WDSP$7.1*PRCP$0.00*SNDP$0.0*FRSHTT$000000*CLDC$96.4*WNDDIR$187
STN$85450*DATE$2021-02-03*TIME$12:59:53*TEMP$5.2*DEWP$2.2*STP$1015.9*SLP$1021.9*VISIB$8.0*WDSP$12.2*PRCP$0.16*SNDP$0.0*FRSHTT$010000*CLDC$84.9*WNDDIR$123
STN$787300*DATE$2021-02-03*TIME$12:59:53*TEMP$21.1*DEWP$17.7*STP$1012.1*SLP$1014.0*VISIB$20.1*WDSP$20.1*PRCP$0.00*SNDP$0.0*FRSHTT$000000*CLDC$69.8*WNDDIR$123
STN$208640*DATE$2021-02-03*TIME$12:59:53*TEMP$-18.8*DEWP$-22.1*STP$1012.5*SLP$1008.0*VISIB$16.3*WDSP$22.5*PRCP$0.05*SNDP$5.8*FRSHTT$111000*CLDC$50.2*WNDDIR$162
STN$85490*DATE$2021-02-03*TIME$12:59:53*TEMP$4.7*DEWP$0.6*STP$1015.3*SLP$1023.2*VISIB$17.5*WDSP$7.5*PRCP$0.28*SNDP$0.0*FRSHTT$010000*CLDC$93.6*WNDDIR$262
STN$942480*DATE$2021-02-03*TIME$12:59:53*TEMP$24.4*DEWP$21.8*STP$1006.9*SLP$1007.5*VISIB$20.5*WDSP$21.3*PRCP$0.22*SNDP$0.0*FRSHTT$010000*CLDC$50.4*WNDDIR$293
STN$767755*DATE$2021-02-03*TIME$12:59:53*TEMP$9.5*DEWP$-4.8*STP$1015.7*SLP$1010.2*VISIB$13.5*WDSP$10.0*PRCP$0.00*SNDP$0.0*FRSHTT$000000*CLDC$22.2*WNDDIR$245
STN$742071*DATE$2021-02-03*TIME$12:59:53*TEMP$-1.0*DEWP$-2.3*STP$1009.7*SLP$1011.6*VISIB$15.8*WDSP$6.7*PRCP$0.04*SNDP$0.0*FRSHTT$110000*CLDC$55.4*WNDDIR$3
STN$30220*DATE$2021-02-03*TIME$12:59:53*TEMP$2.0*DEWP$-0.3*STP$1009.0*SLP$1007.7*VISIB$23.1*WDSP$27.5*PRCP$0.17*SNDP$0.1*FRSHTT$011000*CLDC$82.5*WNDDIR$46
STN$742070*DATE$2021-02-03*TIME$12:59:53*TEMP$0.8*DEWP$-3.1*STP$1018.3*SLP$1019.6*VISIB$16.0*WDSP$7.0*PRCP$0.10*SNDP$0.2*FRSHTT$011000*CLDC$83.2*WNDDIR$207
STN$308120*DATE$2021-02-03*TIME$12:59:53*TEMP$-6.8*DEWP$-10.4*STP$1034.9*SLP$1035.1*VISIB$20.3*WDSP$8.7*PRCP$0.00*SNDP$0.3*FRSHTT$101000*CLDC$89.8*WNDDIR$345
STN$478160*DATE$2021-02-03*TIME$12:59:53*TEMP$4.9*DEWP$-1.5*STP$1017.8*SLP$1021.3*VISIB$20.7*WDSP$15.5*PRCP$0.10*SNDP$0.0*FRSHTT$010000*CLDC$79.6*WNDDIR$66
STN$533360*DATE$2021-02-03*TIME$12:59:53*TEMP$-8.6*DEWP$-17.9*STP$910.7*SLP$1031.3*VISIB$27.2*WDSP$8.9*PRCP$0.05*SNDP$0.0*FRSHTT$110000*CLDC$52.3*WNDDIR$52
STN$726650*DATE$2021-02-03*TIME$12:59:53*TEMP$-7.1*DEWP$-13.4*STP$1012.6*SLP$1002.4*VISIB$20.8*WDSP$16.7*PRCP$0.01*SNDP$0.0*FRSHTT$110000*CLDC$50.0*WNDDIR$305
STN$742077*DATE$2021-02-03*TIME$12:59:53*TEMP$0.9*DEWP$-14.4*STP$1008.5*SLP$973.4*VISIB$12.3*WDSP$2.3*PRCP$0.00*SNDP$0.0*FRSHTT$000000*CLDC$92.5*WNDDIR$186
STN$742079*DATE$2021-02-03*TIME$12:59:53*TEMP$-3.0*DEWP$-6.6*STP$990.8*SLP$971.6*VISIB$13.1*WDSP$1.3*PRCP$0.00*SNDP$0.0*FRSHTT$100000*CLDC$19.3*WNDDIR$164
STN$726654*DATE$2021-02-03*TIME$12:59:53*TEMP$-4.2*DEWP$-11.3*STP$1022.5*SLP$1018.6*VISIB$15.9*WDSP$13.0*PRCP$0.00*SNDP$0.0*FRSHTT$100000*CLDC$56.5*WNDDIR$12
STN$355320*DATE$2021-02-03*TIME$12:59:53*TEMP$-3.7*DEWP$-5.9*STP$1014.1*SLP$1019.1*VISIB$14.0*WDSP$16.4*PRCP$0.05*SNDP$10.9*FRSHTT$111000*CLDC$50.0*WNDDIR$314
STN$725080*DATE$2021-02-03*TIME$12:59:53*TEMP$-6.1*DEWP$-13.3*STP$1011.5*SLP$1017.8*VISIB$28.0*WDSP$13.5*PRCP$0.30*SNDP$1.8*FRSHTT$111000*CLDC$92.8*WNDDIR$266
STN$170860*DATE$2021-02-03*TIME$12:59:53*TEMP$-1.8*DEWP$-5.7*STP$945.2*SLP$1018.8*VISIB$12.6*WDSP$7.0*PRCP$0.10*SNDP$0.9*FRSHTT$111000*CLDC$50.3*WNDDIR$156
STN$725079*DATE$2021-02-03*TIME$12:59:53*TEMP$-4.1*DEWP$-9.6*STP$1019.2*SLP$1018.1*VISIB$14.6*WDSP$14.0*PRCP$0.09*SNDP$0.0*FRSHTT$110000*CLDC$68.9*WNDDIR$23
STN$937800*DATE$2021-02-03*TIME$12:59:53*TEMP$11.6*DEWP$6.2*STP$1012.0*SLP$1008.6*VISIB$35.6*WDSP$17.3*PRCP$0.11*SNDP$0.0*FRSHTT$010000*CLDC$50.2*WNDDIR$16
STN$339760*DATE$2021-02-03*TIME$12:59:53*TEMP$-10.9*DEWP$-15.6*STP$1022.5*SLP$1026.1*VISIB$11.2*WDSP$10.5*PRCP$0.11*SNDP$1.6*FRSHTT$111000*CLDC$93.5*WNDDIR$203
STN$725075*DATE$2021-02-03*TIME$12:59:53*TEMP$-6.6*DEWP$-10.0*STP$1023.5*SLP$1019.5*VISIB$15.0*WDSP$13.4*PRCP$0.03*SNDP$0.0*FRSHTT$110000*CLDC$50.1*WNDDIR$111
STN$638940*DATE$2021-02-03*TIME$12:59:53*TEMP$27.2*DEWP$21.9*STP$1004.8*SLP$1010.9*VISIB$17.4*WDSP$18.2*PRCP$0.00*SNDP$0.0*FRSHTT$000000*CLDC$81.2*WNDDIR$153
STN$725073*DATE$2021-02-03*TIME$12:59:53*TEMP$0.0*DEWP$-5.9*STP$1004.4*SLP$997.3*VISIB$16.3*WDSP$8.6*PRCP$0.00*SNDP$0.0*FRSHTT$000000*CLDC$59.6*WNDDIR$54
STN$725070*DATE$2021-02-03*TIME$12:59:53*TEMP$-4.4*DEWP$-11.1*STP$1016.5*SLP$1017.6*VISIB$18.4*WDSP$17.8*PRCP$0.38*SNDP$2.5*FRSHTT$111000*CLDC$50.0*WNDDIR$318
STN$729350*DATE$2021-02-03*TIME$12:59:53*TEMP$-11.8*DEWP$-18.5*STP$1014.1*SLP$1035.7*VISIB$23.1*WDSP$12.3*PRCP$0.02*SNDP$26.0*FRSHTT$111000*CLDC$92.5*WNDDIR$126
STN$121850*DATE$2021-02-03*TIME$12:59:53*TEMP$-1.9*DEWP$-3.9*STP$1013.0*SLP$1017.6*VISIB$8.4*WDSP$14.7*PRCP$0.04*SNDP$3.0*FRSHTT$111000*CLDC$93.4*WNDDIR$333
STN$35900*DATE$2021-02-03*TIME$12:59:53*TEMP$0.1*DEWP$-1.8*STP$1009.6*SLP$1013.4*VISIB$9.0*WDSP$19.5*PRCP$0.10*SNDP$0.1*FRSHTT$011000*CLDC$83.9*WNDDIR$79
STN$564620*DATE$2021-02-03*TIME$12:59:53*TEMP$0.9*DEWP$-12.8*STP$756.1*SLP$757.4*VISIB$34.6*WDSP$11.2*PRCP$0.00*SNDP$0.0*FRSHTT$100000*CLDC$63.3*WNDDIR$106
STN$764056*DATE$2021-02-03*TIME$12:59:53*TEMP$15.8*DEWP$5.9*STP$1006.4*SLP$1002.8*VISIB$10.5*WDSP$16.9*PRCP$0.00*SNDP$0.0*FRSHTT$000000*CLDC$52.9*WNDDIR$3
STN$226410*DATE$2021-02-03*TIME$12:59:53*TEMP$-8.2*DEWP$-10.0*STP$1008.6*SLP$1010.3*VISIB$29.4*WDSP$11.7*PRCP$0.04*SNDP$9.9*FRSHTT$111000*CLDC$50.5*WNDDIR$43
STN$71330*DATE$2021-02-03*TIME$12:59:53*TEMP$3.1*DEWP$1.1*STP$1012.7*SLP$1016.4*VISIB$20.0*WDSP$55.2*PRCP$0.05*SNDP$0.0*FRSHTT$010000*CLDC$80.9*WNDDIR$85
STN$421810*DATE$2021-02-03*TIME$12:59:53*TEMP$17.1*DEWP$7.9*STP$992.9*SLP$970.0*VISIB$3.5*WDSP$10.2*PRCP$0.00*SNDP$0.0*FRSHTT$000000*CLDC$66.3*WNDDIR$17
STN$421820*DATE$2021-02-03*TIME$12:59:53*TEMP$16.9*DEWP$8.5*STP$1007.2*SLP$1014.5*VISIB$11.7*WDSP$8.4*PRCP$0.01*SNDP$0.0*FRSHTT$010000*CLDC$50.1*WNDDIR$185
STN$579930*DATE$2021-02-03*TIME$12:59:53*TEMP$2.7*DEWP$-1.3*STP$1020.7*SLP$1024.0*VISIB$12.5*WDSP$4.8*PRCP$0.15*SNDP$0.0*FRSHTT$010000*CLDC$62.9*WNDDIR$179
STN$360010*DATE$2021-02-03*TIME$12:59:53*TEMP$-5.5*DEWP$-7.5*STP$1013.2*SLP$1019.8*VISIB$14.8*WDSP$17.8*PRCP$0.12*SNDP$2.8*FRSHTT$111000*CLDC$50.0*WNDDIR$220
STN$986420*DATE$2021-02-03*TIME$12:59:53*TEMP$25.2*DEWP$21.3*STP$1004.1*SLP$1011.8*VISIB$15.6*WDSP$12.1*PRCP$0.00*SNDP$0.0*FRSHTT$000000*CLDC$13.5*WNDDIR$42
STN$722410*DATE$2021-02-03*TIME$12:59:53*TEMP$7.1*DEWP$3.5*STP$1020.3*SLP$1021.1*VISIB$12.7*WDSP$16.2*PRCP$0.07*SNDP$0.0*FRSHTT$010000*CLDC$50.2*WNDDIR$264
STN$722408*DATE$2021-02-03*TIME$12:59:53*TEMP$13.0*DEWP$7.2*STP$985.1*SLP$991.0*VISIB$18.1*WDSP$24.2*PRCP$0.00*SNDP$0.0*FRSHTT$000000*CLDC$51.0*WNDDIR$91
STN$722406*DATE$2021-02-03*TIME$12:59:53*TEMP$9.4*DEWP$4.9*STP$1003.8*SLP$1018.2*VISIB$10.3*WDSP$17.3*PRCP$0.00*SNDP$0.0*FRSHTT$000000*CLDC$26.2*WNDDIR$90
STN$722405*DATE$2021-02-03*TIME$12:59:53*TEMP$7.4*DEWP$2.0*STP$1017.5*SLP$1020.6*VISIB$12.6*WDSP$15.2*PRCP$0.08*SNDP$0.0*FRSHTT$010000*CLDC$50.5*WNDDIR$93
STN$722404*DATE$2021-02-03*TIME$12:59:53*TEMP$15.2*DEWP$13.4*STP$1014.7*SLP$1011.9*VISIB$10.5*WDSP$23.3*PRCP$0.00*SNDP$0.0*FRSHTT$000000*CLDC$94.7*WNDDIR$211
STN$237010*DATE$2021-02-03*TIME$12:59:53*TEMP$-10.0*DEWP$-11.6*STP$1019.2*SLP$1003.9*VISIB$18.0*WDSP$9.5*PRCP$0.13*SNDP$11.4*FRSHTT$111000*CLDC$63.6*WNDDIR$103
STN$722400*DATE$2021-02-03*TIME$12:59:53*TEMP$7.0*DEWP$3.3*STP$1018.6*SLP$1020.2*VISIB$14.9*WDSP$15.4*PRCP$0.10*SNDP$0.0*FRSHTT$010000*CLDC$50.8*WNDDIR$257
STN$132950*DATE$2021-02-03*TIME$12:59:53*TEMP$-1.0*DEWP$-6.1*STP$1013.1*SLP$1018.0*VISIB$14.2*WDSP$9.6*PRCP$0.00*SNDP$1.8*FRSHTT$101000*CLDC$50.1*WNDDIR$133
STN$718814*DATE$2021-02-03*TIME$12:59:53*TEMP$-15.3*DEWP$-18.4*STP$1012.4*SLP$985.3*VISIB$23.4*WDSP$5.7*PRCP$0.00*SNDP$0.0*FRSHTT$100000*CLDC$54.4*WNDDIR$237
STN$471280*DATE$2021-02-03*TIME$12:59:53*TEMP$-7.7*DEWP$-12.8*STP$1007.9*SLP$1012.3*VISIB$9.3*WDSP$5.5*PRCP$0.01*SNDP$0.3*FRSHTT$111000*CLDC$91.7*WNDDIR$352
STN$718810*DATE$2021-02-03*TIME$12:59:53*TEMP$-9.4*DEWP$-12.7*STP$907.5*SLP$1020.1*VISIB$37.3*WDSP$6.3*PRCP$0.02*SNDP$7.9*FRSHTT$111000*CLDC$50.1*WNDDIR$83
STN$947840*DATE$2021-02-03*TIME$12:59:53*TEMP$20.2*DEWP$14.5*STP$1011.4*SLP$1012.2*VISIB$49.8*WDSP$7.6*PRCP$0.03*SNDP$0.0*FRSHTT$010000*CLDC$50.4*WNDDIR$93
STN$333560*DATE$2021-02-03*TIME$12:59:53*TEMP$-13.6*DEWP$-18.4*STP$1009.9*SLP$1027.0*VISIB$9.7*WDSP$10.4*PRCP$0.16*SNDP$2.2*FRSHTT$111000*CLDC$50.2*WNDDIR$119
STN$488490*DATE$2021-02-03*TIME$12:59:53*TEMP$7.2*DEWP$5.3*STP$1020.5*SLP$1023.5*VISIB$10.4*WDSP$13.0*PRCP$0.00*SNDP$0.0*FRSHTT$000000*CLDC$51.1*WNDDIR$221
STN$104380*DATE$2021-02-03*TIME$12:59:53*TEMP$-0.6*DEWP$-4.0*STP$1009.8*SLP$1018.2*VISIB$12.0*WDSP$10.1*PRCP$0.10*SNDP$0.5*FRSHTT$111000*CLDC$60.8*WNDDIR$55
STN$718790*DATE$2021-02-03*TIME$12:59:53*TEMP$-8.2*DEWP$-11.8*STP$936.1*SLP$1019.0*VISIB$19.6*WDSP$9.6*PRCP$0.02*SNDP$4.3*FRSHTT$111000*CLDC$56.6*WNDDIR$184
STN$947870*DATE$2021-02-03*TIME$12:59:53*TEMP$22.7*DEWP$19.5*STP$1011.7*SLP$1013.3*VISIB$16.0*WDSP$13.1*PRCP$0.00*SNDP$0.0*FRSHTT$000000*CLDC$16.7*WNDDIR$350
STN$172720*DATE$2021-02-03*TIME$12:59:53*TEMP$4.4*DEWP$3.2*STP$956.0*SLP$1010.1*VISIB$17.2*WDSP$11.4*PRCP$0.66*SNDP$0.0*FRSHTT$010000*CLDC$50.3*WNDDIR$232
STN$720296*DATE$2021-02-03*TIME$12:59:53*TEMP$-3.9*DEWP$-6.4*STP$1006.7*SLP$1003.2*VISIB$12.8*WDSP$0.9*PRCP$0.00*SNDP$0.0*FRSHTT$100000*CLDC$57.0*WNDDIR$76
STN$720299*DATE$2021-02-03*TIME$12:59:53*TEMP$12.6*DEWP$8.6*STP$991.1*SLP$976.7*VISIB$13.5*WDSP$20.8*PRCP$0.00*SNDP$0.0*FRSHTT$000000*CLDC$64.7*WNDDIR$264
STN$720298*DATE$2021-02-03*TIME$12:59:53*TEMP$15.2*DEWP$11.0*STP$1012.2*SLP$983.6*VISIB$13.9*WDSP$17.5*PRCP$0.00*SNDP$0.0*FRSHTT$000000*CLDC$95.6*WNDDIR$140
STN$720308*DATE$2021-02-03*TIME$12:59:53*TEMP$-5.8*DEWP$-7.9*STP$1027.6*SLP$1058.4*VISIB$8.0*WDSP$6.8*PRCP$0.00*SNDP$0.0*FRSHTT$100000*CLDC$99.2*WNDDIR$264
STN$36553*DATE$2021-02-03*TIME$12:59:53*TEMP$0.9*DEWP$-1.9*STP$999.2*SLP$1006.9*VISIB$9.8*WDSP$16.8*PRCP$0.08*SNDP$0.1*FRSHTT$011000*CLDC$50.2*WNDDIR$193
STN$720309*DATE$2021-02-03*TIME$12:59:53*TEMP$-6.2*DEWP$-6.3*STP$976.6*SLP$986.5*VISIB$1.5*WDSP$15.5*PRCP$0.00*SNDP$0.0*FRSHTT$100000*CLDC$37.1*WNDDIR$125
STN$720305*DATE$2021-02-03*TIME$12:59:53*TEMP$11.2*DEWP$-1.1*STP$993.3*SLP$994.4*VISIB$13.7*WDSP$19.3*PRCP$0.00*SNDP$0.0*FRSHTT$000000*CLDC$25.1*WNDDIR$231
STN$720306*DATE$2021-02-03*TIME$12:59:53*TEMP$-2.1*DEWP$-6.2*STP$998.0*SLP$1009.3*VISIB$13.4*WDSP$11.9*PRCP$0.33*SNDP$0.0*FRSHTT$110000*CLDC$50.0*WNDDIR$114
STN$720307*DATE$2021-02-03*TIME$12:59:53*TEMP$-6.1*DEWP$-12.8*STP$983.1*SLP$988.5*VISIB$14.6*WDSP$9.3*PRCP$0.00*SNDP$0.0*FRSHTT$100000*CLDC$21.3*WNDDIR$218
STN$545340*DATE$2021-02-03*TIME$12:59:53*TEMP$-8.5*DEWP$-20.2*STP$1028.6*SLP$1027.4*VISIB$13.5*WDSP$8.1*PRCP$0.00*SNDP$0.0*FRSHTT$100000*CLDC$72.8*WNDDIR$33
STN$713130*DATE$2021-02-03*TIME$12:59:53*TEMP$-16.6*DEWP$-19.3*STP$1012.0*SLP$1017.0*VISIB$14.7*WDSP$15.8*PRCP$0.08*SNDP$0.0*FRSHTT$110000*CLDC$50.1*WNDDIR$322
STN$319170*DATE$2021-02-03*TIME$12:59:53*TEMP$-20.5*DEWP$-25.8*STP$1032.2*SLP$1023.1*VISIB$33.0*WDSP$9.4*PRCP$0.00*SNDP$0.0*FRSHTT$100000*CLDC$0.7*WNDDIR$117
STN$85150*DATE$2021-02-03*TIME$12:59:53*TEMP$8.8*DEWP$6.1*STP$1014.2*SLP$1021.5*VISIB$14.4*WDSP$24.1*PRCP$0.11*SNDP$0.0*FRSHTT$010000*CLDC$98.4*WNDDIR$39
STN$767584*DATE$2021-02-03*TIME$12:59:53*TEMP$19.6*DEWP$12.8*STP$1005.7*SLP$1007.1*VISIB$11.6*WDSP$8.8*PRCP$0.00*SNDP$0.0*FRSHTT$000000*CLDC$75.7*WNDDIR$230
STN$301570*DATE$2021-02-03*TIME$12:59:53*TEMP$-27.4*DEWP$-30.7*STP$1008.2*SLP$1030.7*VISIB$15.8*WDSP$8.0*PRCP$0.03*SNDP$33.8*FRSHTT$111000*CLDC$63.2*WNDDIR$158
STN$873930*DATE$2021-02-03*TIME$12:59:53*TEMP$16.8*DEWP$9.3*STP$999.9*SLP$1009.6*VISIB$14.4*WDSP$8.2*PRCP$0.01*SNDP$0.0*FRSHTT$010000*CLDC$79.8*WNDDIR$315
STN$37610*DATE$2021-02-03*TIME$12:59:53*TEMP$-0.4*DEWP$-2.5*STP$1010.5*SLP$1017.9*VISIB$10.1*WDSP$18.5*PRCP$0.05*SNDP$2.1*FRSHTT$111000*CLDC$93.6*WNDDIR$22
STN$527070*DATE$2021-02-03*TIME$12:59:53*TEMP$-5.6*DEWP$-21.9*STP$725.1*SLP$717.7*VISIB$26.0*WDSP$11.2*PRCP$0.00*SNDP$0.0*FRSHTT$100000*CLDC$65.3*WNDDIR$195
STN$596440*DATE$2021-02-03*TIME$12:59:53*TEMP$6.3*DEWP$2.8*STP$1016.2*SLP$1019.1*VISIB$9.1*WDSP$15.9*PRCP$0.05*SNDP$0.0*FRSHTT$010000*CLDC$50.0*WNDDIR$289
STN$319210*DATE$2021-02-03*TIME$12:59:53*TEMP$-19.7*DEWP$-25.1*STP$1018.4*SLP$1022.4*VISIB$20.4*WDSP$9.6*PRCP$0.01*SNDP$2.2*FRSHTT$111000*CLDC$86.9*WNDDIR$64
STN$21040*DATE$2021-02-03*TIME$12:59:53*TEMP$-7.6*DEWP$-10.2*STP$972.5*SLP$1010.9*VISIB$33.7*WDSP$6.9*PRCP$0.09*SNDP$42.6*FRSHTT$111000*CLDC$53.5*WNDDIR$162
STN$40820*DATE$2021-02-03*TIME$12:59:53*TEMP$-1.2*DEWP$-5.8*STP$997.4*SLP$997.6*VISIB$51.0*WDSP$25.6*PRCP$0.00*SNDP$0.0*FRSHTT$100000*CLDC$12.3*WNDDIR$154
STN$595010*DATE$2021-02-03*TIME$12:59:53*TEMP$9.1*DEWP$3.3*STP$1021.9*SLP$1020.7*VISIB$15.8*WDSP$10.6*PRCP$0.06*SNDP$0.0*FRSHTT$010000*CLDC$50.0*WNDDIR$125
STN$285410*DATE$2021-02-03*TIME$12:59:53*TEMP$-11.6*DEWP$-14.2*STP$1007.7*SLP$1029.6*VISIB$25.3*WDSP$7.3*PRCP$0.01*SNDP$6.0*FRSHTT$111000*CLDC$60.4*WNDDIR$239
STN$101500*DATE$2021-02-03*TIME$12:59:53*TEMP$0.0*DEWP$-4.2*STP$1006.6*SLP$1010.2*VISIB$21.0*WDSP$15.8*PRCP$0.00*SNDP$0.0*FRSHTT$000000*CLDC$32.4*WNDDIR$144
STN$116920*DATE$2021-02-03*TIME$12:59:53*TEMP$-3.5*DEWP$-5.4*STP$962.2*SLP$1021.2*VISIB$11.4*WDSP$14.5*PRCP$0.05*SNDP$3.0*FRSHTT$111000*CLDC$50.5*WNDDIR$189
STN$160840*DATE$2021-02-03*TIME$12:59:53*TEMP$-0.6*DEWP$-4.6*STP$1003.1*SLP$1009.7*VISIB$5.7*WDSP$6.7*PRCP$0.02*SNDP$0.2*FRSHTT$111000*CLDC$95.1*WNDDIR$264
STN$116930*DATE$2021-02-03*TIME$12:59:53*TEMP$-2.7*DEWP$-5.7*STP$973.4*SLP$1023.9*VISIB$9.9*WDSP$15.1*PRCP$0.03*SNDP$2.4*FRSHTT$111000*CLDC$52.1*WNDDIR$244
STN$82240*DATE$2021-02-03*TIME$12:59:53*TEMP$1.7*DEWP$-3.4*STP$950.1*SLP$1023.3*VISIB$11.3*WDSP$11.1*PRCP$0.01*SNDP$0.0*FRSHTT$010000*CLDC$69.2*WNDDIR$324
STN$890220*DATE$2021-02-03*TIME$12:59:53*TEMP$-5.1*DEWP$-15.6*STP$982.6*SLP$986.4*VISIB$30.5*WDSP$12.8*PRCP$0.00*SNDP$0.0*FRSHTT$100000*CLDC$74.3*WNDDIR$241
STN$843770*DATE$2021-02-03*TIME$12:59:53*TEMP$20.3*DEWP$17.7*STP$999.1*SLP$1010.5*VISIB$9.8*WDSP$6.1*PRCP$1.31*SNDP$0.0*FRSHTT$010000*CLDC$60.6*WNDDIR$138
STN$20240*DATE$2021-02-03*TIME$12:59:53*TEMP$-5.8*DEWP$-8.9*STP$1007.9*SLP$1001.7*VISIB$26.0*WDSP$18.8*PRCP$0.00*SNDP$0.0*FRSHTT$100000*CLDC$58.7*WNDDIR$81
STN$102740*DATE$2021-02-03*TIME$12:59:53*TEMP$-6.7*DEWP$-7.6*STP$1031.7*SLP$1018.6*VISIB$8.0*WDSP$26.9*PRCP$0.00*SNDP$0.0*FRSHTT$100000*CLDC$26.2*WNDDIR$22
STN$763420*DATE$2021-02-03*TIME$12:59:53*TEMP$6.7*DEWP$-1.9*STP$979.9*SLP$1016.7*VISIB$22.5*WDSP$6.9*PRCP$0.03*SNDP$0.0*FRSHTT$010000*CLDC$98.4*WNDDIR$227
STN$33440*DATE$2021-02-03*TIME$12:59:53*TEMP$0.5*DEWP$-0.7*STP$1012.9*SLP$1015.1*VISIB$7.5*WDSP$20.2*PRCP$0.00*SNDP$0.9*FRSHTT$001000*CLDC$71.4*WNDDIR$181
STN$717270*DATE$2021-02-03*TIME$12:59:53*TEMP$-17.6*DEWP$-20.6*STP$996.9*SLP$1017.7*VISIB$19.4*WDSP$15.4*PRCP$0.10*SNDP$18.9*FRSHTT$111000*CLDC$99.1*WNDDIR$355
STN$33450*DATE$2021-02-03*TIME$12:59:53*TEMP$1.3*DEWP$-0.8*STP$998.7*SLP$1003.3*VISIB$13.7*WDSP$24.6*PRCP$0.00*SNDP$0.0*FRSHTT$000000*CLDC$31.8*WNDDIR$10
STN$33463*DATE$2021-02-03*TIME$12:59:53*TEMP$0.8*DEWP$-1.2*STP$995.3*SLP$996.0*VISIB$9.6*WDSP$23.6*PRCP$0.00*SNDP$0.0*FRSHTT$000000*CLDC$53.7*WNDDIR$47
STN$33470*DATE$2021-02-03*TIME$12:59:53*TEMP$1.4*DEWP$-1.7*STP$1020.6*SLP$1017.3*VISIB$16.2*WDSP$19.2*PRCP$0.01*SNDP$0.0*FRSHTT$010000*CLDC$50.2*WNDDIR$318
STN$717250*DATE$2021-02-03*TIME$12:59:53*TEMP$-20.6*DEWP$-25.4*STP$974.9*SLP$1018.2*VISIB$17.2*WDSP$13.9*PRCP$0.08*SNDP$20.6*FRSHTT$111000*CLDC$50.3*WNDDIR$233
STN$569850*DATE$2021-02-03*TIME$12:59:53*TEMP$5.1*DEWP$-2.0*STP$907.7*SLP$1015.7*VISIB$24.7*WDSP$14.9*PRCP$0.02*SNDP$0.0*FRSHTT$010000*CLDC$79.3*WNDDIR$321
STN$724338*DATE$2021-02-03*TIME$12:59:53*TEMP$-4.3*DEWP$-9.5*STP$1014.1*SLP$1021.8*VISIB$11.7*WDSP$12.6*PRCP$0.05*SNDP$0.0*FRSHTT$110000*CLDC$89.0*WNDDIR$240
STN$724336*DATE$2021-02-03*TIME$12:59:53*TEMP$-0.7*DEWP$-5.3*STP$1007.2*SLP$1013.8*VISIB$12.5*WDSP$14.8*PRCP$0.06*SNDP$0.0*FRSHTT$110000*CLDC$64.6*WNDDIR$190
STN$724350*DATE$2021-02-03*TIME$12:59:53*TEMP$-1.8*DEWP$-6.1*STP$1007.5*SLP$1021.5*VISIB$13.1*WDSP$12.7*PRCP$0.38*SNDP$0.0*FRSHTT$110000*CLDC$50.0*WNDDIR$230
STN$724347*DATE$2021-02-03*TIME$12:59:53*TEMP$-4.8*DEWP$-8.2*STP$1024.6*SLP$1018.5*VISIB$11.2*WDSP$16.1*PRCP$0.18*SNDP$0.0*FRSHTT$110000*CLDC$80.3*WNDDIR$203
STN$724345*DATE$2021-02-03*TIME$12:59:53*TEMP$-4.3*DEWP$-8.6*STP$1012.9*SLP$1018.5*VISIB$13.8*WDSP$12.5*PRCP$0.06*SNDP$0.0*FRSHTT$110000*CLDC$76.9*WNDDIR$101
STN$128920*DATE$2021-02-03*TIME$12:59:53*TEMP$-1.3*DEWP$-3.7*STP$1021.6*SLP$1022.3*VISIB$11.0*WDSP$9.1*PRCP$0.03*SNDP$0.7*FRSHTT$111000*CLDC$50.1*WNDDIR$193
STN$429710*DATE$2021-02-03*TIME$12:59:53*TEMP$22.8*DEWP$17.1*STP$1014.6*SLP$1014.4*VISIB$3.5*WDSP$8.1*PRCP$0.00*SNDP$0.0*FRSHTT$000000*CLDC$62.7*WNDDIR$330
STN$724320*DATE$2021-02-03*TIME$12:59:53*TEMP$-3.6*DEWP$-8.4*STP$1008.2*SLP$1021.8*VISIB$12.5*WDSP$13.2*PRCP$0.19*SNDP$1.0*FRSHTT$111000*CLDC$50.1*WNDDIR$119
STN$165460*DATE$2021-02-03*TIME$12:59:53*TEMP$1.6*DEWP$-0.7*STP$1010.4*SLP$1015.1*VISIB$8.1*WDSP$5.5*PRCP$0.08*SNDP$0.0*FRSHTT$010000*CLDC$71.2*WNDDIR$267
STN$720284*DATE$2021-02-03*TIME$12:59:53*TEMP$-1.0*DEWP$-2.7*STP$1014.1*SLP$986.7*VISIB$9.1*WDSP$10.8*PRCP$0.00*SNDP$0.0*FRSHTT$100000*CLDC$27.0*WNDDIR$205
STN$720282*DATE$2021-02-03*TIME$12:59:53*TEMP$6.6*DEWP$2.9*STP$1007.0*SLP$995.1*VISIB$14.5*WDSP$4.3*PRCP$0.00*SNDP$0.0*FRSHTT$000000*CLDC$71.4*WNDDIR$37
STN$720283*DATE$2021-02-03*TIME$12:59:53*TEMP$-7.7*DEWP$-10.4*STP$1015.6*SLP$982.7*VISIB$4.1*WDSP$13.5*PRCP$0.00*SNDP$0.0*FRSHTT$100000*CLDC$2.0*WNDDIR$209
STN$720281*DATE$2021-02-03*TIME$12:59:53*TEMP$-1.9*DEWP$-6.5*STP$985.6*SLP$994.4*VISIB$15.2*WDSP$5.8*PRCP$0.00*SNDP$0.0*FRSHTT$100000*CLDC$14.4*WNDDIR$41
STN$36580*DATE$2021-02-03*TIME$12:59:53*TEMP$0.5*DEWP$-1.6*STP$1015.2*SLP$1014.8*VISIB$14.0*WDSP$15.9*PRCP$0.08*SNDP$0.0*FRSHTT$010000*CLDC$72.1*WNDDIR$21
STN$591340*DATE$2021-02-03*TIME$12:59:53*TEMP$9.3*DEWP$4.6*STP$1014.8*SLP$1021.8*VISIB$17.0*WDSP$12.3*PRCP$0.08*SNDP$0.0*FRSHTT$010000*CLDC$50.7*WNDDIR$18
STN$70750*DATE$2021-02-03*TIME$12:59:53*TEMP$-6.4*DEWP$-8.1*STP$1005.7*SLP$1024.2*VISIB$3.9*WDSP$7.1*PRCP$0.00*SNDP$0.0*FRSHTT$*CLDC$30.8*WNDDIR$171
STN$720288*DATE$2021-02-03*TIME$12:59:53*TEMP$4.0*DEWP$-5.0*STP$986.2*SLP$991.4*VISIB$15.0*WDSP$6.6*PRCP$0.00*SNDP$0.0*FRSHTT$000000*CLDC$33.0*WNDDIR$81
STN$434180*DATE$2021-02-03*TIME$12:59:53*TEMP$23.7*DEWP$17.9*STP$996.7*SLP$1011.5*VISIB$16.2*WDSP$13.2*PRCP$0.00*SNDP$0.0*FRSHTT$000000*CLDC$25.3*WNDDIR$65
STN$720303*DATE$2021-02-03*TIME$12:59:53*TEMP$3.1*DEWP$-2.7*STP$1014.3*SLP$1000.7*VISIB$12.8*WDSP$7.0*PRCP$0.00*SNDP$0.0*FRSHTT$000000*CLDC$28.8*WNDDIR$256
STN$160900*DATE$2021-02-03*TIME$12:59:53*TEMP$-0.8*DEWP$-4.0*STP$1010.2*SLP$1018.1*VISIB$4.0*WDSP$5.5*PRCP$0.05*SNDP$0.0*FRSHTT$110000*CLDC$52.5*WNDDIR$352
STN$269970*DATE$2021-02-03*TIME$12:59:53*TEMP$-8.2*DEWP$-11.8*STP$1009.4*SLP$1021.2*VISIB$11.2*WDSP$10.5*PRCP$0.03*SNDP$4.9*FRSHTT$111000*CLDC$66.7*WNDDIR$264
STN$526330*DATE$2021-02-03*TIME$12:59:53*TEMP$-7.0*DEWP$-20.9*STP$1005.1*SLP$1002.7*VISIB$36.2*WDSP$6.6*PRCP$0.00*SNDP$0.0*FRSHTT$100000*CLDC$86.3*WNDDIR$19
STN$945640*DATE$2021-02-03*TIME$12:59:53*TEMP$21.0*DEWP$15.9*STP$1008.2*SLP$1013.9*VISIB$18.8*WDSP$7.5*PRCP$0.00*SNDP$0.0*FRSHTT$000000*CLDC$94.6*WNDDIR$4
STN$610360*DATE$2021-02-03*TIME$12:59:53*TEMP$8.8*DEWP$-10.8*STP$1022.4*SLP$1010.6*VISIB$10.7*WDSP$7.9*PRCP$0.00*SNDP$0.0*FRSHTT$000000*CLDC$37.8*WNDDIR$358
STN$21150*DATE$2021-02-03*TIME$12:59:53*TEMP$-1.5*DEWP$-2.5*STP$939.5*SLP$1017.2*VISIB$12.2*WDSP$18.7*PRCP$0.22*SNDP$0.0*FRSHTT$110000*CLDC$50.0*WNDDIR$50
STN$101610*DATE$2021-02-03*TIME$12:59:53*TEMP$0.0*DEWP$-18.0*STP$1018.1*SLP$1018.8*VISIB$18.9*WDSP$23.7*PRCP$0.00*SNDP$0.0*FRSHTT$000000*CLDC$98.4*WNDDIR$4
STN$361520*DATE$2021-02-03*TIME$12:59:53*TEMP$-15.3*DEWP$-18.3*STP$1026.5*SLP$1030.7*VISIB$20.3*WDSP$11.9*PRCP$0.02*SNDP$1.4*FRSHTT$111000*CLDC$82.7*WNDDIR$231
STN$101630*DATE$2021-02-03*TIME$12:59:53*TEMP$-1.0*DEWP$-2.7*STP$1032.2*SLP$1021.4*VISIB$7.1*WDSP$15.1*PRCP$0.03*SNDP$0.0*FRSHTT$110000*CLDC$67.8*WNDDIR$321
STN$786311*DATE$2021-02-03*TIME$12:59:53*TEMP$21.2*DEWP$16.7*STP$1003.6*SLP$996.6*VISIB$8.0*WDSP$3.5*PRCP$0.00*SNDP$0.0*FRSHTT$000000*CLDC$29.2*WNDDIR$354
STN$749170*DATE$2021-02-03*TIME$12:59:53*TEMP$5.4*DEWP$-1.5*STP$1012.6*SLP$1017.3*VISIB$13.9*WDSP$9.0*PRCP$0.00*SNDP$0.0*FRSHTT$000000*CLDC$79.4*WNDDIR$258
STN$263890*DATE$2021-02-03*TIME$12:59:53*TEMP$-10.0*DEWP$-12.5*STP$993.1*SLP$1015.8*VISIB$8.9*WDSP$8.5*PRCP$0.08*SNDP$18.4*FRSHTT$111000*CLDC$50.2*WNDDIR$28
STN$947620*DATE$2021-02-03*TIME$12:59:53*TEMP$20.0*DEWP$8.2*STP$1013.9*SLP$1017.9*VISIB$11.9*WDSP$13.5*PRCP$0.00*SNDP$0.0*FRSHTT$000000*CLDC$79.9*WNDDIR$79
STN$34690*DATE$2021-02-03*TIME$12:59:53*TEMP$2.4*DEWP$0.1*STP$1026.7*SLP$1020.5*VISIB$13.8*WDSP$21.8*PRCP$0.07*SNDP$0.0*FRSHTT$010000*CLDC$84.8*WNDDIR$162
STN$718110*DATE$2021-02-03*TIME$12:59:53*TEMP$-16.2*DEWP$-21.0*STP$1008.1*SLP$1015.9*VISIB$30.2*WDSP$14.1*PRCP$0.17*SNDP$19.1*FRSHTT$111000*CLDC$62.8*WNDDIR$162
STN$489200*DATE$2021-02-03*TIME$12:59:53*TEMP$8.7*DEWP$7.0*STP$1008.5*SLP$1008.6*VISIB$19.9*WDSP$27.6*PRCP$0.43*SNDP$0.0*FRSHTT$010000*CLDC$82.3*WNDDIR$343
STN$578320*DATE$2021-02-03*TIME$12:59:53*TEMP$1.2*DEWP$-3.2*STP$1012.9*SLP$1026.2*VISIB$20.1*WDSP$4.6*PRCP$0.02*SNDP$0.0*FRSHTT$010000*CLDC$90.4*WNDDIR$185
STN$718105*DATE$2021-02-03*TIME$12:59:53*TEMP$-18.9*DEWP$-24.2*STP$1022.5*SLP$1014.7*VISIB$20.9*WDSP$16.7*PRCP$0.00*SNDP$0.0*FRSHTT$100000*CLDC$3.9*WNDDIR$227
STN$471610*DATE$2021-02-03*TIME$12:59:53*TEMP$-6.4*DEWP$-15.0*STP$996.4*SLP$998.3*VISIB$11.3*WDSP$6.5*PRCP$0.00*SNDP$0.3*FRSHTT$101000*CLDC$85.7*WNDDIR$40
STN$103790*DATE$2021-02-03*TIME$12:59:53*TEMP$-0.9*DEWP$-3.5*STP$995.8*SLP$1008.1*VISIB$21.7*WDSP$28.7*PRCP$0.16*SNDP$0.0*FRSHTT$110000*CLDC$52.1*WNDDIR$200
STN$81840*DATE$2021-02-03*TIME$12:59:53*TEMP$1.1*DEWP$-1.8*STP$1008.0*SLP$1017.3*VISIB$8.7*WDSP$6.0*PRCP$0.06*SNDP$0.0*FRSHTT$010000*CLDC$50.3*WNDDIR$203
STN$286880*DATE$2021-02-03*TIME$12:59:53*TEMP$-12.0*DEWP$-15.2*STP$1024.0*SLP$1027.5*VISIB$20.0*WDSP$11.8*PRCP$0.01*SNDP$9.5*FRSHTT$111000*CLDC$67.0*WNDDIR$280
STN$341860*DATE$2021-02-03*TIME$12:59:53*TEMP$-9.5*DEWP$-12.2*STP$1012.8*SLP$1021.3*VISIB$14.3*WDSP$17.0*PRCP$0.01*SNDP$6.8*FRSHTT$111000*CLDC$50.1*WNDDIR$299
STN$722950*DATE$2021-02-03*TIME$12:59:53*TEMP$5.4*DEWP$-0.9*STP$1014.4*SLP$1017.2*VISIB$20.9*WDSP$10.0*PRCP$0.18*SNDP$0.0*FRSHTT$010000*CLDC$50.7*WNDDIR$193
STN$42300*DATE$2021-02-03*TIME$12:59:53*TEMP$-14.7*DEWP$-17.5*STP$996.6*SLP$999.9*VISIB$50.4*WDSP$10.6*PRCP$0.00*SNDP$12.8*FRSHTT$101000*CLDC$50.4*WNDDIR$262
STN$26720*DATE$2021-02-03*TIME$12:59:53*TEMP$-2.7*DEWP$-5.0*STP$1010.5*SLP$1014.1*VISIB$12.6*WDSP$15.7*PRCP$0.04*SNDP$1.7*FRSHTT$111000*CLDC$50.2*WNDDIR$28
STN$722970*DATE$2021-02-03*TIME$12:59:53*TEMP$3.2*DEWP$-3.4*STP$1015.9*SLP$1017.9*VISIB$16.6*WDSP$7.1*PRCP$0.08*SNDP$0.0*FRSHTT$010000*CLDC$70.6*WNDDIR$52
STN$722975*DATE$2021-02-03*TIME$12:59:53*TEMP$2.6*DEWP$1.2*STP$1014.1*SLP$1014.3*VISIB$14.2*WDSP$10.6*PRCP$0.00*SNDP$0.0*FRSHTT$000000*CLDC$69.4*WNDDIR$167
STN$722974*DATE$2021-02-03*TIME$12:59:53*TEMP$5.4*DEWP$-0.9*STP$1012.2*SLP$1015.8*VISIB$11.6*WDSP$7.5*PRCP$0.13*SNDP$0.0*FRSHTT$010000*CLDC$50.3*WNDDIR$226
STN$722972*DATE$2021-02-03*TIME$12:59:53*TEMP$-8.6*DEWP$-10.0*STP$1016.3*SLP$1015.4*VISIB$4.5*WDSP$13.5*PRCP$0.00*SNDP$0.0*FRSHTT$100000*CLDC$42.6*WNDDIR$276
STN$718990*DATE$2021-02-03*TIME$12:59:53*TEMP$1.8*DEWP$1.0*STP$1010.0*SLP$1015.2*VISIB$21.2*WDSP$20.3*PRCP$0.28*SNDP$0.0*FRSHTT$010000*CLDC$50.7*WNDDIR$148
STN$104690*DATE$2021-02-03*TIME$12:59:53*TEMP$0.0*DEWP$-2.3*STP$1012.5*SLP$1016.5*VISIB$6.2*WDSP$22.0*PRCP$0.06*SNDP$0.0*FRSHTT$010000*CLDC$50.2*WNDDIR$329
STN$35830*DATE$2021-02-03*TIME$12:59:53*TEMP$-2.2*DEWP$-5.1*STP$1047.4*SLP$1035.6*VISIB$6.3*WDSP$2.6*PRCP$0.00*SNDP$0.0*FRSHTT$100000*CLDC$25.0*WNDDIR$227
STN$765773*DATE$2021-02-03*TIME$12:59:53*TEMP$8.3*DEWP$-4.2*STP$1015.5*SLP$1009.0*VISIB$12.7*WDSP$9.4*PRCP$0.00*SNDP$0.0*FRSHTT$000000*CLDC$49.7*WNDDIR$13
STN$35831*DATE$2021-02-03*TIME$12:59:53*TEMP$2.1*DEWP$-1.1*STP$1002.0*SLP$994.6*VISIB$8.0*WDSP$12.5*PRCP$0.02*SNDP$0.0*FRSHTT$010000*CLDC$91.9*WNDDIR$34
STN$745985*DATE$2021-02-03*TIME$12:59:53*TEMP$-4.7*DEWP$-17.3*STP$1004.6*SLP$993.3*VISIB$15.3*WDSP$7.5*PRCP$0.00*SNDP$0.0*FRSHTT$100000*CLDC$83.9*WNDDIR$318
STN$35833*DATE$2021-02-03*TIME$12:59:53*TEMP$1.3*DEWP$-1.7*STP$1009.2*SLP$1012.7*VISIB$7.4*WDSP$17.5*PRCP$0.01*SNDP$0.0*FRSHTT$010000*CLDC$79.9*WNDDIR$132
STN$718980*DATE$2021-02-03*TIME$12:59:53*TEMP$-0.5*DEWP$-3.3*STP$1009.2*SLP$1013.7*VISIB$17.5*WDSP$12.9*PRCP$0.31*SNDP$0.7*FRSHTT$111000*CLDC$50.8*WNDDIR$182
STN$104700*DATE$2021-02-03*TIME$12:59:53*TEMP$-1.8*DEWP$-4.1*STP$1019.0*SLP$1017.9*VISIB$6.1*WDSP$20.4*PRCP$0.09*SNDP$0.0*FRSHTT$110000*CLDC$50.9*WNDDIR$321
STN$264870*DATE$2021-02-03*TIME$12:59:53*TEMP$-14.7*DEWP$-17.6*STP$1022.3*SLP$1021.1*VISIB$*WDSP$4.6*PRCP$0.14*SNDP$0.0*FRSHTT$110000*CLDC$50.5*WNDDIR$8
STN$720172*DATE$2021-02-03*TIME$12:59:53*TEMP$4.1*DEWP$1.6*STP$1016.9*SLP$1001.0*VISIB$13.2*WDSP$9.2*PRCP$0.00*SNDP$0.0*FRSHTT$000000*CLDC$58.5*WNDDIR$218
STN$870780*DATE$2021-02-03*TIME$12:59:53*TEMP$22.1*DEWP$9.2*STP$1031.0*SLP$1007.0*VISIB$10.8*WDSP$9.9*PRCP$0.00*SNDP$0.0*FRSHTT$000000*CLDC$66.3*WNDDIR$31
STN$720170*DATE$2021-02-03*TIME$12:59:53*TEMP$7.6*DEWP$6.1*STP$1005.5*SLP$1009.3*VISIB$13.5*WDSP$11.7*PRCP$0.00*SNDP$0.0*FRSHTT$000000*CLDC$44.3*WNDDIR$15
STN$209630*DATE$2021-02-03*TIME$12:59:53*TEMP$-14.4*DEWP$-16.9*STP$1013.4*SLP$994.5*VISIB$3.9*WDSP$35.1*PRCP$0.00*SNDP$13.5*FRSHTT$101000*CLDC$54.0*WNDDIR$252
STN$36440*DATE$2021-02-03*TIME$12:59:53*TEMP$1.5*DEWP$-1.4*STP$1006.0*SLP$1006.1*VISIB$11.4*WDSP$16.3*PRCP$0.00*SNDP$0.0*FRSHTT$000000*CLDC$6.1*WNDDIR$260
STN$105820*DATE$2021-02-03*TIME$12:59:53*TEMP$-3.2*DEWP$-4.0*STP$906.2*SLP$890.8*VISIB$6.9*WDSP$31.4*PRCP$0.00*SNDP$17.9*FRSHTT$101000*CLDC$60.8*WNDDIR$211
STN$949370*DATE$2021-02-03*TIME$12:59:53*TEMP$16.9*DEWP$12.9*STP$1013.8*SLP$1015.7*VISIB$18.6*WDSP$14.8*PRCP$0.05*SNDP$0.0*FRSHTT$010000*CLDC$50.0*WNDDIR$5
STN$121240*DATE$2021-02-03*TIME$12:59:53*TEMP$-0.9*DEWP$-2.9*STP$983.7*SLP$988.2*VISIB$9.3*WDSP$11.2*PRCP$0.00*SNDP$0.0*FRSHTT$100000*CLDC$89.1*WNDDIR$194
STN$403720*DATE$2021-02-03*TIME$12:59:53*TEMP$7.2*DEWP$-1.7*STP$1017.1*SLP$1019.2*VISIB$9.2*WDSP$12.7*PRCP$0.00*SNDP$0.0*FRSHTT$000000*CLDC$14.7*WNDDIR$13
STN$580400*DATE$2021-02-03*TIME$12:59:53*TEMP$-3.5*DEWP$-9.9*STP$1022.0*SLP$1026.8*VISIB$15.2*WDSP$9.4*PRCP$0.04*SNDP$0.0*FRSHTT$110000*CLDC$50.0*WNDDIR$309
STN$477060*DATE$2021-02-03*TIME$12:59:53*TEMP$1.7*DEWP$-2.2*STP$997.4*SLP$1003.4*VISIB$9.4*WDSP$14.8*PRCP$0.00*SNDP$0.0*FRSHTT$000000*CLDC$77.8*WNDDIR$105
STN$62420*DATE$2021-02-03*TIME$12:59:53*TEMP$0.4*DEWP$0.4*STP$1021.3*SLP$1018.5*VISIB$4.1*WDSP$19.9*PRCP$0.00*SNDP$0.0*FRSHTT$000000*CLDC$97.2*WNDDIR$247
STN$918000*DATE$2021-02-03*TIME$12:59:53*TEMP$21.7*DEWP$17.8*STP$1000.1*SLP$1008.7*VISIB$63.4*WDSP$21.8*PRCP$0.15*SNDP$0.0*FRSHTT$010000*CLDC$87.5*WNDDIR$118
STN$915900*DATE$2021-02-03*TIME$12:59:53*TEMP$21.6*DEWP$16.0*STP$1013.4*SLP$1007.7*VISIB$31.6*WDSP$12.9*PRCP$0.14*SNDP$0.0*FRSHTT$010000*CLDC$88.4*WNDDIR$284
STN$477070*DATE$2021-02-03*TIME$12:59:53*TEMP$-0.3*DEWP$-3.8*STP$1000.0*SLP$1000.4*VISIB$8.1*WDSP$8.7*PRCP$0.00*SNDP$0.0*FRSHTT$100000*CLDC$26.5*WNDDIR$63
STN$107550*DATE$2021-02-03*TIME$12:59:53*TEMP$-2.8*DEWP$-4.6*STP$1011.4*SLP$1013.9*VISIB$6.1*WDSP$10.3*PRCP$0.02*SNDP$0.0*FRSHTT$110000*CLDC$50.1*WNDDIR$269
STN$727584*DATE$2021-02-03*TIME$12:59:53*TEMP$-4.5*DEWP$-7.5*STP$1003.7*SLP$1019.1*VISIB$12.1*WDSP$14.1*PRCP$0.01*SNDP$0.0*FRSHTT$110000*CLDC$50.0*WNDDIR$21
STN$31320*DATE$2021-02-03*TIME$12:59:53*TEMP$0.4*DEWP$-1.6*STP$981.5*SLP$996.4*VISIB$19.0*WDSP$26.7*PRCP$0.55*SNDP$0.0*FRSHTT$010000*CLDC$52.2*WNDDIR$349
STN$123100*DATE$2021-02-03*TIME$12:59:53*TEMP$-0.7*DEWP$-4.3*STP$1013.2*SLP$1016.0*VISIB$15.2*WDSP$5.7*PRCP$0.07*SNDP$0.0*FRSHTT$110000*CLDC$69.6*WNDDIR$254
STN$107520*DATE$2021-02-03*TIME$12:59:53*TEMP$-4.4*DEWP$-6.8*STP$1014.2*SLP$1015.2*VISIB$11.1*WDSP$5.0*PRCP$0.00*SNDP$0.0*FRSHTT$100000*CLDC$22.4*WNDDIR$144
