STN$485576*DATE$2021-02-02*TIME$19:59:17*TEMP$88.9*DEWP$9.4*STP$1019.8*SLP$999.3*VISIB$12.5*WDSP$11.6*PRCP$0.00*SNDP$0.0*FRSHTT$000000*CLDC$64.1*WNDDIR$295
STN$485577*DATE$2021-02-02*TIME$19:59:17*TEMP$15.7*DEWP$10.1*STP$998.0*SLP$1045.1*VISIB$0.0*WDSP$24.8*PRCP$0.00*SNDP$0.0*FRSHTT$000000*CLDC$11.9*WNDDIR$358
STN$299150*DATE$2021-02-02*TIME$19:59:17*TEMP$-20.8*DEWP$-22.5*STP$1018.6*SLP$1028.3*VISIB$36.4*WDSP$5.3*PRCP$0.05*SNDP$10.2*FRSHTT$111000*CLDC$51.9*WNDDIR$350
STN$541860*DATE$2021-02-02*TIME$19:59:17*TEMP$-8.7*DEWP$-14.5*STP$1011.5*SLP$1026.3*VISIB$20.0*WDSP$21.8*PRCP$0.01*SNDP$0.0*FRSHTT$110000*CLDC$52.2*WNDDIR$276
STN$889400*DATE$2021-02-02*TIME$19:59:17*TEMP$0.1*DEWP$-0.9*STP$979.8*SLP$989.0*VISIB$13.3*WDSP$32.6*PRCP$0.00*SNDP$0.0*FRSHTT$000000*CLDC$76.2*WNDDIR$311
STN$612260*DATE$2021-02-02*TIME$19:59:17*TEMP$16.9*DEWP$-9.9*STP$1007.2*SLP$1013.7*VISIB$27.9*WDSP$14.1*PRCP$0.00*SNDP$0.0*FRSHTT$000000*CLDC$60.4*WNDDIR$151
STN$524410*DATE$2021-02-02*TIME$19:59:17*TEMP$-2.2*DEWP$-22.3*STP$839.3*SLP$859.0*VISIB$48.6*WDSP$12.5*PRCP$0.00*SNDP$0.0*FRSHTT$100000*CLDC$63.6*WNDDIR$302
STN$118670*DATE$2021-02-02*TIME$19:59:17*TEMP$-2.3*DEWP$-6.0*STP$989.3*SLP$1022.1*VISIB$11.6*WDSP$8.7*PRCP$0.03*SNDP$4.8*FRSHTT$111000*CLDC$52.2*WNDDIR$183
STN$516440*DATE$2021-02-02*TIME$19:59:17*TEMP$-7.8*DEWP$-14.0*STP$925.1*SLP$1031.1*VISIB$16.3*WDSP$6.0*PRCP$0.00*SNDP$0.0*FRSHTT$100000*CLDC$32.2*WNDDIR$154
STN$889380*DATE$2021-02-02*TIME$19:59:17*TEMP$0.9*DEWP$-0.8*STP$1003.3*SLP$987.7*VISIB$6.2*WDSP$32.4*PRCP$0.00*SNDP$0.0*FRSHTT$000000*CLDC$22.9*WNDDIR$288
STN$22360*DATE$2021-02-02*TIME$19:59:17*TEMP$-0.8*DEWP$-1.6*STP$953.7*SLP$997.4*VISIB$16.6*WDSP$5.4*PRCP$0.00*SNDP$0.0*FRSHTT$100000*CLDC$16.4*WNDDIR$67
STN$486020*DATE$2021-02-02*TIME$19:59:17*TEMP$13.4*DEWP$11.7*STP$1000.4*SLP$979.1*VISIB$9.3*WDSP$10.8*PRCP$0.00*SNDP$0.0*FRSHTT$000000*CLDC$36.5*WNDDIR$196
STN$486021*DATE$2021-02-02*TIME$19:59:17*TEMP$17.2*DEWP$16.2*STP$995.3*SLP$960.4*VISIB$7.1*WDSP$8.9*PRCP$0.00*SNDP$0.0*FRSHTT$000000*CLDC$11.8*WNDDIR$172
STN$486022*DATE$2021-02-02*TIME$19:59:17*TEMP$16.2*DEWP$12.5*STP$1003.7*SLP$977.3*VISIB$9.2*WDSP$*PRCP$0.00*SNDP$0.0*FRSHTT$000000*CLDC$47.1*WNDDIR$122
STN$486023*DATE$2021-02-02*TIME$19:59:17*TEMP$18.1*DEWP$16.5*STP$995.5*SLP$994.6*VISIB$10.6*WDSP$14.3*PRCP$0.00*SNDP$0.0*FRSHTT$000000*CLDC$2.6*WNDDIR$353
STN$286610*DATE$2021-02-02*TIME$19:59:17*TEMP$-18.5*DEWP$-20.5*STP$1017.6*SLP$1021.2*VISIB$10.1*WDSP$13.5*PRCP$0.10*SNDP$9.9*FRSHTT$111000*CLDC$61.7*WNDDIR$41
STN$680180*DATE$2021-02-02*TIME$19:59:17*TEMP$14.8*DEWP$5.5*STP$890.0*SLP$875.2*VISIB$48.8*WDSP$1.8*PRCP$0.08*SNDP$0.0*FRSHTT$010000*CLDC$50.1*WNDDIR$156
STN$299740*DATE$2021-02-02*TIME$19:59:17*TEMP$-20.6*DEWP$-25.3*STP$858.5*SLP$1018.0*VISIB$3.3*WDSP$0.2*PRCP$0.00*SNDP$27.5*FRSHTT$101000*CLDC$67.4*WNDDIR$145
STN$837550*DATE$2021-02-02*TIME$19:59:17*TEMP$15.5*DEWP$11.3*STP$998.7*SLP$1011.3*VISIB$23.1*WDSP$12.5*PRCP$0.00*SNDP$0.0*FRSHTT$000000*CLDC$96.4*WNDDIR$97
STN$22340*DATE$2021-02-02*TIME$19:59:17*TEMP$-2.6*DEWP$-3.3*STP$980.8*SLP$1012.0*VISIB$7.0*WDSP$10.3*PRCP$0.11*SNDP$46.6*FRSHTT$111000*CLDC$53.7*WNDDIR$128
STN$81840*DATE$2021-02-02*TIME$19:59:17*TEMP$40.9*DEWP$-2.9*STP$1006.9*SLP$1018.7*VISIB$6.1*WDSP$12.8*PRCP$0.14*SNDP$0.0*FRSHTT$010000*CLDC$51.7*WNDDIR$86
STN$286880*DATE$2021-02-02*TIME$19:59:17*TEMP$-17.1*DEWP$-20.0*STP$1020.1*SLP$1026.9*VISIB$15.6*WDSP$14.0*PRCP$0.02*SNDP$17.9*FRSHTT$111000*CLDC$92.0*WNDDIR$182
STN$341860*DATE$2021-02-02*TIME$19:59:17*TEMP$-15.1*DEWP$-17.5*STP$1012.4*SLP$1022.3*VISIB$13.7*WDSP$10.2*PRCP$0.04*SNDP$*FRSHTT$111000*CLDC$95.0*WNDDIR$11
STN$722950*DATE$2021-02-02*TIME$19:59:17*TEMP$4.7*DEWP$-1.9*STP$1013.8*SLP$1017.0*VISIB$23.0*WDSP$8.7*PRCP$0.08*SNDP$0.0*FRSHTT$010000*CLDC$51.8*WNDDIR$62
STN$42300*DATE$2021-02-02*TIME$19:59:17*TEMP$-9.8*DEWP$-12.9*STP$1000.1*SLP$1001.3*VISIB$49.9*WDSP$10.8*PRCP$0.00*SNDP$19.7*FRSHTT$101000*CLDC$50.5*WNDDIR$221
STN$26720*DATE$2021-02-02*TIME$19:59:17*TEMP$-2.3*DEWP$-5.2*STP$1011.4*SLP$1011.0*VISIB$13.3*WDSP$8.0*PRCP$0.03*SNDP$2.9*FRSHTT$111000*CLDC$90.6*WNDDIR$33
STN$722970*DATE$2021-02-02*TIME$19:59:17*TEMP$6.4*DEWP$-1.0*STP$1016.3*SLP$1018.1*VISIB$13.5*WDSP$30.3*PRCP$0.02*SNDP$0.0*FRSHTT$010000*CLDC$51.7*WNDDIR$347
STN$722975*DATE$2021-02-02*TIME$19:59:17*TEMP$5.4*DEWP$1.8*STP$979.2*SLP$1013.7*VISIB$2.7*WDSP$9.3*PRCP$0.00*SNDP$0.0*FRSHTT$000000*CLDC$68.3*WNDDIR$78
STN$722974*DATE$2021-02-02*TIME$19:59:17*TEMP$6.2*DEWP$0.1*STP$1019.4*SLP$1016.2*VISIB$17.0*WDSP$10.2*PRCP$0.14*SNDP$0.0*FRSHTT$010000*CLDC$51.1*WNDDIR$20
STN$722972*DATE$2021-02-02*TIME$19:59:17*TEMP$-5.5*DEWP$-8.0*STP$1034.8*SLP$967.5*VISIB$14.1*WDSP$23.3*PRCP$0.00*SNDP$0.0*FRSHTT$100000*CLDC$74.3*WNDDIR$232
STN$66160*DATE$2021-02-02*TIME$19:59:17*TEMP$0.4*DEWP$-3.0*STP$951.6*SLP$1023.2*VISIB$18.8*WDSP$13.8*PRCP$0.15*SNDP$1.4*FRSHTT$111000*CLDC$52.8*WNDDIR$158
STN$944850*DATE$2021-02-02*TIME$19:59:17*TEMP$7.8*DEWP$-2.2*STP$1005.6*SLP$1002.1*VISIB$59.1*WDSP$13.5*PRCP$0.02*SNDP$0.0*FRSHTT$010000*CLDC$55.3*WNDDIR$350
STN$118580*DATE$2021-02-02*TIME$19:59:17*TEMP$-0.6*DEWP$-3.2*STP$1008.8*SLP$1022.6*VISIB$7.6*WDSP$18.3*PRCP$0.04*SNDP$2.3*FRSHTT$111000*CLDC$80.7*WNDDIR$139
STN$205940*DATE$2021-02-02*TIME$19:59:17*TEMP$-14.7*DEWP$-16.7*STP$1020.0*SLP$1014.4*VISIB$11.1*WDSP$24.1*PRCP$0.07*SNDP$17.2*FRSHTT$111000*CLDC$54.4*WNDDIR$222
STN$485500*DATE$2021-02-02*TIME$19:59:17*TEMP$19.8*DEWP$14.8*STP$1019.2*SLP$1011.9*VISIB$9.9*WDSP$12.2*PRCP$0.00*SNDP$0.0*FRSHTT$000000*CLDC$49.4*WNDDIR$96
STN$876480*DATE$2021-02-02*TIME$19:59:17*TEMP$13.1*DEWP$8.0*STP$1014.2*SLP$1012.9*VISIB$7.3*WDSP$12.2*PRCP$0.00*SNDP$0.0*FRSHTT$000000*CLDC$76.8*WNDDIR$227
STN$470200*DATE$2021-02-02*TIME$19:59:17*TEMP$-13.5*DEWP$-18.1*STP$1017.7*SLP$1027.9*VISIB$6.1*WDSP$10.0*PRCP$0.00*SNDP$0.0*FRSHTT$100000*CLDC$74.5*WNDDIR$172
STN$21910*DATE$2021-02-02*TIME$19:59:17*TEMP$-11.6*DEWP$-13.7*STP$1010.3*SLP$1055.4*VISIB$12.1*WDSP$4.4*PRCP$0.08*SNDP$0.0*FRSHTT$110000*CLDC$66.2*WNDDIR$238
STN$83600*DATE$2021-02-02*TIME$19:59:17*TEMP$4.1*DEWP$-0.8*STP$1023.2*SLP$1020.4*VISIB$13.4*WDSP$9.3*PRCP$0.10*SNDP$0.0*FRSHTT$010000*CLDC$88.2*WNDDIR$203
STN$944880*DATE$2021-02-02*TIME$19:59:17*TEMP$14.6*DEWP$1.0*STP$993.9*SLP$1007.7*VISIB$44.5*WDSP$14.5*PRCP$0.16*SNDP$0.0*FRSHTT$010000*CLDC$51.9*WNDDIR$65
STN$725970*DATE$2021-02-02*TIME$19:59:17*TEMP$-0.7*DEWP$-3.4*STP$973.5*SLP$1019.1*VISIB$16.2*WDSP$6.4*PRCP$0.34*SNDP$0.1*FRSHTT$*CLDC$51.4*WNDDIR$287
STN$232420*DATE$2021-02-02*TIME$19:59:17*TEMP$-31.8*DEWP$-33.8*STP$1009.6*SLP$1010.4*VISIB$19.4*WDSP$26.2*PRCP$0.04*SNDP$18.3*FRSHTT$111000*CLDC$84.7*WNDDIR$308
STN$725975*DATE$2021-02-02*TIME$19:59:17*TEMP$0.8*DEWP$-4.9*STP$967.3*SLP$1015.3*VISIB$35.9*WDSP$27.0*PRCP$0.22*SNDP$0.7*FRSHTT$011000*CLDC$60.9*WNDDIR$10
STN$308790*DATE$2021-02-02*TIME$19:59:17*TEMP$-22.7*DEWP$-24.6*STP$946.2*SLP$1033.6*VISIB$46.4*WDSP$2.9*PRCP$0.17*SNDP$14.2*FRSHTT$111000*CLDC$61.3*WNDDIR$290
STN$690514*DATE$2021-02-02*TIME$19:59:17*TEMP$6.4*DEWP$4.6*STP$973.6*SLP$989.5*VISIB$0.0*WDSP$1.1*PRCP$0.00*SNDP$0.0*FRSHTT$000000*CLDC$38.4*WNDDIR$348
STN$170220*DATE$2021-02-02*TIME$19:59:17*TEMP$2.3*DEWP$-2.5*STP$1022.2*SLP$1019.7*VISIB$14.2*WDSP$17.0*PRCP$0.37*SNDP$3.3*FRSHTT$011000*CLDC$73.0*WNDDIR$280
STN$603600*DATE$2021-02-02*TIME$19:59:17*TEMP$2.7*DEWP$-0.1*STP$1018.2*SLP$1021.2*VISIB$9.1*WDSP$27.8*PRCP$0.12*SNDP$0.0*FRSHTT$010000*CLDC$51.0*WNDDIR$280
STN$913481*DATE$2021-02-02*TIME$19:59:17*TEMP$13.0*DEWP$7.8*STP$1035.5*SLP$1008.1*VISIB$23.9*WDSP$18.6*PRCP$0.34*SNDP$0.0*FRSHTT$010000*CLDC$50.6*WNDDIR$205
STN$913480*DATE$2021-02-02*TIME$19:59:17*TEMP$12.5*DEWP$8.4*STP$1004.1*SLP$1009.2*VISIB$21.6*WDSP$13.6*PRCP$0.70*SNDP$0.0*FRSHTT$010000*CLDC$61.8*WNDDIR$284
STN$152920*DATE$2021-02-02*TIME$19:59:17*TEMP$-0.6*DEWP$-3.6*STP$1006.6*SLP$1020.7*VISIB$16.6*WDSP$5.8*PRCP$0.15*SNDP$0.0*FRSHTT$110000*CLDC$51.4*WNDDIR$291
STN$726544*DATE$2021-02-02*TIME$19:59:17*TEMP$-6.2*DEWP$-8.5*STP$993.0*SLP$991.8*VISIB$15.9*WDSP$0.0*PRCP$0.00*SNDP$0.0*FRSHTT$100000*CLDC$37.6*WNDDIR$211
STN$726545*DATE$2021-02-02*TIME$19:59:17*TEMP$-9.0*DEWP$-11.8*STP$995.5*SLP$1008.7*VISIB$25.7*WDSP$22.7*PRCP$0.00*SNDP$0.0*FRSHTT$100000*CLDC$48.6*WNDDIR$45
STN$619740*DATE$2021-02-02*TIME$19:59:17*TEMP$21.7*DEWP$19.4*STP$1007.5*SLP$1009.2*VISIB$22.3*WDSP$6.7*PRCP$0.18*SNDP$0.0*FRSHTT$010000*CLDC$50.8*WNDDIR$101
STN$726558*DATE$2021-02-02*TIME$19:59:17*TEMP$-7.1*DEWP$-8.2*STP$993.9*SLP$996.0*VISIB$17.3*WDSP$18.5*PRCP$0.00*SNDP$0.0*FRSHTT$100000*CLDC$98.1*WNDDIR$123
STN$726559*DATE$2021-02-02*TIME$19:59:17*TEMP$-1.5*DEWP$-5.4*STP$983.9*SLP$988.5*VISIB$12.9*WDSP$17.4*PRCP$0.00*SNDP$0.0*FRSHTT$100000*CLDC$89.3*WNDDIR$115
STN$726556*DATE$2021-02-02*TIME$19:59:17*TEMP$-3.9*DEWP$-7.8*STP$1017.9*SLP$1021.0*VISIB$8.0*WDSP$4.6*PRCP$0.03*SNDP$7.2*FRSHTT$111000*CLDC$70.5*WNDDIR$64
STN$637330*DATE$2021-02-02*TIME$19:59:17*TEMP$9.3*DEWP$3.9*STP$887.2*SLP$913.2*VISIB$19.2*WDSP$5.1*PRCP$0.04*SNDP$0.0*FRSHTT$010000*CLDC$58.3*WNDDIR$282
STN$726557*DATE$2021-02-02*TIME$19:59:17*TEMP$-10.4*DEWP$-13.8*STP$1026.4*SLP$1021.5*VISIB$7.6*WDSP$20.0*PRCP$0.02*SNDP$11.4*FRSHTT$111000*CLDC$53.8*WNDDIR$186
STN$827980*DATE$2021-02-02*TIME$19:59:17*TEMP$12.5*DEWP$7.9*STP$1012.3*SLP$1013.5*VISIB$15.6*WDSP$4.0*PRCP$0.00*SNDP$0.0*FRSHTT$000000*CLDC$28.9*WNDDIR$80
STN$308220*DATE$2021-02-02*TIME$19:59:17*TEMP$-13.3*DEWP$-16.8*STP$1017.8*SLP$1028.4*VISIB$23.8*WDSP$6.2*PRCP$0.01*SNDP$8.2*FRSHTT$111000*CLDC$55.8*WNDDIR$265
STN$729350*DATE$2021-02-02*TIME$19:59:17*TEMP$-19.0*DEWP$-21.5*STP$1009.2*SLP$1019.2*VISIB$21.8*WDSP$15.6*PRCP$0.00*SNDP$40.0*FRSHTT$101000*CLDC$98.8*WNDDIR$272
STN$121850*DATE$2021-02-02*TIME$19:59:17*TEMP$-1.7*DEWP$-3.2*STP$1013.7*SLP$1017.6*VISIB$15.4*WDSP$16.2*PRCP$0.07*SNDP$4.9*FRSHTT$111000*CLDC$62.9*WNDDIR$209
STN$35900*DATE$2021-02-02*TIME$19:59:17*TEMP$0.7*DEWP$-1.7*STP$1013.0*SLP$1014.9*VISIB$10.4*WDSP$10.8*PRCP$0.09*SNDP$0.2*FRSHTT$011000*CLDC$58.1*WNDDIR$111
STN$564620*DATE$2021-02-02*TIME$19:59:17*TEMP$-3.4*DEWP$-14.8*STP$757.0*SLP$759.4*VISIB$33.7*WDSP$20.0*PRCP$0.01*SNDP$0.0*FRSHTT$110000*CLDC$70.9*WNDDIR$241
STN$764056*DATE$2021-02-02*TIME$19:59:17*TEMP$7.8*DEWP$-0.3*STP$1029.5*SLP$1028.3*VISIB$4.6*WDSP$27.5*PRCP$0.00*SNDP$0.0*FRSHTT$000000*CLDC$97.2*WNDDIR$169
STN$226410*DATE$2021-02-02*TIME$19:59:17*TEMP$-13.3*DEWP$-16.2*STP$1005.1*SLP$1009.8*VISIB$30.7*WDSP$10.5*PRCP$0.29*SNDP$12.5*FRSHTT$111000*CLDC$74.2*WNDDIR$291
STN$71330*DATE$2021-02-02*TIME$19:59:17*TEMP$4.2*DEWP$-0.3*STP$992.5*SLP$1007.6*VISIB$35.9*WDSP$69.4*PRCP$0.04*SNDP$0.0*FRSHTT$010000*CLDC$54.9*WNDDIR$266
STN$421810*DATE$2021-02-02*TIME$19:59:17*TEMP$4.9*DEWP$-1.5*STP$1008.0*SLP$993.0*VISIB$2.7*WDSP$18.1*PRCP$0.00*SNDP$0.0*FRSHTT$000000*CLDC$79.8*WNDDIR$60
STN$421820*DATE$2021-02-02*TIME$19:59:17*TEMP$8.0*DEWP$-1.7*STP$1001.2*SLP$1014.0*VISIB$11.2*WDSP$8.2*PRCP$0.00*SNDP$0.0*FRSHTT$000000*CLDC$91.8*WNDDIR$186
STN$579930*DATE$2021-02-02*TIME$19:59:17*TEMP$2.8*DEWP$-1.3*STP$1023.9*SLP$1024.5*VISIB$0.3*WDSP$3.4*PRCP$0.25*SNDP$0.0*FRSHTT$010000*CLDC$50.0*WNDDIR$68
STN$359970*DATE$2021-02-02*TIME$19:59:17*TEMP$-14.6*DEWP$-18.3*STP$1026.7*SLP$1029.6*VISIB$32.0*WDSP$1.4*PRCP$0.00*SNDP$0.9*FRSHTT$101000*CLDC$50.6*WNDDIR$221
STN$722310*DATE$2021-02-02*TIME$19:59:17*TEMP$6.0*DEWP$1.0*STP$1019.5*SLP$1020.0*VISIB$14.5*WDSP$6.5*PRCP$0.57*SNDP$0.0*FRSHTT$010000*CLDC$56.3*WNDDIR$201
STN$443050*DATE$2021-02-02*TIME$19:59:17*TEMP$-20.0*DEWP$-22.0*STP$960.9*SLP$1032.5*VISIB$46.1*WDSP$17.7*PRCP$0.00*SNDP$3.0*FRSHTT$101000*CLDC$53.0*WNDDIR$217
STN$722332*DATE$2021-02-02*TIME$19:59:17*TEMP$-5.8*DEWP$-7.8*STP$987.2*SLP$967.5*VISIB$8.6*WDSP$0.8*PRCP$0.00*SNDP$0.0*FRSHTT$100000*CLDC$57.9*WNDDIR$163
STN$722334*DATE$2021-02-02*TIME$19:59:17*TEMP$1.9*DEWP$-3.3*STP$992.9*SLP$1018.3*VISIB$13.9*WDSP$1.7*PRCP$0.00*SNDP$0.0*FRSHTT$000000*CLDC$55.5*WNDDIR$325
STN$589270*DATE$2021-02-02*TIME$19:59:17*TEMP$2.5*DEWP$-2.8*STP$1030.3*SLP$1021.6*VISIB$17.4*WDSP$0.8*PRCP$0.19*SNDP$0.0*FRSHTT$010000*CLDC$50.8*WNDDIR$173
STN$722320*DATE$2021-02-02*TIME$19:59:17*TEMP$6.3*DEWP$2.1*STP$1022.4*SLP$1020.8*VISIB$15.5*WDSP$6.0*PRCP$0.51*SNDP$0.0*FRSHTT$010000*CLDC$80.7*WNDDIR$304
STN$60520*DATE$2021-02-02*TIME$19:59:17*TEMP$0.5*DEWP$-1.2*STP$1014.7*SLP$1012.5*VISIB$1.1*WDSP$41.9*PRCP$0.12*SNDP$0.2*FRSHTT$011000*CLDC$50.4*WNDDIR$97
STN$536730*DATE$2021-02-02*TIME$19:59:17*TEMP$-8.4*DEWP$-21.8*STP$970.4*SLP$1029.2*VISIB$18.2*WDSP$5.9*PRCP$0.00*SNDP$0.0*FRSHTT$100000*CLDC$94.5*WNDDIR$156
STN$986440*DATE$2021-02-02*TIME$19:59:17*TEMP$10.0*DEWP$4.8*STP$992.4*SLP$1012.5*VISIB$14.3*WDSP$57.0*PRCP$0.00*SNDP$0.0*FRSHTT$000000*CLDC$46.9*WNDDIR$20
STN$215370*DATE$2021-02-02*TIME$19:59:17*TEMP$-14.6*DEWP$-15.0*STP$1028.1*SLP$1009.5*VISIB$24.2*WDSP$11.2*PRCP$0.08*SNDP$0.0*FRSHTT$110000*CLDC$93.1*WNDDIR$234
STN$865000*DATE$2021-02-02*TIME$19:59:17*TEMP$10.4*DEWP$4.6*STP$1009.4*SLP$1011.8*VISIB$11.7*WDSP$3.2*PRCP$0.19*SNDP$0.0*FRSHTT$010000*CLDC$51.9*WNDDIR$317
STN$919520*DATE$2021-02-02*TIME$19:59:17*TEMP$19.4*DEWP$14.9*STP$1015.3*SLP$1013.7*VISIB$25.7*WDSP$20.0*PRCP$0.22*SNDP$0.0*FRSHTT$010000*CLDC$56.6*WNDDIR$199
STN$434130*DATE$2021-02-02*TIME$19:59:17*TEMP$17.1*DEWP$13.1*STP$1030.6*SLP$1011.7*VISIB$17.4*WDSP$13.6*PRCP$0.02*SNDP$0.0*FRSHTT$010000*CLDC$50.7*WNDDIR$57
STN$475490*DATE$2021-02-02*TIME$19:59:17*TEMP$-2.1*DEWP$-7.4*STP$1004.2*SLP$1006.9*VISIB$8.2*WDSP$6.5*PRCP$0.00*SNDP$0.0*FRSHTT$100000*CLDC$46.5*WNDDIR$343
STN$728260*DATE$2021-02-02*TIME$19:59:17*TEMP$-5.3*DEWP$-7.6*STP$917.2*SLP$977.8*VISIB$6.7*WDSP$42.9*PRCP$0.44*SNDP$40.0*FRSHTT$111000*CLDC$54.3*WNDDIR$311
STN$76670*DATE$2021-02-02*TIME$19:59:17*TEMP$0.6*DEWP$-4.1*STP$1018.4*SLP$1021.6*VISIB$9.8*WDSP$15.7*PRCP$0.05*SNDP$0.0*FRSHTT$010000*CLDC$56.0*WNDDIR$59
STN$388860*DATE$2021-02-02*TIME$19:59:17*TEMP$-6.9*DEWP$-9.8*STP$1007.4*SLP$1031.3*VISIB$1.4*WDSP$1.7*PRCP$0.42*SNDP$4.2*FRSHTT$111000*CLDC$52.1*WNDDIR$216
STN$919300*DATE$2021-02-02*TIME$19:59:17*TEMP$22.0*DEWP$17.3*STP$1013.1*SLP$1010.8*VISIB$20.1*WDSP$19.4*PRCP$0.28*SNDP$0.0*FRSHTT$010000*CLDC$94.9*WNDDIR$312
STN$728280*DATE$2021-02-02*TIME$19:59:17*TEMP$-5.0*DEWP$-8.5*STP$923.0*SLP$986.3*VISIB$1.8*WDSP$28.7*PRCP$0.25*SNDP$57.5*FRSHTT$111000*CLDC$80.3*WNDDIR$148
STN$718500*DATE$2021-02-02*TIME$19:59:17*TEMP$-8.5*DEWP$-11.8*STP$966.8*SLP$1019.3*VISIB$20.3*WDSP$14.6*PRCP$0.04*SNDP$31.1*FRSHTT$111000*CLDC$98.7*WNDDIR$194
STN$471430*DATE$2021-02-02*TIME$19:59:17*TEMP$-1.9*DEWP$-11.6*STP$1017.6*SLP$1023.7*VISIB$17.5*WDSP$10.4*PRCP$0.03*SNDP$0.0*FRSHTT$110000*CLDC$51.6*WNDDIR$346
STN$948210*DATE$2021-02-02*TIME$19:59:17*TEMP$6.2*DEWP$-3.9*STP$1011.2*SLP$1011.6*VISIB$38.3*WDSP$28.6*PRCP$0.04*SNDP$*FRSHTT$010000*CLDC$50.9*WNDDIR$332
STN$488770*DATE$2021-02-02*TIME$19:59:17*TEMP$13.6*DEWP$7.9*STP$1013.8*SLP$1013.5*VISIB$19.0*WDSP$11.7*PRCP$0.00*SNDP$0.0*FRSHTT$000000*CLDC$27.2*WNDDIR$132
STN$718510*DATE$2021-02-02*TIME$19:59:17*TEMP$-8.5*DEWP$-10.9*STP$986.5*SLP$1021.8*VISIB$22.1*WDSP$0.6*PRCP$0.10*SNDP$10.2*FRSHTT$111000*CLDC$52.1*WNDDIR$267
STN$701043*DATE$2021-02-02*TIME$19:59:17*TEMP$-14.5*DEWP$-15.9*STP$1005.3*SLP$1022.8*VISIB$10.8*WDSP$29.1*PRCP$0.00*SNDP$0.0*FRSHTT$100000*CLDC$59.7*WNDDIR$84
STN$701040*DATE$2021-02-02*TIME$19:59:17*TEMP$-18.7*DEWP$-24.5*STP$1016.5*SLP$1016.7*VISIB$14.8*WDSP$24.4*PRCP$0.01*SNDP$2.5*FRSHTT$111000*CLDC$95.4*WNDDIR$121
STN$298270*DATE$2021-02-02*TIME$19:59:17*TEMP$-20.1*DEWP$-21.4*STP$1002.9*SLP$1020.2*VISIB$5.9*WDSP$33.3*PRCP$0.00*SNDP$0.0*FRSHTT$100000*CLDC$93.6*WNDDIR$93
STN$718520*DATE$2021-02-02*TIME$19:59:17*TEMP$-10.5*DEWP$-14.9*STP$990.0*SLP$1020.8*VISIB$20.8*WDSP$22.2*PRCP$0.05*SNDP$11.9*FRSHTT$111000*CLDC$51.7*WNDDIR$86
STN$173000*DATE$2021-02-02*TIME$19:59:17*TEMP$3.0*DEWP$-3.2*STP$1010.9*SLP$1013.9*VISIB$20.2*WDSP$11.5*PRCP$0.42*SNDP$0.0*FRSHTT$010000*CLDC$53.4*WNDDIR$229
STN$101470*DATE$2021-02-02*TIME$19:59:17*TEMP$-0.4*DEWP$-2.8*STP$1015.4*SLP$1013.9*VISIB$2.0*WDSP$25.0*PRCP$0.16*SNDP$13.7*FRSHTT$111000*CLDC$51.6*WNDDIR$244
STN$541610*DATE$2021-02-02*TIME$19:59:17*TEMP$-12.4*DEWP$-17.4*STP$1006.4*SLP$1027.1*VISIB$2.6*WDSP$7.6*PRCP$0.02*SNDP$0.0*FRSHTT$110000*CLDC$50.3*WNDDIR$166
STN$541611*DATE$2021-02-02*TIME$19:59:17*TEMP$-12.1*DEWP$-16.3*STP$979.6*SLP$1008.8*VISIB$7.2*WDSP$7.8*PRCP$0.00*SNDP$0.0*FRSHTT$100000*CLDC$25.9*WNDDIR$211
STN$576040*DATE$2021-02-02*TIME$19:59:17*TEMP$3.5*DEWP$0.7*STP$1033.3*SLP$1023.3*VISIB$5.9*WDSP$6.3*PRCP$0.10*SNDP$0.0*FRSHTT$010000*CLDC$51.4*WNDDIR$66
STN$21020*DATE$2021-02-02*TIME$19:59:17*TEMP$-10.3*DEWP$-12.5*STP$986.9*SLP$1023.4*VISIB$14.0*WDSP$0.1*PRCP$*SNDP$55.0*FRSHTT$111000*CLDC$52.3*WNDDIR$121
STN$576020*DATE$2021-02-02*TIME$19:59:17*TEMP$5.1*DEWP$2.2*STP$1013.4*SLP$1022.7*VISIB$7.4*WDSP$4.1*PRCP$0.07*SNDP$0.0*FRSHTT$010000*CLDC$52.7*WNDDIR$330
STN$82210*DATE$2021-02-02*TIME$19:59:17*TEMP$1.5*DEWP$-3.2*STP$954.0*SLP$1016.5*VISIB$8.7*WDSP$14.1*PRCP$0.12*SNDP$0.0*FRSHTT$010000*CLDC$82.9*WNDDIR$229
STN$160800*DATE$2021-02-02*TIME$19:59:17*TEMP$-0.1*DEWP$-5.9*STP$1007.6*SLP$1015.3*VISIB$7.1*WDSP$15.2*PRCP$0.06*SNDP$0.0*FRSHTT$110000*CLDC$92.8*WNDDIR$196
STN$541570*DATE$2021-02-02*TIME$19:59:17*TEMP$-8.5*DEWP$-13.7*STP$1021.2*SLP$1026.7*VISIB$11.4*WDSP$15.8*PRCP$0.02*SNDP$0.0*FRSHTT$110000*CLDC$55.5*WNDDIR$155
STN$82230*DATE$2021-02-02*TIME$19:59:17*TEMP$5.1*DEWP$-0.9*STP$962.8*SLP$986.2*VISIB$6.9*WDSP$13.6*PRCP$0.05*SNDP$0.0*FRSHTT$010000*CLDC$52.1*WNDDIR$287
STN$80290*DATE$2021-02-02*TIME$19:59:17*TEMP$3.7*DEWP$0.1*STP$1020.8*SLP$1019.7*VISIB$14.3*WDSP$16.0*PRCP$0.40*SNDP$0.0*FRSHTT$010000*CLDC$85.5*WNDDIR$264
STN$724509*DATE$2021-02-02*TIME$19:59:17*TEMP$-4.9*DEWP$-6.0*STP$1018.6*SLP$1039.7*VISIB$6.0*WDSP$20.6*PRCP$0.07*SNDP$0.0*FRSHTT$110000*CLDC$76.5*WNDDIR$286
STN$724508*DATE$2021-02-02*TIME$19:59:17*TEMP$-4.1*DEWP$-7.7*STP$1014.9*SLP$1019.2*VISIB$16.2*WDSP$7.1*PRCP$0.07*SNDP$0.0*FRSHTT$110000*CLDC$52.8*WNDDIR$355
STN$724507*DATE$2021-02-02*TIME$19:59:17*TEMP$-2.8*DEWP$-7.2*STP$1021.9*SLP$1019.6*VISIB$14.1*WDSP$10.2*PRCP$0.04*SNDP$0.5*FRSHTT$111000*CLDC$93.0*WNDDIR$188
STN$306170*DATE$2021-02-02*TIME$19:59:17*TEMP$-15.3*DEWP$-16.6*STP$1002.7*SLP$1023.0*VISIB$9.5*WDSP$8.2*PRCP$0.25*SNDP$0.0*FRSHTT$110000*CLDC$55.6*WNDDIR$119
STN$724506*DATE$2021-02-02*TIME$19:59:17*TEMP$-1.7*DEWP$-6.9*STP$996.8*SLP$1005.3*VISIB$13.3*WDSP$0.0*PRCP$0.07*SNDP$0.0*FRSHTT$110000*CLDC$51.1*WNDDIR$279
STN$724505*DATE$2021-02-02*TIME$19:59:17*TEMP$-2.3*DEWP$-8.0*STP$995.8*SLP$1023.3*VISIB$13.7*WDSP$3.0*PRCP$0.05*SNDP$2.3*FRSHTT$111000*CLDC$53.8*WNDDIR$191
STN$724504*DATE$2021-02-02*TIME$19:59:17*TEMP$-2.4*DEWP$-9.0*STP$1030.5*SLP$1017.5*VISIB$14.6*WDSP$15.2*PRCP$0.12*SNDP$0.0*FRSHTT$110000*CLDC$94.2*WNDDIR$301
STN$724516*DATE$2021-02-02*TIME$19:59:17*TEMP$-3.9*DEWP$-8.9*STP$1008.0*SLP$994.2*VISIB$56.8*WDSP$3.4*PRCP$0.00*SNDP$0.0*FRSHTT$100000*CLDC$26.8*WNDDIR$261
STN$724517*DATE$2021-02-02*TIME$19:59:17*TEMP$-5.7*DEWP$-11.4*STP$1013.0*SLP$1028.2*VISIB$29.7*WDSP$24.2*PRCP$0.00*SNDP$0.0*FRSHTT$100000*CLDC$32.9*WNDDIR$251
STN$517110*DATE$2021-02-02*TIME$19:59:17*TEMP$-9.9*DEWP$-16.4*STP$801.1*SLP$808.0*VISIB$19.7*WDSP$19.9*PRCP$0.01*SNDP$0.0*FRSHTT$110000*CLDC$51.3*WNDDIR$87
STN$22440*DATE$2021-02-02*TIME$19:59:17*TEMP$-0.7*DEWP$-0.8*STP$988.7*SLP$1011.5*VISIB$53.5*WDSP$8.8*PRCP$0.00*SNDP$30.9*FRSHTT$101000*CLDC$50.2*WNDDIR$120
STN$486010*DATE$2021-02-02*TIME$19:59:17*TEMP$14.4*DEWP$10.1*STP$1015.7*SLP$1009.8*VISIB$13.4*WDSP$4.4*PRCP$0.14*SNDP$0.0*FRSHTT$010000*CLDC$54.7*WNDDIR$218
STN$144740*DATE$2021-02-02*TIME$19:59:17*TEMP$3.7*DEWP$-7.5*STP$998.2*SLP$1017.2*VISIB$5.8*WDSP$5.8*PRCP$0.02*SNDP$0.0*FRSHTT$010000*CLDC$57.5*WNDDIR$355
STN$241430*DATE$2021-02-02*TIME$19:59:17*TEMP$-19.2*DEWP$-23.8*STP$1021.6*SLP$1026.0*VISIB$44.3*WDSP$9.5*PRCP$0.01*SNDP$0.0*FRSHTT$110000*CLDC$53.7*WNDDIR$74
STN$160083*DATE$2021-02-02*TIME$19:59:17*TEMP$-6.7*DEWP$-10.5*STP$1039.3*SLP$1102.4*VISIB$1.2*WDSP$11.6*PRCP$0.00*SNDP$0.0*FRSHTT$100000*CLDC$11.7*WNDDIR$39
STN$486030*DATE$2021-02-02*TIME$19:59:17*TEMP$14.3*DEWP$3.6*STP$1016.2*SLP$1012.0*VISIB$30.9*WDSP$10.0*PRCP$0.00*SNDP$0.0*FRSHTT$000000*CLDC$97.3*WNDDIR$114
STN$160080*DATE$2021-02-02*TIME$19:59:17*TEMP$-1.6*DEWP$-6.1*STP$915.7*SLP$940.6*VISIB$14.2*WDSP$5.4*PRCP$0.04*SNDP$27.0*FRSHTT$111000*CLDC$51.0*WNDDIR$167
STN$560040*DATE$2021-02-02*TIME$19:59:17*TEMP$-14.2*DEWP$-27.9*STP$998.6*SLP$999.9*VISIB$28.1*WDSP$39.8*PRCP$0.00*SNDP$0.0*FRSHTT$100000*CLDC$45.9*WNDDIR$126
STN$470600*DATE$2021-02-02*TIME$19:59:17*TEMP$-5.6*DEWP$-11.7*STP$1028.5*SLP$1025.3*VISIB$16.2*WDSP$6.1*PRCP$0.05*SNDP$0.0*FRSHTT$110000*CLDC$69.2*WNDDIR$18
STN$37170*DATE$2021-02-02*TIME$19:59:17*TEMP$3.1*DEWP$0.7*STP$1017.6*SLP$1015.3*VISIB$12.8*WDSP$3.8*PRCP$0.46*SNDP$0.0*FRSHTT$010000*CLDC$54.1*WNDDIR$341
STN$483750*DATE$2021-02-02*TIME$19:59:17*TEMP$13.2*DEWP$6.2*STP$1011.6*SLP$1010.7*VISIB$1.8*WDSP$5.0*PRCP$0.00*SNDP$0.0*FRSHTT$000000*CLDC$20.2*WNDDIR$75
STN$283820*DATE$2021-02-02*TIME$19:59:17*TEMP$-22.0*DEWP$-26.0*STP$1021.0*SLP$1027.8*VISIB$29.8*WDSP$8.0*PRCP$0.03*SNDP$28.8*FRSHTT$111000*CLDC$98.7*WNDDIR$26
STN$518180*DATE$2021-02-02*TIME$19:59:17*TEMP$-7.0*DEWP$-15.3*STP$985.4*SLP$1028.2*VISIB$15.1*WDSP$7.0*PRCP$0.00*SNDP$0.0*FRSHTT$100000*CLDC$79.8*WNDDIR$335
STN$37160*DATE$2021-02-02*TIME$19:59:17*TEMP$1.2*DEWP$-2.0*STP$1004.0*SLP$1011.3*VISIB$11.6*WDSP$22.2*PRCP$0.33*SNDP$1.7*FRSHTT$011000*CLDC$52.2*WNDDIR$32
STN$483770*DATE$2021-02-02*TIME$19:59:17*TEMP$14.4*DEWP$1.9*STP$1048.4*SLP$1011.6*VISIB$3.8*WDSP$5.1*PRCP$0.00*SNDP$0.0*FRSHTT$000000*CLDC$85.2*WNDDIR$17
STN$767383*DATE$2021-02-02*TIME$19:59:17*TEMP$14.8*DEWP$11.5*STP$1010.8*SLP$1004.4*VISIB$7.8*WDSP$33.7*PRCP$0.00*SNDP$0.0*FRSHTT$000000*CLDC$48.4*WNDDIR$153
STN$283830*DATE$2021-02-02*TIME$19:59:17*TEMP$-22.6*DEWP$-25.6*STP$1026.5*SLP$1033.1*VISIB$27.5*WDSP$15.9*PRCP$0.01*SNDP$24.2*FRSHTT$111000*CLDC$52.8*WNDDIR$224
STN$804100*DATE$2021-02-02*TIME$19:59:17*TEMP$12.8*DEWP$4.5*STP$944.2*SLP$980.5*VISIB$14.4*WDSP$26.0*PRCP$0.01*SNDP$0.0*FRSHTT$010000*CLDC$64.3*WNDDIR$356
STN$23660*DATE$2021-02-02*TIME$19:59:17*TEMP$-7.3*DEWP$-9.2*STP$1017.9*SLP$1011.5*VISIB$22.7*WDSP$8.5*PRCP$0.13*SNDP$21.9*FRSHTT$111000*CLDC$62.5*WNDDIR$139
STN$723118*DATE$2021-02-02*TIME$19:59:17*TEMP$0.7*DEWP$-7.5*STP$1013.2*SLP$1019.3*VISIB$17.0*WDSP$3.2*PRCP$0.15*SNDP$0.0*FRSHTT$010000*CLDC$88.3*WNDDIR$120
STN$723120*DATE$2021-02-02*TIME$19:59:17*TEMP$0.1*DEWP$-7.2*STP$986.7*SLP$1019.2*VISIB$29.7*WDSP$9.5*PRCP$0.72*SNDP$0.0*FRSHTT$010000*CLDC$52.5*WNDDIR$269
STN$723122*DATE$2021-02-02*TIME$19:59:17*TEMP$-1.2*DEWP$-10.2*STP$981.7*SLP$960.3*VISIB$9.0*WDSP$5.2*PRCP$0.00*SNDP$0.0*FRSHTT$100000*CLDC$34.1*WNDDIR$93
STN$723123*DATE$2021-02-02*TIME$19:59:17*TEMP$-5.2*DEWP$-4.9*STP$1015.1*SLP$1049.0*VISIB$13.1*WDSP$3.6*PRCP$0.00*SNDP$0.0*FRSHTT$100000*CLDC$99.4*WNDDIR$102
STN$723124*DATE$2021-02-02*TIME$19:59:17*TEMP$-0.3*DEWP$-6.7*STP$1031.1*SLP$1021.3*VISIB$9.9*WDSP$5.9*PRCP$0.34*SNDP$0.0*FRSHTT$110000*CLDC$54.1*WNDDIR$324
STN$723125*DATE$2021-02-02*TIME$19:59:17*TEMP$0.7*DEWP$-4.4*STP$1015.3*SLP$1013.7*VISIB$14.6*WDSP$12.2*PRCP$0.68*SNDP$0.0*FRSHTT$010000*CLDC$53.5*WNDDIR$41
STN$723126*DATE$2021-02-02*TIME$19:59:17*TEMP$-0.1*DEWP$-10.4*STP$998.9*SLP$1002.6*VISIB$16.7*WDSP$7.0*PRCP$0.00*SNDP$0.0*FRSHTT$100000*CLDC$64.6*WNDDIR$257
STN$321950*DATE$2021-02-02*TIME$19:59:17*TEMP$-4.5*DEWP$-7.2*STP$1008.2*SLP$1004.4*VISIB$6.0*WDSP$40.1*PRCP$0.49*SNDP$9.4*FRSHTT$111000*CLDC$83.9*WNDDIR$114
STN$723075*DATE$2021-02-02*TIME$19:59:17*TEMP$0.8*DEWP$-4.3*STP$1017.9*SLP$1019.5*VISIB$5.7*WDSP$9.5*PRCP$0.20*SNDP$0.0*FRSHTT$010000*CLDC$66.6*WNDDIR$78
STN$723074*DATE$2021-02-02*TIME$19:59:17*TEMP$0.1*DEWP$-5.3*STP$1007.5*SLP$1014.8*VISIB$9.0*WDSP$13.5*PRCP$0.00*SNDP$0.0*FRSHTT$000000*CLDC$82.7*WNDDIR$202
STN$486740*DATE$2021-02-02*TIME$19:59:17*TEMP$19.9*DEWP$14.9*STP$1023.6*SLP$1011.2*VISIB$35.0*WDSP$31.4*PRCP$0.59*SNDP$0.0*FRSHTT$010000*CLDC$53.0*WNDDIR$127
STN$408210*DATE$2021-02-02*TIME$19:59:17*TEMP$-3.3*DEWP$-12.9*STP$871.2*SLP$1002.0*VISIB$7.4*WDSP$13.9*PRCP$0.00*SNDP$0.0*FRSHTT$100000*CLDC$45.9*WNDDIR$15
STN$785830*DATE$2021-02-02*TIME$19:59:17*TEMP$9.5*DEWP$5.7*STP$1039.6*SLP$1014.7*VISIB$16.7*WDSP$8.0*PRCP$0.15*SNDP$0.0*FRSHTT$010000*CLDC$50.1*WNDDIR$322
STN$82840*DATE$2021-02-02*TIME$19:59:17*TEMP$4.2*DEWP$-1.4*STP$1014.1*SLP$1020.3*VISIB$6.9*WDSP$1.6*PRCP$0.06*SNDP$0.0*FRSHTT$010000*CLDC$50.2*WNDDIR$69
STN$789820*DATE$2021-02-02*TIME$19:59:17*TEMP$14.2*DEWP$8.7*STP$1013.4*SLP$1012.9*VISIB$20.1*WDSP$28.1*PRCP$0.07*SNDP$0.0*FRSHTT$010000*CLDC$55.5*WNDDIR$218
STN$540960*DATE$2021-02-02*TIME$19:59:17*TEMP$-13.8*DEWP$-18.9*STP$1021.3*SLP$1023.3*VISIB$17.6*WDSP$18.9*PRCP$0.01*SNDP$0.0*FRSHTT$110000*CLDC$57.6*WNDDIR$80
STN$257050*DATE$2021-02-02*TIME$19:59:17*TEMP$-30.8*DEWP$-34.1*STP$1027.0*SLP$1040.8*VISIB$17.8*WDSP$3.4*PRCP$0.04*SNDP$0.0*FRSHTT$110000*CLDC$73.0*WNDDIR$319
STN$664470*DATE$2021-02-02*TIME$19:59:17*TEMP$14.1*DEWP$2.2*STP$999.6*SLP$1003.4*VISIB$60.7*WDSP$3.6*PRCP$0.00*SNDP$0.0*FRSHTT$000000*CLDC$5.3*WNDDIR$343
STN$610910*DATE$2021-02-02*TIME$19:59:17*TEMP$9.5*DEWP$-12.8*STP$1042.3*SLP$1011.5*VISIB$19.6*WDSP$9.3*PRCP$0.00*SNDP$0.0*FRSHTT$000000*CLDC$86.8*WNDDIR$34
STN$222690*DATE$2021-02-02*TIME$19:59:17*TEMP$-2.6*DEWP$-5.3*STP$989.6*SLP$1002.3*VISIB$9.6*WDSP$54.8*PRCP$0.17*SNDP$0.0*FRSHTT$110000*CLDC$78.2*WNDDIR$230
STN$566840*DATE$2021-02-02*TIME$19:59:17*TEMP$1.4*DEWP$-5.9*STP$788.1*SLP$791.9*VISIB$18.1*WDSP$21.1*PRCP$0.02*SNDP$0.0*FRSHTT$010000*CLDC$56.7*WNDDIR$293
STN$727730*DATE$2021-02-02*TIME$19:59:17*TEMP$-1.7*DEWP$-8.1*STP$927.4*SLP$1022.8*VISIB$27.7*WDSP$6.0*PRCP$0.12*SNDP$5.1*FRSHTT$111000*CLDC$71.4*WNDDIR$186
STN$107650*DATE$2021-02-02*TIME$19:59:17*TEMP$-2.3*DEWP$-5.7*STP$980.8*SLP$1010.9*VISIB$10.9*WDSP$11.9*PRCP$0.02*SNDP$0.7*FRSHTT$111000*CLDC$54.9*WNDDIR$100
STN$605360*DATE$2021-02-02*TIME$19:59:17*TEMP$0.9*DEWP$-1.4*STP$930.3*SLP$959.3*VISIB$17.4*WDSP$3.3*PRCP$0.00*SNDP$0.0*FRSHTT$000000*CLDC$29.9*WNDDIR$129
STN$92610*DATE$2021-02-02*TIME$19:59:17*TEMP$-1.0*DEWP$-2.8*STP$1015.2*SLP$1013.5*VISIB$10.9*WDSP$11.4*PRCP$0.14*SNDP$0.6*FRSHTT$111000*CLDC$51.4*WNDDIR$179
STN$122950*DATE$2021-02-02*TIME$19:59:17*TEMP$-3.6*DEWP$-5.3*STP$1011.1*SLP$1018.2*VISIB$7.6*WDSP$11.6*PRCP$0.07*SNDP$5.0*FRSHTT$111000*CLDC$51.5*WNDDIR$234
STN$107655*DATE$2021-02-02*TIME$19:59:17*TEMP$-0.3*DEWP$-0.3*STP$983.2*SLP$993.8*VISIB$8.6*WDSP$9.5*PRCP$0.34*SNDP$5.9*FRSHTT$111000*CLDC$60.9*WNDDIR$31
STN$727686*DATE$2021-02-02*TIME$19:59:17*TEMP$-7.9*DEWP$-10.3*STP$1029.3*SLP$1020.7*VISIB$18.7*WDSP$19.3*PRCP$0.02*SNDP$0.0*FRSHTT$110000*CLDC$99.7*WNDDIR$167
STN$123000*DATE$2021-02-02*TIME$19:59:17*TEMP$-1.8*DEWP$-3.6*STP$1013.2*SLP$1016.0*VISIB$10.2*WDSP$19.6*PRCP$0.07*SNDP$0.7*FRSHTT$111000*CLDC$50.5*WNDDIR$57
STN$536460*DATE$2021-02-02*TIME$19:59:17*TEMP$-10.0*DEWP$-21.2*STP$924.3*SLP$1029.9*VISIB$20.8*WDSP$10.9*PRCP$0.00*SNDP$0.0*FRSHTT$100000*CLDC$92.5*WNDDIR$261
STN$239330*DATE$2021-02-02*TIME$19:59:17*TEMP$-22.4*DEWP$-24.8*STP$1019.9*SLP$1022.4*VISIB$13.8*WDSP$10.4*PRCP$0.02*SNDP$13.5*FRSHTT$111000*CLDC$84.7*WNDDIR$38
STN$239331*DATE$2021-02-02*TIME$19:59:17*TEMP$-10.1*DEWP$-12.1*STP$1005.6*SLP$999.8*VISIB$9.9*WDSP$16.9*PRCP$0.00*SNDP$0.0*FRSHTT$100000*CLDC$2.0*WNDDIR$28
STN$783250*DATE$2021-02-02*TIME$19:59:17*TEMP$13.6*DEWP$6.0*STP$1022.4*SLP$1017.6*VISIB$15.2*WDSP$6.2*PRCP$0.00*SNDP$0.0*FRSHTT$000000*CLDC$47.5*WNDDIR$35
STN$787200*DATE$2021-02-02*TIME$19:59:17*TEMP$10.9*DEWP$4.1*STP$910.8*SLP$1012.1*VISIB$16.9*WDSP$39.2*PRCP$0.06*SNDP$0.0*FRSHTT$010000*CLDC$88.9*WNDDIR$156
STN$37871*DATE$2021-02-02*TIME$19:59:17*TEMP$-2.4*DEWP$-3.8*STP$1002.7*SLP$1013.5*VISIB$8.0*WDSP$5.5*PRCP$0.00*SNDP$0.0*FRSHTT$100000*CLDC$54.7*WNDDIR$358
STN$22820*DATE$2021-02-02*TIME$19:59:17*TEMP$-6.8*DEWP$-7.4*STP$988.5*SLP$1015.2*VISIB$13.1*WDSP$2.8*PRCP$0.38*SNDP$0.0*FRSHTT$110000*CLDC$83.0*WNDDIR$108
STN$838090*DATE$2021-02-02*TIME$19:59:17*TEMP$14.8*DEWP$9.6*STP$1007.9*SLP$1013.1*VISIB$15.4*WDSP$6.4*PRCP$0.00*SNDP$0.0*FRSHTT$000000*CLDC$29.9*WNDDIR$255
STN$100200*DATE$2021-02-02*TIME$19:59:17*TEMP$0.1*DEWP$-2.0*STP$1012.6*SLP$1012.5*VISIB$8.3*WDSP$18.3*PRCP$0.06*SNDP$0.0*FRSHTT$110000*CLDC$55.4*WNDDIR$280
STN$943690*DATE$2021-02-02*TIME$19:59:17*TEMP$6.4*DEWP$1.6*STP$1008.4*SLP$1008.9*VISIB$6.5*WDSP$14.1*PRCP$0.28*SNDP$0.0*FRSHTT$010000*CLDC$51.7*WNDDIR$129
STN$873280*DATE$2021-02-02*TIME$19:59:17*TEMP$4.1*DEWP$-3.8*STP$954.9*SLP$1017.5*VISIB$25.4*WDSP$2.2*PRCP$0.00*SNDP$0.0*FRSHTT$000000*CLDC$25.5*WNDDIR$223
STN$164800*DATE$2021-02-02*TIME$19:59:17*TEMP$3.6*DEWP$-0.3*STP$1021.7*SLP$1020.0*VISIB$18.0*WDSP$3.1*PRCP$0.19*SNDP$0.0*FRSHTT$010000*CLDC$50.9*WNDDIR$311
STN$723190*DATE$2021-02-02*TIME$19:59:17*TEMP$0.8*DEWP$-5.6*STP$1004.5*SLP$991.4*VISIB$26.2*WDSP$19.6*PRCP$0.00*SNDP$0.0*FRSHTT$000000*CLDC$21.9*WNDDIR$81
STN$601850*DATE$2021-02-02*TIME$19:59:17*TEMP$11.1*DEWP$7.0*STP$1022.6*SLP$1019.9*VISIB$16.8*WDSP$24.0*PRCP$0.20*SNDP$0.0*FRSHTT$010000*CLDC$72.4*WNDDIR$53
STN$617010*DATE$2021-02-02*TIME$19:59:17*TEMP$9.6*DEWP$-29.6*STP$1017.0*SLP$1013.7*VISIB$5.0*WDSP$19.5*PRCP$0.00*SNDP$0.0*FRSHTT$000000*CLDC$3.5*WNDDIR$119
STN$723193*DATE$2021-02-02*TIME$19:59:17*TEMP$-0.7*DEWP$-7.0*STP$1016.2*SLP$1020.6*VISIB$19.0*WDSP$14.0*PRCP$0.19*SNDP$0.0*FRSHTT$110000*CLDC$74.5*WNDDIR$316
STN$723194*DATE$2021-02-02*TIME$19:59:17*TEMP$-0.5*DEWP$-6.5*STP$1019.8*SLP$1022.3*VISIB$22.3*WDSP$5.1*PRCP$0.43*SNDP$0.0*FRSHTT$110000*CLDC$68.6*WNDDIR$358
STN$723143*DATE$2021-02-02*TIME$19:59:17*TEMP$0.7*DEWP$-1.8*STP$1001.5*SLP$976.6*VISIB$2.2*WDSP$4.4*PRCP$0.00*SNDP$0.0*FRSHTT$000000*CLDC$8.3*WNDDIR$302
STN$912210*DATE$2021-02-02*TIME$19:59:17*TEMP$14.7*DEWP$11.2*STP$1002.0*SLP$995.8*VISIB$14.8*WDSP$23.6*PRCP$0.00*SNDP$0.0*FRSHTT$000000*CLDC$3.9*WNDDIR$305
STN$723140*DATE$2021-02-02*TIME$19:59:17*TEMP$-0.4*DEWP$-6.7*STP$995.4*SLP$1019.6*VISIB$20.5*WDSP$17.8*PRCP$0.69*SNDP$0.0*FRSHTT$110000*CLDC$50.3*WNDDIR$221
STN$723139*DATE$2021-02-02*TIME$19:59:17*TEMP$2.9*DEWP$0.4*STP$1020.4*SLP$1018.6*VISIB$11.0*WDSP$19.8*PRCP$0.17*SNDP$0.0*FRSHTT$010000*CLDC$50.8*WNDDIR$266
STN$720348*DATE$2021-02-02*TIME$19:59:17*TEMP$-0.5*DEWP$-6.3*STP$1020.8*SLP$1026.3*VISIB$18.3*WDSP$3.6*PRCP$0.00*SNDP$0.0*FRSHTT$100000*CLDC$5.6*WNDDIR$176
STN$545390*DATE$2021-02-02*TIME$19:59:17*TEMP$-8.7*DEWP$-20.4*STP$1030.9*SLP$1027.9*VISIB$22.7*WDSP$11.9*PRCP$0.01*SNDP$0.0*FRSHTT$110000*CLDC$66.5*WNDDIR$223
STN$720354*DATE$2021-02-02*TIME$19:59:17*TEMP$-0.7*DEWP$-16.3*STP$969.6*SLP$968.2*VISIB$17.7*WDSP$32.3*PRCP$0.00*SNDP$0.0*FRSHTT$100000*CLDC$96.9*WNDDIR$15
STN$209430*DATE$2021-02-02*TIME$19:59:17*TEMP$-18.6*DEWP$-19.4*STP$1007.4*SLP$1009.4*VISIB$18.5*WDSP$21.2*PRCP$0.01*SNDP$3.5*FRSHTT$111000*CLDC$60.3*WNDDIR$306
STN$720357*DATE$2021-02-02*TIME$19:59:17*TEMP$0.0*DEWP$-8.5*STP$1004.6*SLP$1016.1*VISIB$13.7*WDSP$3.8*PRCP$0.00*SNDP$0.0*FRSHTT$000000*CLDC$52.6*WNDDIR$248
STN$702756*DATE$2021-02-02*TIME$19:59:17*TEMP$-10.5*DEWP$-13.3*STP$990.8*SLP$958.0*VISIB$17.1*WDSP$1.4*PRCP$0.00*SNDP$0.0*FRSHTT$100000*CLDC$58.0*WNDDIR$141
STN$720356*DATE$2021-02-02*TIME$19:59:17*TEMP$-7.8*DEWP$-9.6*STP$974.4*SLP$972.8*VISIB$16.8*WDSP$31.7*PRCP$0.00*SNDP$0.0*FRSHTT$100000*CLDC$15.8*WNDDIR$5
STN$702757*DATE$2021-02-02*TIME$19:59:17*TEMP$-6.6*DEWP$-10.2*STP$1023.0*SLP$1005.0*VISIB$16.1*WDSP$41.5*PRCP$0.18*SNDP$27.7*FRSHTT$111000*CLDC$87.7*WNDDIR$189
STN$720359*DATE$2021-02-02*TIME$19:59:17*TEMP$0.9*DEWP$-9.9*STP$1012.3*SLP$1006.7*VISIB$16.9*WDSP$0.2*PRCP$0.00*SNDP$0.0*FRSHTT$000000*CLDC$88.0*WNDDIR$153
STN$702758*DATE$2021-02-02*TIME$19:59:17*TEMP$-25.1*DEWP$-28.6*STP$1023.9*SLP$1050.4*VISIB$15.2*WDSP$*PRCP$0.00*SNDP$0.0*FRSHTT$100000*CLDC$75.2*WNDDIR$94
STN$725404*DATE$2021-02-02*TIME$19:59:17*TEMP$-1.6*DEWP$-4.6*STP$1014.5*SLP$1013.7*VISIB$1.2*WDSP$8.2*PRCP$0.04*SNDP$0.0*FRSHTT$110000*CLDC$85.3*WNDDIR$202
STN$725407*DATE$2021-02-02*TIME$19:59:17*TEMP$-3.0*DEWP$-5.6*STP$1021.5*SLP$1012.4*VISIB$9.7*WDSP$13.9*PRCP$0.01*SNDP$0.0*FRSHTT$110000*CLDC$54.3*WNDDIR$7
STN$725406*DATE$2021-02-02*TIME$19:59:17*TEMP$-6.0*DEWP$-7.6*STP$1000.7*SLP$985.5*VISIB$13.0*WDSP$20.5*PRCP$0.00*SNDP$0.0*FRSHTT$100000*CLDC$86.8*WNDDIR$251
STN$308290*DATE$2021-02-02*TIME$19:59:17*TEMP$-21.8*DEWP$-25.0*STP$993.0*SLP$1031.6*VISIB$50.3*WDSP$2.6*PRCP$0.00*SNDP$2.1*FRSHTT$101000*CLDC$50.1*WNDDIR$275
STN$725408*DATE$2021-02-02*TIME$19:59:17*TEMP$-3.1*DEWP$-5.7*STP$1000.8*SLP$994.1*VISIB$12.5*WDSP$19.2*PRCP$0.00*SNDP$0.0*FRSHTT$100000*CLDC$18.3*WNDDIR$212
STN$725409*DATE$2021-02-02*TIME$19:59:17*TEMP$-4.3*DEWP$-8.9*STP$1003.7*SLP$1008.7*VISIB$11.0*WDSP$8.0*PRCP$0.00*SNDP$0.0*FRSHTT$100000*CLDC$75.4*WNDDIR$139
STN$725414*DATE$2021-02-02*TIME$19:59:17*TEMP$-2.2*DEWP$-5.1*STP$1002.4*SLP$1004.3*VISIB$5.1*WDSP$14.2*PRCP$0.00*SNDP$0.0*FRSHTT$100000*CLDC$48.8*WNDDIR$195
STN$725415*DATE$2021-02-02*TIME$19:59:17*TEMP$-1.8*DEWP$-5.3*STP$999.6*SLP$1019.4*VISIB$15.5*WDSP$11.4*PRCP$0.00*SNDP$0.0*FRSHTT$100000*CLDC$78.1*WNDDIR$341
STN$478220*DATE$2021-02-02*TIME$19:59:17*TEMP$-0.2*DEWP$-6.8*STP$1018.4*SLP$1021.8*VISIB$27.6*WDSP$36.9*PRCP$0.27*SNDP$0.0*FRSHTT$110000*CLDC$55.4*WNDDIR$39
STN$29150*DATE$2021-02-02*TIME$19:59:17*TEMP$-3.8*DEWP$-5.3*STP$1016.2*SLP$1009.2*VISIB$12.7*WDSP$9.1*PRCP$0.07*SNDP$22.7*FRSHTT$111000*CLDC$53.1*WNDDIR$240
STN$339830*DATE$2021-02-02*TIME$19:59:17*TEMP$-2.7*DEWP$-5.3*STP$1015.8*SLP$1019.5*VISIB$10.7*WDSP$26.4*PRCP$0.08*SNDP$1.2*FRSHTT$111000*CLDC$81.6*WNDDIR$254
STN$323890*DATE$2021-02-02*TIME$19:59:17*TEMP$-4.7*DEWP$-7.6*STP$1006.9*SLP$1005.7*VISIB$19.5*WDSP$21.4*PRCP$0.21*SNDP$24.0*FRSHTT$111000*CLDC$54.2*WNDDIR$129
STN$431100*DATE$2021-02-02*TIME$19:59:17*TEMP$15.4*DEWP$6.5*STP$1009.8*SLP$1012.7*VISIB$9.0*WDSP$5.3*PRCP$0.00*SNDP$0.0*FRSHTT$000000*CLDC$70.4*WNDDIR$36
STN$725015*DATE$2021-02-02*TIME$19:59:17*TEMP$-3.1*DEWP$-8.1*STP$1016.1*SLP$1018.8*VISIB$12.4*WDSP$14.9*PRCP$0.44*SNDP$0.0*FRSHTT$110000*CLDC$50.8*WNDDIR$228
STN$231460*DATE$2021-02-02*TIME$19:59:17*TEMP$-27.6*DEWP$-29.5*STP$1017.1*SLP$1016.8*VISIB$2.9*WDSP$15.2*PRCP$0.11*SNDP$22.8*FRSHTT$111000*CLDC$50.4*WNDDIR$178
STN$28790*DATE$2021-02-02*TIME$19:59:17*TEMP$-13.5*DEWP$-15.1*STP$1011.9*SLP$1012.9*VISIB$20.1*WDSP$9.3*PRCP$0.03*SNDP$28.7*FRSHTT$111000*CLDC$52.9*WNDDIR$7
STN$135860*DATE$2021-02-02*TIME$19:59:17*TEMP$-0.8*DEWP$-3.3*STP$1002.5*SLP$1014.3*VISIB$6.0*WDSP$4.4*PRCP$0.05*SNDP$1.2*FRSHTT$111000*CLDC$50.1*WNDDIR$97
STN$725054*DATE$2021-02-02*TIME$19:59:17*TEMP$-3.8*DEWP$-9.3*STP$1004.9*SLP$1008.8*VISIB$12.9*WDSP$5.4*PRCP$0.00*SNDP$0.0*FRSHTT$100000*CLDC$92.8*WNDDIR$215
STN$28740*DATE$2021-02-02*TIME$19:59:17*TEMP$-5.6*DEWP$-8.7*STP$1024.6*SLP$1009.1*VISIB$17.3*WDSP$11.1*PRCP$0.04*SNDP$19.7*FRSHTT$111000*CLDC$52.4*WNDDIR$166
STN$725040*DATE$2021-02-02*TIME$19:59:17*TEMP$-1.7*DEWP$-7.1*STP$1017.0*SLP$1017.9*VISIB$15.0*WDSP$17.0*PRCP$0.28*SNDP$0.2*FRSHTT$111000*CLDC$50.5*WNDDIR$250
STN$578660*DATE$2021-02-02*TIME$19:59:17*TEMP$2.3*DEWP$-1.7*STP$1022.8*SLP$1025.8*VISIB$5.4*WDSP$2.2*PRCP$0.26*SNDP$0.0*FRSHTT$010000*CLDC$51.0*WNDDIR$140
STN$702120*DATE$2021-02-02*TIME$19:59:17*TEMP$-8.2*DEWP$-11.6*STP$988.0*SLP$1007.3*VISIB$8.7*WDSP$30.7*PRCP$0.08*SNDP$12.8*FRSHTT$111000*CLDC$60.0*WNDDIR$119
STN$747760*DATE$2021-02-02*TIME$19:59:17*TEMP$5.4*DEWP$2.0*STP$994.0*SLP$1008.6*VISIB$13.3*WDSP$17.4*PRCP$2.39*SNDP$0.0*FRSHTT$010000*CLDC$51.0*WNDDIR$85
STN$747770*DATE$2021-02-02*TIME$19:59:17*TEMP$5.2*DEWP$1.1*STP$1016.8*SLP$1018.8*VISIB$9.0*WDSP$10.7*PRCP$0.34*SNDP$0.0*FRSHTT$010000*CLDC$50.3*WNDDIR$169
STN$143030*DATE$2021-02-02*TIME$19:59:17*TEMP$3.2*DEWP$-5.8*STP$989.2*SLP$1020.9*VISIB$22.0*WDSP$19.2*PRCP$0.08*SNDP$0.0*FRSHTT$010000*CLDC$64.2*WNDDIR$88
STN$717380*DATE$2021-02-02*TIME$19:59:17*TEMP$-10.8*DEWP$-13.9*STP$987.1*SLP$1017.4*VISIB$17.7*WDSP$5.2*PRCP$0.16*SNDP$47.9*FRSHTT$111000*CLDC$61.7*WNDDIR$218
STN$717390*DATE$2021-02-02*TIME$19:59:17*TEMP$-7.1*DEWP$-11.0*STP$981.1*SLP$1018.5*VISIB$13.0*WDSP$17.0*PRCP$0.09*SNDP$51.7*FRSHTT$111000*CLDC$92.6*WNDDIR$1
STN$297450*DATE$2021-02-02*TIME$19:59:17*TEMP$-20.3*DEWP$-23.8*STP$1008.2*SLP$1029.2*VISIB$38.5*WDSP$17.9*PRCP$0.00*SNDP$0.0*FRSHTT$100000*CLDC$15.7*WNDDIR$162
STN$143015*DATE$2021-02-02*TIME$19:59:17*TEMP$1.9*DEWP$-2.1*STP$1015.9*SLP$1000.3*VISIB$12.5*WDSP$13.7*PRCP$0.00*SNDP$0.0*FRSHTT$000000*CLDC$37.1*WNDDIR$314
STN$227680*DATE$2021-02-02*TIME$19:59:17*TEMP$-15.7*DEWP$-18.0*STP$1015.6*SLP$1014.5*VISIB$13.8*WDSP$14.2*PRCP$0.22*SNDP$16.7*FRSHTT$111000*CLDC$53.1*WNDDIR$115
STN$160365*DATE$2021-02-02*TIME$19:59:17*TEMP$-0.4*DEWP$-5.7*STP$1002.1*SLP$1010.1*VISIB$15.7*WDSP$7.0*PRCP$0.11*SNDP$0.0*FRSHTT$110000*CLDC$50.1*WNDDIR$247
STN$285880*DATE$2021-02-02*TIME$19:59:17*TEMP$-17.5*DEWP$-20.4*STP$1016.1*SLP$1027.6*VISIB$29.6*WDSP$7.3*PRCP$0.01*SNDP$4.3*FRSHTT$111000*CLDC$53.9*WNDDIR$128
STN$470390*DATE$2021-02-02*TIME$19:59:17*TEMP$-15.1*DEWP$-18.8*STP$1011.7*SLP$1021.4*VISIB$6.5*WDSP$8.8*PRCP$0.00*SNDP$0.0*FRSHTT$100000*CLDC$9.7*WNDDIR$66
STN$160360*DATE$2021-02-02*TIME$19:59:17*TEMP$0.2*DEWP$-5.9*STP$986.2*SLP$998.3*VISIB$11.2*WDSP$8.1*PRCP$0.00*SNDP$0.0*FRSHTT$100000*CLDC$58.9*WNDDIR$77
STN$485800*DATE$2021-02-02*TIME$19:59:17*TEMP$12.9*DEWP$7.7*STP$1011.6*SLP$1012.3*VISIB$14.8*WDSP$13.5*PRCP$0.00*SNDP$0.0*FRSHTT$000000*CLDC$84.8*WNDDIR$36
STN$21630*DATE$2021-02-02*TIME$19:59:17*TEMP$0.8*DEWP$-0.1*STP$1021.3*SLP$1044.8*VISIB$9.8*WDSP$3.4*PRCP$0.00*SNDP$0.0*FRSHTT$000000*CLDC$40.3*WNDDIR$32
STN$160370*DATE$2021-02-02*TIME$19:59:17*TEMP$-1.1*DEWP$-12.1*STP$1039.4*SLP$1029.8*VISIB$17.7*WDSP$7.2*PRCP$0.00*SNDP$0.0*FRSHTT$100000*CLDC$64.8*WNDDIR$186
STN$285860*DATE$2021-02-02*TIME$19:59:17*TEMP$-18.4*DEWP$-21.1*STP$1022.5*SLP$1025.2*VISIB$22.6*WDSP$9.9*PRCP$0.57*SNDP$11.0*FRSHTT$111000*CLDC$76.6*WNDDIR$31
STN$944920*DATE$2021-02-02*TIME$19:59:17*TEMP$15.2*DEWP$-3.3*STP$995.3*SLP$1009.6*VISIB$45.3*WDSP$0.3*PRCP$0.00*SNDP$0.0*FRSHTT$000000*CLDC$60.4*WNDDIR$63
STN$889680*DATE$2021-02-02*TIME$19:59:17*TEMP$-0.1*DEWP$-1.5*STP$992.9*SLP$993.2*VISIB$14.5*WDSP$23.3*PRCP$0.42*SNDP$0.0*FRSHTT$110000*CLDC$79.8*WNDDIR$135
STN$172000*DATE$2021-02-02*TIME$19:59:17*TEMP$-2.8*DEWP$-6.5*STP$979.4*SLP$1014.3*VISIB$8.0*WDSP$15.7*PRCP$0.08*SNDP$0.8*FRSHTT$111000*CLDC$56.8*WNDDIR$307
STN$726228*DATE$2021-02-02*TIME$19:59:17*TEMP$-6.0*DEWP$-8.5*STP$1016.4*SLP$1016.9*VISIB$14.6*WDSP$15.0*PRCP$0.34*SNDP$0.0*FRSHTT$110000*CLDC$77.0*WNDDIR$230
STN$74600*DATE$2021-02-02*TIME$19:59:17*TEMP$1.0*DEWP$-3.3*STP$1006.7*SLP$1021.1*VISIB$11.3*WDSP$4.8*PRCP$0.04*SNDP$0.1*FRSHTT$011000*CLDC$73.7*WNDDIR$275
STN$726227*DATE$2021-02-02*TIME$19:59:17*TEMP$-3.1*DEWP$-6.7*STP$1010.1*SLP$1019.4*VISIB$15.1*WDSP$4.3*PRCP$0.12*SNDP$3.3*FRSHTT$111000*CLDC$99.5*WNDDIR$224
STN$64810*DATE$2021-02-02*TIME$19:59:17*TEMP$1.6*DEWP$-3.9*STP$1015.9*SLP$1025.6*VISIB$10.9*WDSP$1.0*PRCP$0.00*SNDP$0.0*FRSHTT$000000*CLDC$76.0*WNDDIR$225
STN$477560*DATE$2021-02-02*TIME$19:59:17*TEMP$-2.3*DEWP$-6.9*STP$1002.1*SLP$1020.6*VISIB$19.2*WDSP$1.7*PRCP$0.10*SNDP$0.0*FRSHTT$110000*CLDC$56.2*WNDDIR$183
STN$726225*DATE$2021-02-02*TIME$19:59:17*TEMP$-7.7*DEWP$-12.9*STP$1012.9*SLP$1018.1*VISIB$21.0*WDSP$3.0*PRCP$0.07*SNDP$6.3*FRSHTT$111000*CLDC$51.2*WNDDIR$213
STN$172005*DATE$2021-02-02*TIME$19:59:17*TEMP$3.7*DEWP$1.6*STP$1003.5*SLP$998.1*VISIB$9.4*WDSP$13.2*PRCP$0.00*SNDP$0.0*FRSHTT$000000*CLDC$98.8*WNDDIR$93
STN$990230*DATE$2021-02-02*TIME$19:59:17*TEMP$8.1*DEWP$5.3*STP$990.0*SLP$1017.6*VISIB$14.3*WDSP$34.2*PRCP$0.02*SNDP$0.0*FRSHTT$010000*CLDC$52.3*WNDDIR$355
STN$726223*DATE$2021-02-02*TIME$19:59:17*TEMP$-9.8*DEWP$-13.4*STP$1013.9*SLP$1021.2*VISIB$7.9*WDSP$18.4*PRCP$0.02*SNDP$6.3*FRSHTT$111000*CLDC$50.2*WNDDIR$37
STN$255380*DATE$2021-02-02*TIME$19:59:17*TEMP$-32.2*DEWP$-33.6*STP$1016.8*SLP$1044.6*VISIB$39.4*WDSP$10.5*PRCP$0.00*SNDP$0.0*FRSHTT$100000*CLDC$42.9*WNDDIR$272
STN$84510*DATE$2021-02-02*TIME$19:59:17*TEMP$7.2*DEWP$3.9*STP$1025.9*SLP$1022.1*VISIB$6.7*WDSP$13.2*PRCP$0.14*SNDP$0.0*FRSHTT$010000*CLDC$52.0*WNDDIR$286
STN$943740*DATE$2021-02-02*TIME$19:59:17*TEMP$9.7*DEWP$3.7*STP$1006.1*SLP$1006.1*VISIB$31.1*WDSP$6.9*PRCP$0.42*SNDP$0.0*FRSHTT$010000*CLDC$50.5*WNDDIR$301
STN$364420*DATE$2021-02-02*TIME$19:59:17*TEMP$-22.0*DEWP$-22.1*STP$1027.1*SLP$1007.6*VISIB$13.8*WDSP$51.4*PRCP$0.07*SNDP$2.5*FRSHTT$111000*CLDC$52.4*WNDDIR$196
STN$22880*DATE$2021-02-02*TIME$19:59:17*TEMP$-4.0*DEWP$-6.4*STP$1014.7*SLP$1006.5*VISIB$19.6*WDSP$39.2*PRCP$0.17*SNDP$0.0*FRSHTT$110000*CLDC$97.4*WNDDIR$196
STN$573780*DATE$2021-02-02*TIME$19:59:17*TEMP$0.3*DEWP$-6.3*STP$1025.9*SLP$1026.9*VISIB$5.5*WDSP$9.2*PRCP$0.05*SNDP$0.0*FRSHTT$010000*CLDC$66.5*WNDDIR$181
STN$467060*DATE$2021-02-02*TIME$19:59:17*TEMP$9.4*DEWP$5.6*STP$1016.9*SLP$1022.0*VISIB$24.6*WDSP$14.6*PRCP$0.10*SNDP$0.0*FRSHTT$010000*CLDC$79.0*WNDDIR$193
STN$943630*DATE$2021-02-02*TIME$19:59:17*TEMP$4.8*DEWP$-4.6*STP$991.0*SLP$1012.1*VISIB$48.2*WDSP$6.3*PRCP$0.00*SNDP$0.0*FRSHTT$000000*CLDC$66.2*WNDDIR$333
STN$100150*DATE$2021-02-02*TIME$19:59:17*TEMP$0.4*DEWP$-1.8*STP$1014.3*SLP$1014.2*VISIB$5.6*WDSP$51.8*PRCP$0.09*SNDP$0.0*FRSHTT$010000*CLDC$54.6*WNDDIR$92
STN$224380*DATE$2021-02-02*TIME$19:59:17*TEMP$-3.3*DEWP$-15.2*STP$1015.2*SLP$1010.9*VISIB$11.8*WDSP$23.7*PRCP$0.07*SNDP$0.9*FRSHTT$111000*CLDC$77.3*WNDDIR$307
STN$764050*DATE$2021-02-02*TIME$19:59:17*TEMP$6.6*DEWP$-2.5*STP$1011.9*SLP$1014.9*VISIB$28.8*WDSP$10.2*PRCP$0.00*SNDP$0.0*FRSHTT$000000*CLDC$13.2*WNDDIR$92
STN$35881*DATE$2021-02-02*TIME$19:59:17*TEMP$0.6*DEWP$-2.0*STP$1008.7*SLP$1018.0*VISIB$11.4*WDSP$14.1*PRCP$0.00*SNDP$0.0*FRSHTT$000000*CLDC$16.7*WNDDIR$187
STN$729360*DATE$2021-02-02*TIME$19:59:17*TEMP$-14.5*DEWP$-21.2*STP$1010.8*SLP$1028.4*VISIB$14.8*WDSP$23.0*PRCP$0.00*SNDP$40.0*FRSHTT$101000*CLDC$52.4*WNDDIR$87
STN$106280*DATE$2021-02-02*TIME$19:59:17*TEMP$-2.2*DEWP$-6.5*STP$1003.4*SLP$1018.3*VISIB$13.3*WDSP$21.1*PRCP$0.00*SNDP$0.0*FRSHTT$100000*CLDC$13.2*WNDDIR$
STN$764055*DATE$2021-02-02*TIME$19:59:17*TEMP$5.8*DEWP$1.5*STP$993.6*SLP$1005.9*VISIB$32.9*WDSP$10.5*PRCP$0.00*SNDP$0.0*FRSHTT$000000*CLDC$0.9*WNDDIR$24
STN$474040*DATE$2021-02-02*TIME$19:59:17*TEMP$-3.6*DEWP$-7.6*STP$1010.4*SLP$1013.1*VISIB$17.1*WDSP$20.0*PRCP$0.25*SNDP$0.0*FRSHTT$110000*CLDC$50.3*WNDDIR$294
STN$36840*DATE$2021-02-02*TIME$19:59:17*TEMP$1.0*DEWP$-3.7*STP$997.3*SLP$1005.2*VISIB$47.1*WDSP$12.7*PRCP$0.02*SNDP$0.0*FRSHTT$010000*CLDC$96.1*WNDDIR$11
STN$261670*DATE$2021-02-02*TIME$19:59:17*TEMP$-3.5*DEWP$-5.4*STP$1011.5*SLP$1012.5*VISIB$15.7*WDSP$10.6*PRCP$0.12*SNDP$10.7*FRSHTT$111000*CLDC$51.0*WNDDIR$263
STN$296760*DATE$2021-02-02*TIME$19:59:17*TEMP$-20.3*DEWP$-24.2*STP$987.3*SLP$1032.8*VISIB$30.9*WDSP$5.3*PRCP$0.00*SNDP$14.2*FRSHTT$101000*CLDC$51.7*WNDDIR$313
STN$949700*DATE$2021-02-02*TIME$19:59:17*TEMP$1.9*DEWP$-2.9*STP$1008.3*SLP$1023.3*VISIB$32.7*WDSP$2.9*PRCP$0.10*SNDP$0.0*FRSHTT$010000*CLDC$53.6*WNDDIR$288
STN$428670*DATE$2021-02-02*TIME$19:59:17*TEMP$12.0*DEWP$-0.6*STP$1020.6*SLP$1016.9*VISIB$0.2*WDSP$10.0*PRCP$0.00*SNDP$0.0*FRSHTT$000000*CLDC$90.6*WNDDIR$192
STN$740690*DATE$2021-02-02*TIME$19:59:17*TEMP$-0.8*DEWP$-6.4*STP$961.2*SLP$1034.8*VISIB$29.4*WDSP$23.9*PRCP$0.00*SNDP$19.2*FRSHTT$101000*CLDC$52.4*WNDDIR$324
STN$602001*DATE$2021-02-02*TIME$19:59:17*TEMP$3.2*DEWP$-2.6*STP$995.8*SLP$1006.0*VISIB$11.2*WDSP$8.7*PRCP$0.00*SNDP$0.0*FRSHTT$000000*CLDC$78.1*WNDDIR$210
STN$662150*DATE$2021-02-02*TIME$19:59:17*TEMP$7.9*DEWP$4.9*STP$1003.9*SLP$979.2*VISIB$18.0*WDSP$0.6*PRCP$0.00*SNDP$0.0*FRSHTT$000000*CLDC$16.9*WNDDIR$119
STN$164530*DATE$2021-02-02*TIME$19:59:17*TEMP$2.0*DEWP$-2.5*STP$1025.1*SLP$1021.8*VISIB$12.5*WDSP$13.3*PRCP$0.28*SNDP$0.0*FRSHTT$010000*CLDC$75.7*WNDDIR$66
STN$911903*DATE$2021-02-02*TIME$19:59:17*TEMP$16.7*DEWP$12.4*STP$1010.5*SLP$1014.6*VISIB$21.7*WDSP$2.9*PRCP$0.00*SNDP$0.0*FRSHTT$000000*CLDC$2.5*WNDDIR$358
STN$740680*DATE$2021-02-02*TIME$19:59:17*TEMP$-12.7*DEWP$-16.6*STP$959.0*SLP$1013.9*VISIB$34.5*WDSP$11.8*PRCP$0.06*SNDP$10.2*FRSHTT$111000*CLDC$98.9*WNDDIR$232
STN$911900*DATE$2021-02-02*TIME$19:59:17*TEMP$15.4*DEWP$10.3*STP$1013.1*SLP$1015.4*VISIB$30.2*WDSP$4.6*PRCP$0.15*SNDP$0.0*FRSHTT$010000*CLDC$82.0*WNDDIR$133
STN$723340*DATE$2021-02-02*TIME$19:59:17*TEMP$0.8*DEWP$-5.2*STP$1011.8*SLP$1020.3*VISIB$22.1*WDSP$15.9*PRCP$0.39*SNDP$0.4*FRSHTT$011000*CLDC$50.5*WNDDIR$60
STN$723446*DATE$2021-02-02*TIME$19:59:17*TEMP$-0.6*DEWP$-6.4*STP$1016.3*SLP$1017.8*VISIB$25.3*WDSP$18.2*PRCP$0.22*SNDP$0.7*FRSHTT$111000*CLDC$72.9*WNDDIR$270
STN$325830*DATE$2021-02-02*TIME$19:59:17*TEMP$-2.8*DEWP$-8.2*STP$1002.7*SLP$1002.2*VISIB$34.3*WDSP$12.9*PRCP$0.00*SNDP$90.7*FRSHTT$101000*CLDC$53.3*WNDDIR$3
STN$61470*DATE$2021-02-02*TIME$19:59:17*TEMP$0.8*DEWP$-3.0*STP$1025.6*SLP$1008.0*VISIB$13.1*WDSP$19.5*PRCP$0.02*SNDP$0.0*FRSHTT$010000*CLDC$54.7*WNDDIR$145
STN$727535*DATE$2021-02-02*TIME$19:59:17*TEMP$-10.9*DEWP$-13.3*STP$1021.8*SLP$1020.8*VISIB$10.0*WDSP$13.2*PRCP$0.02*SNDP$8.9*FRSHTT$111000*CLDC$60.5*WNDDIR$205
STN$727533*DATE$2021-02-02*TIME$19:59:17*TEMP$-5.6*DEWP$-8.3*STP$1013.1*SLP$1021.5*VISIB$12.3*WDSP$4.4*PRCP$0.00*SNDP$0.0*FRSHTT$100000*CLDC$33.3*WNDDIR$73
STN$727530*DATE$2021-02-02*TIME$19:59:17*TEMP$-7.1*DEWP$-10.6*STP$988.2*SLP$1022.0*VISIB$15.0*WDSP$14.3*PRCP$0.01*SNDP$5.5*FRSHTT$111000*CLDC$96.1*WNDDIR$207
STN$155260*DATE$2021-02-02*TIME$19:59:17*TEMP$-0.7*DEWP$-2.6*STP$1021.2*SLP$1020.4*VISIB$2.7*WDSP$7.4*PRCP$0.12*SNDP$0.1*FRSHTT$111000*CLDC$50.4*WNDDIR$135
STN$727050*DATE$2021-02-02*TIME$19:59:17*TEMP$3.3*DEWP$0.5*STP$988.7*SLP$995.7*VISIB$23.9*WDSP$30.4*PRCP$1.84*SNDP$0.0*FRSHTT$110000*CLDC$50.7*WNDDIR$82
STN$387630*DATE$2021-02-02*TIME$19:59:17*TEMP$0.8*DEWP$-3.5*STP$1022.2*SLP$1020.4*VISIB$13.5*WDSP$2.1*PRCP$0.05*SNDP$0.1*FRSHTT$011000*CLDC$53.5*WNDDIR$160
STN$337770*DATE$2021-02-02*TIME$19:59:17*TEMP$-2.1*DEWP$-5.1*STP$1017.3*SLP$1021.3*VISIB$11.2*WDSP$8.0*PRCP$0.07*SNDP$1.5*FRSHTT$111000*CLDC$53.4*WNDDIR$250
STN$744655*DATE$2021-02-02*TIME$19:59:17*TEMP$-4.7*DEWP$-7.5*STP$1021.2*SLP$1011.2*VISIB$6.7*WDSP$12.8*PRCP$0.01*SNDP$0.0*FRSHTT$110000*CLDC$52.4*WNDDIR$90
STN$28750*DATE$2021-02-02*TIME$19:59:17*TEMP$-4.9*DEWP$-7.2*STP$1003.0*SLP$1007.4*VISIB$23.6*WDSP$4.0*PRCP$0.02*SNDP$12.1*FRSHTT$111000*CLDC$52.1*WNDDIR$193
STN$725045*DATE$2021-02-02*TIME$19:59:17*TEMP$-1.9*DEWP$-8.7*STP$1014.7*SLP$1014.4*VISIB$8.4*WDSP$14.5*PRCP$0.14*SNDP$0.0*FRSHTT$110000*CLDC$51.9*WNDDIR$56
STN$725046*DATE$2021-02-02*TIME$19:59:17*TEMP$-0.7*DEWP$-5.7*STP$1027.8*SLP$1018.6*VISIB$15.6*WDSP$22.5*PRCP$0.27*SNDP$0.0*FRSHTT$110000*CLDC$83.3*WNDDIR$301
STN$725033*DATE$2021-02-02*TIME$19:59:17*TEMP$0.0*DEWP$-6.3*STP$1025.9*SLP$1019.0*VISIB$13.2*WDSP$9.4*PRCP$0.53*SNDP$0.0*FRSHTT$110000*CLDC$52.0*WNDDIR$317
STN$110100*DATE$2021-02-02*TIME$19:59:17*TEMP$-2.4*DEWP$-4.2*STP$998.4*SLP$1019.3*VISIB$8.9*WDSP$17.3*PRCP$0.08*SNDP$2.5*FRSHTT$111000*CLDC$56.7*WNDDIR$92
STN$725035*DATE$2021-02-02*TIME$19:59:17*TEMP$-0.8*DEWP$-5.8*STP$1022.0*SLP$1018.4*VISIB$14.2*WDSP$18.2*PRCP$0.33*SNDP$1.6*FRSHTT$111000*CLDC$54.8*WNDDIR$35
STN$725037*DATE$2021-02-02*TIME$19:59:17*TEMP$-1.6*DEWP$-7.9*STP$1020.9*SLP$1018.4*VISIB$21.1*WDSP$17.9*PRCP$0.22*SNDP$0.2*FRSHTT$111000*CLDC$58.5*WNDDIR$72
STN$725036*DATE$2021-02-02*TIME$19:59:17*TEMP$-3.1*DEWP$-8.2*STP$1024.9*SLP$1019.3*VISIB$24.8*WDSP$5.3*PRCP$0.27*SNDP$1.3*FRSHTT$111000*CLDC$52.6*WNDDIR$332
STN$725038*DATE$2021-02-02*TIME$19:59:17*TEMP$-3.1*DEWP$-8.4*STP$1000.6*SLP$1010.8*VISIB$25.3*WDSP$27.8*PRCP$0.02*SNDP$0.0*FRSHTT$110000*CLDC$51.7*WNDDIR$147
STN$725025*DATE$2021-02-02*TIME$19:59:17*TEMP$-1.5*DEWP$-7.6*STP$1010.6*SLP$1005.9*VISIB$19.3*WDSP$11.4*PRCP$0.14*SNDP$0.4*FRSHTT$111000*CLDC$67.0*WNDDIR$276
STN$222170*DATE$2021-02-02*TIME$19:59:17*TEMP$-16.5*DEWP$-18.9*STP$1010.2*SLP$1010.1*VISIB$34.9*WDSP$5.3*PRCP$0.08*SNDP$23.4*FRSHTT$111000*CLDC$52.5*WNDDIR$1
STN$889340*DATE$2021-02-02*TIME$19:59:17*TEMP$1.6*DEWP$-1.2*STP$950.2*SLP$972.5*VISIB$29.2*WDSP$30.3*PRCP$0.00*SNDP$0.0*FRSHTT$000000*CLDC$69.2*WNDDIR$270
STN$875710*DATE$2021-02-02*TIME$19:59:17*TEMP$4.5*DEWP$0.4*STP$967.3*SLP$1011.3*VISIB$4.1*WDSP$7.1*PRCP$2.42*SNDP$0.0*FRSHTT$010000*CLDC$93.2*WNDDIR$90
STN$470990*DATE$2021-02-02*TIME$19:59:17*TEMP$-9.9*DEWP$-18.2*STP$1020.7*SLP$1024.4*VISIB$15.0*WDSP$5.5*PRCP$0.00*SNDP$0.0*FRSHTT$100000*CLDC$74.5*WNDDIR$195
STN$680290*DATE$2021-02-02*TIME$19:59:17*TEMP$4.2*DEWP$10.2*STP$1008.8*SLP$995.3*VISIB$11.5*WDSP$2.2*PRCP$0.00*SNDP$0.0*FRSHTT$000000*CLDC$69.6*WNDDIR$346
STN$286210*DATE$2021-02-02*TIME$19:59:17*TEMP$-16.4*DEWP$-18.3*STP$1026.8*SLP$1021.5*VISIB$17.6*WDSP$13.5*PRCP$0.08*SNDP$13.0*FRSHTT$111000*CLDC$65.4*WNDDIR$307
STN$471030*DATE$2021-02-02*TIME$19:59:17*TEMP$-3.5*DEWP$-7.0*STP$1016.3*SLP$1024.8*VISIB$7.3*WDSP$7.7*PRCP$0.01*SNDP$0.3*FRSHTT$111000*CLDC$54.1*WNDDIR$101
STN$471025*DATE$2021-02-02*TIME$19:59:17*TEMP$-6.5*DEWP$-12.9*STP$1008.1*SLP$1015.7*VISIB$3.2*WDSP$10.2*PRCP$0.00*SNDP$0.0*FRSHTT$100000*CLDC$19.9*WNDDIR$27
STN$501360*DATE$2021-02-02*TIME$19:59:17*TEMP$-27.4*DEWP$-32.7*STP$970.8*SLP$1030.6*VISIB$26.8*WDSP$1.9*PRCP$0.00*SNDP$0.0*FRSHTT$100000*CLDC$21.7*WNDDIR$180
STN$714963*DATE$2021-02-02*TIME$19:59:17*TEMP$-17.1*DEWP$-19.5*STP$1005.7*SLP$1019.6*VISIB$11.5*WDSP$13.6*PRCP$0.00*SNDP$0.0*FRSHTT$100000*CLDC$29.2*WNDDIR$181
STN$728220*DATE$2021-02-02*TIME$19:59:17*TEMP$-15.6*DEWP$-17.8*STP$941.3*SLP$995.9*VISIB$22.5*WDSP$15.5*PRCP$0.25*SNDP$34.1*FRSHTT$111000*CLDC$63.2*WNDDIR$110
STN$846860*DATE$2021-02-02*TIME$19:59:17*TEMP$4.0*DEWP$-1.3*STP$687.2*SLP$688.3*VISIB$8.3*WDSP$3.0*PRCP$0.45*SNDP$0.0*FRSHTT$010000*CLDC$72.6*WNDDIR$288
STN$475450*DATE$2021-02-02*TIME$19:59:17*TEMP$-2.9*DEWP$-6.0*STP$1000.2*SLP$1001.1*VISIB$9.6*WDSP$22.6*PRCP$0.00*SNDP$0.0*FRSHTT$100000*CLDC$39.9*WNDDIR$289
STN$552280*DATE$2021-02-02*TIME$19:59:17*TEMP$-16.4*DEWP$-32.2*STP$603.6*SLP$605.4*VISIB$27.9*WDSP$20.1*PRCP$0.00*SNDP$0.0*FRSHTT$100000*CLDC$16.1*WNDDIR$28
STN$728210*DATE$2021-02-02*TIME$19:59:17*TEMP$-22.2*DEWP$-26.7*STP$959.0*SLP$997.1*VISIB$9.8*WDSP$12.5*PRCP$0.51*SNDP$57.5*FRSHTT$111000*CLDC$90.7*WNDDIR$332
STN$62800*DATE$2021-02-02*TIME$19:59:17*TEMP$-0.1*DEWP$-1.7*STP$1017.7*SLP$1014.8*VISIB$7.5*WDSP$25.3*PRCP$0.16*SNDP$0.4*FRSHTT$111000*CLDC$60.1*WNDDIR$25
STN$354060*DATE$2021-02-02*TIME$19:59:17*TEMP$-13.3*DEWP$-17.1*STP$1026.6*SLP$1025.2*VISIB$20.8*WDSP$2.2*PRCP$0.02*SNDP$0.0*FRSHTT$110000*CLDC$80.6*WNDDIR$315
STN$919410*DATE$2021-02-02*TIME$19:59:17*TEMP$22.9*DEWP$18.5*STP$1008.4*SLP$1011.1*VISIB$22.0*WDSP$17.2*PRCP$0.44*SNDP$0.0*FRSHTT$010000*CLDC$98.0*WNDDIR$150
STN$846910*DATE$2021-02-02*TIME$19:59:17*TEMP$13.1*DEWP$7.6*STP$1007.3*SLP$1009.7*VISIB$1.1*WDSP$7.1*PRCP$0.00*SNDP$0.0*FRSHTT$000000*CLDC$35.0*WNDDIR$205
STN$309570*DATE$2021-02-02*TIME$19:59:17*TEMP$-16.6*DEWP$-21.0*STP$980.9*SLP$1029.7*VISIB$51.2*WDSP$4.5*PRCP$0.02*SNDP$2.7*FRSHTT$111000*CLDC$54.1*WNDDIR$182
STN$728030*DATE$2021-02-02*TIME$19:59:17*TEMP$3.8*DEWP$0.3*STP$997.8*SLP$1008.0*VISIB$19.4*WDSP$63.6*PRCP$0.11*SNDP$0.0*FRSHTT$110000*CLDC$52.3*WNDDIR$79
STN$108030*DATE$2021-02-02*TIME$19:59:17*TEMP$0.8*DEWP$-3.2*STP$1010.3*SLP$1019.8*VISIB$28.5*WDSP$1.4*PRCP$0.14*SNDP$4.8*FRSHTT$011000*CLDC$53.3*WNDDIR$251
STN$915540*DATE$2021-02-02*TIME$19:59:17*TEMP$22.9*DEWP$19.5*STP$1011.7*SLP$1007.3*VISIB$26.9*WDSP$9.7*PRCP$0.39*SNDP$0.0*FRSHTT$010000*CLDC$51.4*WNDDIR$186
STN$917530*DATE$2021-02-02*TIME$19:59:17*TEMP$53.3*DEWP$20.0*STP$1008.0*SLP$1006.9*VISIB$27.5*WDSP$6.7*PRCP$0.87*SNDP$0.0*FRSHTT$010000*CLDC$85.7*WNDDIR$208
STN$476780*DATE$2021-02-02*TIME$19:59:17*TEMP$3.2*DEWP$-3.5*STP$1006.9*SLP$1014.5*VISIB$27.3*WDSP$33.4*PRCP$0.61*SNDP$0.0*FRSHTT$010000*CLDC$52.6*WNDDIR$254
STN$62000*DATE$2021-02-02*TIME$19:59:17*TEMP$-1.1*DEWP$-3.2*STP$1030.0*SLP$1025.7*VISIB$12.3*WDSP$12.7*PRCP$0.00*SNDP$0.0*FRSHTT$100000*CLDC$91.7*WNDDIR$90
STN$915550*DATE$2021-02-02*TIME$19:59:17*TEMP$24.4*DEWP$22.0*STP$984.2*SLP$1010.5*VISIB$25.7*WDSP$7.4*PRCP$0.00*SNDP$0.0*FRSHTT$000000*CLDC$21.9*WNDDIR$275
STN$728010*DATE$2021-02-02*TIME$19:59:17*TEMP$4.0*DEWP$4.0*STP$999.6*SLP$1009.6*VISIB$10.6*WDSP$41.5*PRCP$0.34*SNDP$0.0*FRSHTT$110000*CLDC$62.0*WNDDIR$344
STN$476770*DATE$2021-02-02*TIME$19:59:17*TEMP$2.7*DEWP$-3.9*STP$1010.6*SLP$1014.0*VISIB$38.6*WDSP$33.0*PRCP$0.78*SNDP$0.0*FRSHTT$010000*CLDC$52.5*WNDDIR$351
STN$31670*DATE$2021-02-02*TIME$19:59:17*TEMP$2.7*DEWP$1.1*STP$1000.7*SLP$964.6*VISIB$12.5*WDSP$27.1*PRCP$0.00*SNDP$0.0*FRSHTT$000000*CLDC$63.2*WNDDIR$291
STN$722214*DATE$2021-02-02*TIME$19:59:17*TEMP$-1.1*DEWP$-19.1*STP$1002.4*SLP$980.0*VISIB$16.3*WDSP$27.6*PRCP$0.00*SNDP$0.0*FRSHTT$100000*CLDC$2.9*WNDDIR$263
STN$167443*DATE$2021-02-02*TIME$19:59:17*TEMP$6.0*DEWP$0.7*STP$994.1*SLP$999.9*VISIB$15.2*WDSP$20.9*PRCP$0.00*SNDP$0.0*FRSHTT$000000*CLDC$3.3*WNDDIR$262
STN$722215*DATE$2021-02-02*TIME$19:59:17*TEMP$4.7*DEWP$-2.1*STP$1017.2*SLP$1019.0*VISIB$15.4*WDSP$18.3*PRCP$0.35*SNDP$0.0*FRSHTT$010000*CLDC$51.6*WNDDIR$240
STN$722212*DATE$2021-02-02*TIME$19:59:17*TEMP$5.5*DEWP$1.4*STP$999.1*SLP$991.3*VISIB$15.0*WDSP$4.7*PRCP$0.00*SNDP$0.0*FRSHTT$000000*CLDC$84.8*WNDDIR$272
STN$272710*DATE$2021-02-02*TIME$19:59:17*TEMP$-16.4*DEWP$-19.4*STP$1015.3*SLP$1017.7*VISIB$10.2*WDSP$13.3*PRCP$0.10*SNDP$7.2*FRSHTT$111000*CLDC$51.9*WNDDIR$69
STN$722213*DATE$2021-02-02*TIME$19:59:17*TEMP$9.7*DEWP$5.8*STP$1017.3*SLP$1014.6*VISIB$5.7*WDSP$7.0*PRCP$2.87*SNDP$0.0*FRSHTT$010000*CLDC$96.1*WNDDIR$173
STN$722223*DATE$2021-02-02*TIME$19:59:17*TEMP$3.9*DEWP$-1.4*STP$1010.2*SLP$1014.4*VISIB$3.7*WDSP$27.0*PRCP$0.56*SNDP$0.0*FRSHTT$010000*CLDC$62.0*WNDDIR$269
STN$722220*DATE$2021-02-02*TIME$19:59:17*TEMP$4.4*DEWP$-1.1*STP$1015.3*SLP$1019.6*VISIB$13.2*WDSP$7.2*PRCP$0.97*SNDP$0.0*FRSHTT$010000*CLDC$83.2*WNDDIR$8
STN$442880*DATE$2021-02-02*TIME$19:59:17*TEMP$-17.1*DEWP$-22.5*STP$900.8*SLP$1032.5*VISIB$48.1*WDSP$12.3*PRCP$0.12*SNDP$0.4*FRSHTT$111000*CLDC$50.4*WNDDIR$212
STN$722221*DATE$2021-02-02*TIME$19:59:17*TEMP$7.4*DEWP$6.0*STP$1017.0*SLP$1021.1*VISIB$10.5*WDSP$17.0*PRCP$0.00*SNDP$0.0*FRSHTT$000000*CLDC$58.1*WNDDIR$336
STN$105130*DATE$2021-02-02*TIME$19:59:17*TEMP$0.3*DEWP$-3.5*STP$1012.4*SLP$1015.8*VISIB$11.3*WDSP$7.3*PRCP$0.22*SNDP$0.4*FRSHTT$111000*CLDC$66.9*WNDDIR$250
STN$719570*DATE$2021-02-02*TIME$19:59:17*TEMP$-22.4*DEWP$-26.8*STP$1011.3*SLP$1021.1*VISIB$30.6*WDSP$10.5*PRCP$0.06*SNDP$22.1*FRSHTT$111000*CLDC$52.9*WNDDIR$195
STN$840710*DATE$2021-02-02*TIME$19:59:17*TEMP$7.6*DEWP$2.0*STP$845.6*SLP$841.4*VISIB$3.8*WDSP$5.0*PRCP$0.19*SNDP$0.0*FRSHTT$010000*CLDC$89.2*WNDDIR$212
STN$382640*DATE$2021-02-02*TIME$19:59:17*TEMP$-5.1*DEWP$-9.8*STP$1010.6*SLP$1021.0*VISIB$17.0*WDSP$16.9*PRCP$0.02*SNDP$0.9*FRSHTT$111000*CLDC$72.7*WNDDIR$240
STN$854595*DATE$2021-02-02*TIME$19:59:17*TEMP$3.9*DEWP$-1.6*STP$996.8*SLP$959.0*VISIB$8.8*WDSP$11.3*PRCP$0.00*SNDP$0.0*FRSHTT$000000*CLDC$68.4*WNDDIR$273
STN$176060*DATE$2021-02-02*TIME$19:59:17*TEMP$1.8*DEWP$-3.3*STP$1008.4*SLP$1022.3*VISIB$7.1*WDSP$6.4*PRCP$0.00*SNDP$0.0*FRSHTT$000000*CLDC$41.4*WNDDIR$313
STN$105140*DATE$2021-02-02*TIME$19:59:17*TEMP$-0.3*DEWP$-2.7*STP$995.7*SLP$1007.9*VISIB$5.1*WDSP$5.3*PRCP$0.02*SNDP$0.3*FRSHTT$111000*CLDC$69.1*WNDDIR$193
STN$105150*DATE$2021-02-02*TIME$19:59:17*TEMP$0.3*DEWP$-4.6*STP$1012.9*SLP$1017.3*VISIB$6.6*WDSP$13.1*PRCP$0.09*SNDP$0.0*FRSHTT$010000*CLDC$91.3*WNDDIR$167
STN$70460*DATE$2021-02-02*TIME$19:59:17*TEMP$3.7*DEWP$2.5*STP$1024.6*SLP$1036.2*VISIB$3.6*WDSP$16.2*PRCP$0.00*SNDP$0.0*FRSHTT$000000*CLDC$16.2*WNDDIR$230
STN$156400*DATE$2021-02-02*TIME$19:59:17*TEMP$-0.3*DEWP$-6.1*STP$981.3*SLP$1015.5*VISIB$19.3*WDSP$8.5*PRCP$0.00*SNDP$0.0*FRSHTT$100000*CLDC$1.5*WNDDIR$245
STN$488676*DATE$2021-02-02*TIME$19:59:17*TEMP$15.7*DEWP$8.4*STP$1013.3*SLP$989.9*VISIB$16.0*WDSP$8.1*PRCP$0.00*SNDP$0.0*FRSHTT$000000*CLDC$55.7*WNDDIR$258
STN$471074*DATE$2021-02-02*TIME$19:59:17*TEMP$-2.9*DEWP$-11.7*STP$1023.1*SLP$1008.0*VISIB$17.5*WDSP$16.9*PRCP$0.00*SNDP$0.0*FRSHTT$100000*CLDC$21.6*WNDDIR$342
STN$263460*DATE$2021-02-02*TIME$19:59:17*TEMP$-1.0*DEWP$-2.3*STP$1009.3*SLP$1001.0*VISIB$10.6*WDSP$14.2*PRCP$0.12*SNDP$1.7*FRSHTT$111000*CLDC$91.7*WNDDIR$344
STN$142320*DATE$2021-02-02*TIME$19:59:17*TEMP$-2.6*DEWP$-6.1*STP$1009.2*SLP$1023.3*VISIB$4.7*WDSP$0.1*PRCP$0.04*SNDP$4.9*FRSHTT$111000*CLDC$99.0*WNDDIR$97
STN$471087*DATE$2021-02-02*TIME$19:59:17*TEMP$-6.0*DEWP$-13.8*STP$966.6*SLP$969.2*VISIB$5.5*WDSP$17.3*PRCP$0.00*SNDP$0.0*FRSHTT$100000*CLDC$75.3*WNDDIR$217
STN$488685*DATE$2021-02-02*TIME$19:59:17*TEMP$9.9*DEWP$1.8*STP$1014.2*SLP$988.9*VISIB$8.6*WDSP$13.8*PRCP$0.00*SNDP$0.0*FRSHTT$000000*CLDC$24.3*WNDDIR$110
STN$471080*DATE$2021-02-02*TIME$19:59:17*TEMP$-2.7*DEWP$-9.9*STP$1022.8*SLP$1024.5*VISIB$10.2*WDSP$3.4*PRCP$0.02*SNDP$1.7*FRSHTT$111000*CLDC$98.5*WNDDIR$205
STN$670270*DATE$2021-02-02*TIME$19:59:17*TEMP$25.3*DEWP$22.1*STP$1006.5*SLP$1008.5*VISIB$12.9*WDSP$16.9*PRCP$2.63*SNDP$0.0*FRSHTT$010000*CLDC$50.5*WNDDIR$293
STN$471120*DATE$2021-02-02*TIME$19:59:17*TEMP$-3.5*DEWP$-10.1*STP$1022.1*SLP$1024.1*VISIB$21.6*WDSP$17.3*PRCP$0.02*SNDP$0.0*FRSHTT$110000*CLDC$50.6*WNDDIR$92
STN$506320*DATE$2021-02-02*TIME$19:59:17*TEMP$-4.4*DEWP$-16.4*STP$988.5*SLP$1027.7*VISIB$30.9*WDSP$13.2*PRCP$0.01*SNDP$0.0*FRSHTT$110000*CLDC$76.7*WNDDIR$45
STN$638700*DATE$2021-02-02*TIME$19:59:17*TEMP$10.3*DEWP$6.7*STP$1009.0*SLP$1011.1*VISIB$31.0*WDSP$16.5*PRCP$0.00*SNDP$0.0*FRSHTT$000000*CLDC$33.6*WNDDIR$232
STN$691174*DATE$2021-02-02*TIME$19:59:17*TEMP$-1.2*DEWP$-6.0*STP$1021.4*SLP$1022.6*VISIB$41.3*WDSP$13.4*PRCP$0.00*SNDP$0.0*FRSHTT$100000*CLDC$83.6*WNDDIR$137
STN$725347*DATE$2021-02-02*TIME$19:59:17*TEMP$-2.7*DEWP$-7.0*STP$1011.8*SLP$1008.5*VISIB$14.2*WDSP$21.5*PRCP$0.03*SNDP$0.0*FRSHTT$110000*CLDC$52.7*WNDDIR$251
STN$725346*DATE$2021-02-02*TIME$19:59:17*TEMP$-1.9*DEWP$-6.2*STP$998.7*SLP$993.2*VISIB$17.3*WDSP$31.7*PRCP$0.00*SNDP$0.0*FRSHTT$100000*CLDC$38.8*WNDDIR$99
STN$725345*DATE$2021-02-02*TIME$19:59:17*TEMP$-3.6*DEWP$-6.6*STP$999.6*SLP$1003.6*VISIB$12.0*WDSP$11.0*PRCP$0.00*SNDP$0.0*FRSHTT$100000*CLDC$82.2*WNDDIR$222
STN$136150*DATE$2021-02-02*TIME$19:59:17*TEMP$1.5*DEWP$-2.4*STP$998.8*SLP$1012.7*VISIB$14.9*WDSP$19.9*PRCP$0.00*SNDP$0.0*FRSHTT$000000*CLDC$13.1*WNDDIR$104
STN$339460*DATE$2021-02-02*TIME$19:59:17*TEMP$-1.4*DEWP$-4.4*STP$1008.5*SLP$1019.5*VISIB$12.1*WDSP$10.1*PRCP$0.11*SNDP$0.7*FRSHTT$111000*CLDC$50.7*WNDDIR$160
STN$653870*DATE$2021-02-02*TIME$19:59:17*TEMP$13.0*DEWP$7.4*STP$1006.2*SLP$1009.3*VISIB$8.7*WDSP$14.9*PRCP$0.00*SNDP$0.0*FRSHTT$000000*CLDC$89.5*WNDDIR$243
STN$725374*DATE$2021-02-02*TIME$19:59:17*TEMP$-5.8*DEWP$-9.1*STP$1029.3*SLP$1016.5*VISIB$11.1*WDSP$17.3*PRCP$0.00*SNDP$0.0*FRSHTT$100000*CLDC$72.9*WNDDIR$165
STN$691194*DATE$2021-02-02*TIME$19:59:17*TEMP$1.1*DEWP$-8.1*STP$1066.0*SLP$1027.5*VISIB$15.2*WDSP$17.1*PRCP$0.00*SNDP$0.0*FRSHTT$000000*CLDC$54.8*WNDDIR$232
STN$250420*DATE$2021-02-02*TIME$19:59:17*TEMP$-17.2*DEWP$-18.4*STP$991.1*SLP$1012.3*VISIB$2.5*WDSP$19.6*PRCP$0.17*SNDP$0.0*FRSHTT$110000*CLDC$53.7*WNDDIR$20
STN$724677*DATE$2021-02-02*TIME$19:59:17*TEMP$-14.7*DEWP$-16.8*STP$1012.7*SLP$992.9*VISIB$16.5*WDSP$20.0*PRCP$0.00*SNDP$0.0*FRSHTT$100000*CLDC$97.3*WNDDIR$228
STN$724676*DATE$2021-02-02*TIME$19:59:17*TEMP$-7.4*DEWP$-14.6*STP$1006.9*SLP$1001.6*VISIB$31.8*WDSP$14.1*PRCP$0.02*SNDP$0.0*FRSHTT$110000*CLDC$52.4*WNDDIR$201
STN$851540*DATE$2021-02-02*TIME$19:59:17*TEMP$12.1*DEWP$10.5*STP$993.0*SLP$1011.3*VISIB$12.1*WDSP$14.1*PRCP$0.17*SNDP$0.0*FRSHTT$010000*CLDC$50.3*WNDDIR$266
STN$80230*DATE$2021-02-02*TIME$19:59:17*TEMP$5.1*DEWP$1.3*STP$1018.9*SLP$1021.3*VISIB$14.3*WDSP$26.3*PRCP$0.37*SNDP$0.0*FRSHTT$010000*CLDC$57.3*WNDDIR$247
STN$724698*DATE$2021-02-02*TIME$19:59:17*TEMP$-6.5*DEWP$-12.8*STP$1019.8*SLP$1019.6*VISIB$19.1*WDSP$9.5*PRCP$0.00*SNDP$1.3*FRSHTT$101000*CLDC$81.1*WNDDIR$315
STN$724699*DATE$2021-02-02*TIME$19:59:17*TEMP$-3.6*DEWP$-14.7*STP$1004.7*SLP$997.7*VISIB$58.9*WDSP$11.3*PRCP$0.00*SNDP$0.0*FRSHTT$100000*CLDC$7.0*WNDDIR$105
STN$724697*DATE$2021-02-02*TIME$19:59:17*TEMP$-5.2*DEWP$-12.8*STP$1001.3*SLP$1007.6*VISIB$36.4*WDSP$1.0*PRCP$0.00*SNDP$1.7*FRSHTT$101000*CLDC$77.4*WNDDIR$269
STN$834190*DATE$2021-02-02*TIME$19:59:17*TEMP$6.6*DEWP$3.6*STP$993.4*SLP$994.6*VISIB$5.9*WDSP$6.6*PRCP$0.00*SNDP$0.0*FRSHTT$000000*CLDC$2.6*WNDDIR$139
STN$288380*DATE$2021-02-02*TIME$19:59:17*TEMP$-18.1*DEWP$-20.2*STP$991.6*SLP$1025.4*VISIB$11.6*WDSP$1.7*PRCP$0.01*SNDP$5.0*FRSHTT$111000*CLDC$51.9*WNDDIR$204
STN$722287*DATE$2021-02-02*TIME$19:59:17*TEMP$0.8*DEWP$-3.9*STP$1025.3*SLP$1019.9*VISIB$11.1*WDSP$4.6*PRCP$0.52*SNDP$0.0*FRSHTT$010000*CLDC$50.3*WNDDIR$323
STN$722284*DATE$2021-02-02*TIME$19:59:17*TEMP$1.8*DEWP$-3.8*STP$1023.5*SLP$982.6*VISIB$13.2*WDSP$11.7*PRCP$0.25*SNDP$0.0*FRSHTT$010000*CLDC$53.3*WNDDIR$310
STN$722285*DATE$2021-02-02*TIME$19:59:17*TEMP$-1.3*DEWP$-7.8*STP$990.1*SLP$992.3*VISIB$6.3*WDSP$12.3*PRCP$0.00*SNDP$0.0*FRSHTT$100000*CLDC$14.5*WNDDIR$81
STN$512320*DATE$2021-02-02*TIME$19:59:17*TEMP$-15.8*DEWP$-19.4*STP$1029.3*SLP$1033.4*VISIB$17.1*WDSP$9.7*PRCP$0.00*SNDP$0.0*FRSHTT$100000*CLDC$42.0*WNDDIR$357
STN$722280*DATE$2021-02-02*TIME$19:59:17*TEMP$1.6*DEWP$-4.8*STP$1006.3*SLP$1019.9*VISIB$11.9*WDSP$2.4*PRCP$0.49*SNDP$0.0*FRSHTT$010000*CLDC$50.2*WNDDIR$266
STN$167490*DATE$2021-02-02*TIME$19:59:17*TEMP$3.5*DEWP$-3.0*STP$1012.8*SLP$1013.0*VISIB$7.7*WDSP$7.6*PRCP$0.43*SNDP$0.0*FRSHTT$010000*CLDC$50.6*WNDDIR$104
STN$722291*DATE$2021-02-02*TIME$19:59:17*TEMP$-3.6*DEWP$-6.9*STP$981.7*SLP$996.1*VISIB$1.3*WDSP$6.1*PRCP$0.00*SNDP$0.0*FRSHTT$100000*CLDC$0.2*WNDDIR$144
STN$167494*DATE$2021-02-02*TIME$19:59:17*TEMP$4.8*DEWP$-1.8*STP$992.6*SLP$995.7*VISIB$5.8*WDSP$19.0*PRCP$0.00*SNDP$0.0*FRSHTT$000000*CLDC$73.4*WNDDIR$212
STN$722290*DATE$2021-02-02*TIME$19:59:17*TEMP$1.8*DEWP$-4.5*STP$1014.8*SLP$1008.9*VISIB$12.2*WDSP$10.8*PRCP$0.16*SNDP$0.0*FRSHTT$010000*CLDC$50.2*WNDDIR$119
STN$25860*DATE$2021-02-02*TIME$19:59:17*TEMP$-1.6*DEWP$-4.0*STP$1007.8*SLP$1009.2*VISIB$13.7*WDSP$14.7*PRCP$0.07*SNDP$10.2*FRSHTT$111000*CLDC$52.1*WNDDIR$270
STN$724467*DATE$2021-02-02*TIME$19:59:17*TEMP$-2.8*DEWP$-6.5*STP$1007.0*SLP$1021.8*VISIB$13.7*WDSP$27.9*PRCP$0.11*SNDP$1.3*FRSHTT$111000*CLDC$51.5*WNDDIR$226
STN$724463*DATE$2021-02-02*TIME$19:59:17*TEMP$-1.7*DEWP$-7.9*STP$1015.5*SLP$1010.6*VISIB$13.1*WDSP$1.4*PRCP$0.02*SNDP$0.0*FRSHTT$110000*CLDC$52.8*WNDDIR$80
STN$357960*DATE$2021-02-02*TIME$19:59:17*TEMP$-16.1*DEWP$-19.2*STP$1011.7*SLP$1030.9*VISIB$24.1*WDSP$15.7*PRCP$0.02*SNDP$2.8*FRSHTT$111000*CLDC$50.8*WNDDIR$186
STN$479300*DATE$2021-02-02*TIME$19:59:17*TEMP$6.2*DEWP$0.8*STP$1007.0*SLP$1009.1*VISIB$9.6*WDSP$20.1*PRCP$0.00*SNDP$0.0*FRSHTT$000000*CLDC$45.1*WNDDIR$208
STN$724461*DATE$2021-02-02*TIME$19:59:17*TEMP$-2.1*DEWP$-6.8*STP$995.4*SLP$1015.5*VISIB$4.7*WDSP$10.1*PRCP$0.02*SNDP$1.2*FRSHTT$111000*CLDC$56.7*WNDDIR$269
STN$111570*DATE$2021-02-02*TIME$19:59:17*TEMP$-2.6*DEWP$-5.3*STP$946.6*SLP$1026.8*VISIB$28.6*WDSP$9.0*PRCP$0.01*SNDP$5.6*FRSHTT$111000*CLDC$50.9*WNDDIR$339
STN$724460*DATE$2021-02-02*TIME$19:59:17*TEMP$-3.6*DEWP$-9.0*STP$984.2*SLP$1020.7*VISIB$15.4*WDSP$35.0*PRCP$0.06*SNDP$2.6*FRSHTT$111000*CLDC$81.1*WNDDIR$121
STN$724458*DATE$2021-02-02*TIME$19:59:17*TEMP$-2.9*DEWP$-8.2*STP$1007.9*SLP$1004.9*VISIB$21.9*WDSP$27.6*PRCP$0.02*SNDP$0.0*FRSHTT$110000*CLDC$56.4*WNDDIR$37
STN$724457*DATE$2021-02-02*TIME$19:59:17*TEMP$-2.2*DEWP$-8.8*STP$1007.3*SLP$1021.0*VISIB$11.1*WDSP$9.8*PRCP$0.18*SNDP$1.7*FRSHTT$111000*CLDC$51.9*WNDDIR$173
STN$28050*DATE$2021-02-02*TIME$19:59:17*TEMP$-15.0*DEWP$-17.3*STP$1011.1*SLP$1003.3*VISIB$20.8*WDSP$6.3*PRCP$0.07*SNDP$39.8*FRSHTT$111000*CLDC$64.8*WNDDIR$280
STN$875820*DATE$2021-02-02*TIME$19:59:17*TEMP$11.7*DEWP$6.2*STP$1009.9*SLP$1012.8*VISIB$12.0*WDSP$17.7*PRCP$0.23*SNDP$0.0*FRSHTT$010000*CLDC$93.7*WNDDIR$157
STN$470610*DATE$2021-02-02*TIME$19:59:17*TEMP$-4.1*DEWP$-14.2*STP$1027.4*SLP$1020.6*VISIB$26.1*WDSP$6.6*PRCP$0.24*SNDP$7.8*FRSHTT$111000*CLDC$77.6*WNDDIR$120
STN$347300*DATE$2021-02-02*TIME$19:59:17*TEMP$0.1*DEWP$-3.3*STP$995.1*SLP$1030.1*VISIB$8.6*WDSP$12.5*PRCP$0.00*SNDP$0.0*FRSHTT$000000*CLDC$8.4*WNDDIR$45
STN$347310*DATE$2021-02-02*TIME$19:59:17*TEMP$-7.0*DEWP$-9.4*STP$1021.0*SLP$1013.8*VISIB$13.0*WDSP$25.7*PRCP$0.10*SNDP$3.1*FRSHTT$111000*CLDC$81.1*WNDDIR$111
STN$680140*DATE$2021-02-02*TIME$19:59:17*TEMP$4.1*DEWP$-4.3*STP$896.4*SLP$893.8*VISIB$28.2*WDSP$12.3*PRCP$1.02*SNDP$0.0*FRSHTT$010000*CLDC$53.1*WNDDIR$274
STN$118260*DATE$2021-02-02*TIME$19:59:17*TEMP$-1.2*DEWP$-3.8*STP$1009.7*SLP$1021.8*VISIB$16.5*WDSP$2.1*PRCP$0.08*SNDP$1.8*FRSHTT$111000*CLDC$95.0*WNDDIR$174
STN$83060*DATE$2021-02-02*TIME$19:59:17*TEMP$2.3*DEWP$-2.1*STP$1018.1*SLP$1018.1*VISIB$18.1*WDSP$8.0*PRCP$0.17*SNDP$0.0*FRSHTT$010000*CLDC$50.8*WNDDIR$344
STN$470650*DATE$2021-02-02*TIME$19:59:17*TEMP$-6.9*DEWP$-12.7*STP$1018.2*SLP$1024.9*VISIB$8.4*WDSP$0.9*PRCP$0.02*SNDP$0.0*FRSHTT$110000*CLDC$56.5*WNDDIR$53
STN$888900*DATE$2021-02-02*TIME$19:59:17*TEMP$4.7*DEWP$3.5*STP$989.9*SLP$1008.9*VISIB$14.8*WDSP$21.7*PRCP$0.00*SNDP$0.0*FRSHTT$000000*CLDC$50.8*WNDDIR$200
STN$888910*DATE$2021-02-02*TIME$19:59:17*TEMP$3.6*DEWP$-1.5*STP$998.8*SLP$1002.6*VISIB$27.4*WDSP$30.4*PRCP$0.00*SNDP$0.0*FRSHTT$000000*CLDC$4.5*WNDDIR$34
STN$114232*DATE$2021-02-02*TIME$19:59:17*TEMP$-1.6*DEWP$-6.4*STP$1008.3*SLP$974.4*VISIB$11.2*WDSP$6.3*PRCP$0.00*SNDP$0.0*FRSHTT$100000*CLDC$89.1*WNDDIR$252
STN$537870*DATE$2021-02-02*TIME$19:59:17*TEMP$-9.3*DEWP$-22.6*STP$968.6*SLP$1028.7*VISIB$22.2*WDSP$0.6*PRCP$0.00*SNDP$0.0*FRSHTT$100000*CLDC$9.8*WNDDIR$168
STN$114234*DATE$2021-02-02*TIME$19:59:17*TEMP$-1.9*DEWP$-5.1*STP$1002.0*SLP$986.4*VISIB$9.5*WDSP$17.0*PRCP$0.00*SNDP$0.0*FRSHTT$100000*CLDC$44.3*WNDDIR$147
STN$24580*DATE$2021-02-02*TIME$19:59:17*TEMP$-1.7*DEWP$-3.3*STP$1012.0*SLP$1009.6*VISIB$23.6*WDSP$16.0*PRCP$0.10*SNDP$13.0*FRSHTT$111000*CLDC$50.9*WNDDIR$154
STN$802220*DATE$2021-02-02*TIME$19:59:17*TEMP$3.5*DEWP$0.0*STP$773.5*SLP$769.2*VISIB$14.9*WDSP$5.8*PRCP$0.02*SNDP$0.0*FRSHTT$010000*CLDC$54.8*WNDDIR$154
STN$677810*DATE$2021-02-02*TIME$19:59:17*TEMP$6.8*DEWP$2.5*STP$875.5*SLP$873.4*VISIB$35.0*WDSP$8.4*PRCP$0.92*SNDP$0.0*FRSHTT$010000*CLDC$51.6*WNDDIR$133
STN$537980*DATE$2021-02-02*TIME$19:59:17*TEMP$-3.0*DEWP$-14.2*STP$1022.5*SLP$1027.5*VISIB$9.1*WDSP$10.3*PRCP$0.00*SNDP$0.0*FRSHTT$100000*CLDC$17.5*WNDDIR$323
STN$94990*DATE$2021-02-02*TIME$19:59:17*TEMP$-0.9*DEWP$-4.3*STP$1007.5*SLP$1015.9*VISIB$7.4*WDSP$23.4*PRCP$0.10*SNDP$2.1*FRSHTT$111000*CLDC$74.1*WNDDIR$224
STN$131800*DATE$2021-02-02*TIME$19:59:17*TEMP$-2.8*DEWP$-6.2*STP$1013.2*SLP$1021.2*VISIB$20.3*WDSP$12.9*PRCP$0.00*SNDP$3.4*FRSHTT$101000*CLDC$70.2*WNDDIR$103
STN$166750*DATE$2021-02-02*TIME$19:59:17*TEMP$0.4*DEWP$-4.8*STP$1018.1*SLP$1019.3*VISIB$4.5*WDSP$15.8*PRCP$0.24*SNDP$0.0*FRSHTT$010000*CLDC$97.9*WNDDIR$154
STN$723106*DATE$2021-02-02*TIME$19:59:17*TEMP$1.4*DEWP$-4.0*STP$1012.7*SLP$1019.2*VISIB$10.4*WDSP$14.7*PRCP$0.32*SNDP$0.0*FRSHTT$010000*CLDC$51.7*WNDDIR$228
STN$912180*DATE$2021-02-02*TIME$19:59:17*TEMP$14.1*DEWP$9.8*STP$997.0*SLP$1011.3*VISIB$12.8*WDSP$17.3*PRCP$0.21*SNDP$0.0*FRSHTT$010000*CLDC$88.5*WNDDIR$334
STN$723109*DATE$2021-02-02*TIME$19:59:17*TEMP$-0.3*DEWP$-5.9*STP$1002.9*SLP$1020.5*VISIB$14.7*WDSP$5.9*PRCP$0.07*SNDP$0.0*FRSHTT$110000*CLDC$50.2*WNDDIR$180
STN$723108*DATE$2021-02-02*TIME$19:59:17*TEMP$0.2*DEWP$-6.5*STP$1013.5*SLP$1020.6*VISIB$2.1*WDSP$13.4*PRCP$0.07*SNDP$0.0*FRSHTT$010000*CLDC$50.5*WNDDIR$224
STN$723110*DATE$2021-02-02*TIME$19:59:17*TEMP$0.8*DEWP$-4.8*STP$993.3*SLP$1019.8*VISIB$4.1*WDSP$10.2*PRCP$0.49*SNDP$0.0*FRSHTT$010000*CLDC$52.9*WNDDIR$327
STN$723115*DATE$2021-02-02*TIME$19:59:17*TEMP$1.1*DEWP$-5.1*STP$1011.6*SLP$1019.9*VISIB$19.4*WDSP$16.4*PRCP$0.09*SNDP$0.0*FRSHTT$010000*CLDC$78.2*WNDDIR$324
STN$411140*DATE$2021-02-02*TIME$19:59:17*TEMP$9.8*DEWP$2.1*STP$836.2*SLP$840.8*VISIB$13.4*WDSP$24.1*PRCP$0.00*SNDP$0.0*FRSHTT$000000*CLDC$46.8*WNDDIR$92
STN$723114*DATE$2021-02-02*TIME$19:59:17*TEMP$-0.7*DEWP$-3.7*STP$983.9*SLP$962.8*VISIB$14.8*WDSP$6.7*PRCP$0.00*SNDP$0.0*FRSHTT$100000*CLDC$4.8*WNDDIR$67
STN$723117*DATE$2021-02-02*TIME$19:59:17*TEMP$-1.0*DEWP$-6.8*STP$1020.8*SLP$1022.5*VISIB$18.3*WDSP$15.7*PRCP$0.56*SNDP$0.0*FRSHTT$110000*CLDC$51.8*WNDDIR$324
STN$723119*DATE$2021-02-02*TIME$19:59:17*TEMP$1.5*DEWP$-6.5*STP$996.8*SLP$1010.0*VISIB$18.0*WDSP$2.1*PRCP$0.05*SNDP$0.0*FRSHTT$010000*CLDC$53.5*WNDDIR$189
STN$107120*DATE$2021-02-02*TIME$19:59:17*TEMP$-0.8*DEWP$-3.7*STP$984.2*SLP$1023.7*VISIB$11.6*WDSP$7.2*PRCP$0.10*SNDP$0.0*FRSHTT$110000*CLDC$85.9*WNDDIR$185
STN$919440*DATE$2021-02-02*TIME$19:59:17*TEMP$18.5*DEWP$15.4*STP$1010.7*SLP$1012.2*VISIB$17.9*WDSP$21.0*PRCP$0.07*SNDP$0.0*FRSHTT$010000*CLDC$85.9*WNDDIR$121
STN$62900*DATE$2021-02-02*TIME$19:59:17*TEMP$-0.4*DEWP$-3.4*STP$1018.5*SLP$1017.1*VISIB$22.3*WDSP$21.7*PRCP$0.11*SNDP$0.3*FRSHTT$111000*CLDC$78.4*WNDDIR$66
STN$728150*DATE$2021-02-02*TIME$19:59:17*TEMP$5.1*DEWP$2.9*STP$996.6*SLP$994.5*VISIB$7.3*WDSP$63.5*PRCP$1.25*SNDP$0.0*FRSHTT$110000*CLDC$89.2*WNDDIR$217
STN$864900*DATE$2021-02-02*TIME$19:59:17*TEMP$5.1*DEWP$-3.0*STP$1008.5*SLP$1020.6*VISIB$10.1*WDSP$11.2*PRCP$0.00*SNDP$0.0*FRSHTT$000000*CLDC$21.1*WNDDIR$244
STN$534870*DATE$2021-02-02*TIME$19:59:17*TEMP$-11.6*DEWP$-22.9*STP$976.3*SLP$1030.9*VISIB$19.4*WDSP$11.5*PRCP$0.00*SNDP$0.0*FRSHTT$100000*CLDC$83.3*WNDDIR$106
STN$309690*DATE$2021-02-02*TIME$19:59:17*TEMP$-20.6*DEWP$-26.0*STP$1055.9*SLP$1040.4*VISIB$35.3*WDSP$14.9*PRCP$0.00*SNDP$0.0*FRSHTT$100000*CLDC$88.8*WNDDIR$321
STN$919430*DATE$2021-02-02*TIME$19:59:17*TEMP$17.6*DEWP$16.1*STP$1025.6*SLP$1012.3*VISIB$20.0*WDSP$15.7*PRCP$1.33*SNDP$0.0*FRSHTT$010000*CLDC$57.6*WNDDIR$243
STN$292090*DATE$2021-02-02*TIME$19:59:17*TEMP$-29.9*DEWP$-34.2*STP$1027.1*SLP$1039.0*VISIB$16.7*WDSP$12.4*PRCP$0.00*SNDP$31.7*FRSHTT$101000*CLDC$55.4*WNDDIR$341
STN$919480*DATE$2021-02-02*TIME$19:59:17*TEMP$19.3*DEWP$15.2*STP$1017.0*SLP$1015.6*VISIB$25.9*WDSP$11.4*PRCP$0.04*SNDP$0.0*FRSHTT$010000*CLDC$54.5*WNDDIR$287
STN$263140*DATE$2021-02-02*TIME$19:59:17*TEMP$-6.4*DEWP$-10.7*STP$994.3*SLP$993.6*VISIB$19.4*WDSP$27.8*PRCP$0.08*SNDP$9.9*FRSHTT$111000*CLDC$54.6*WNDDIR$238
STN$548430*DATE$2021-02-02*TIME$19:59:17*TEMP$-5.3*DEWP$-14.9*STP$1020.7*SLP$1028.0*VISIB$16.6*WDSP$16.0*PRCP$0.01*SNDP$0.0*FRSHTT$110000*CLDC$89.0*WNDDIR$354
STN$561930*DATE$2021-02-02*TIME$19:59:17*TEMP$2.1*DEWP$-1.0*STP$1039.6*SLP$1015.3*VISIB$13.7*WDSP$2.0*PRCP$0.04*SNDP$0.0*FRSHTT$010000*CLDC$97.0*WNDDIR$113
STN$717255*DATE$2021-02-02*TIME$19:59:17*TEMP$-11.1*DEWP$-14.2*STP$1019.5*SLP$1018.7*VISIB$22.0*WDSP$9.2*PRCP$0.00*SNDP$0.0*FRSHTT$100000*CLDC$82.0*WNDDIR$328
STN$315040*DATE$2021-02-02*TIME$19:59:17*TEMP$-18.7*DEWP$-24.0*STP$1010.8*SLP$1018.3*VISIB$33.6*WDSP$11.1*PRCP$0.57*SNDP$0.0*FRSHTT$110000*CLDC$73.6*WNDDIR$85
STN$71680*DATE$2021-02-02*TIME$19:59:17*TEMP$0.1*DEWP$-1.8*STP$1008.8*SLP$1023.0*VISIB$8.0*WDSP$14.4*PRCP$0.04*SNDP$0.0*FRSHTT$010000*CLDC$51.5*WNDDIR$93
STN$263130*DATE$2021-02-02*TIME$19:59:17*TEMP$-1.4*DEWP$-3.4*STP$1012.9*SLP$1015.2*VISIB$15.9*WDSP$11.2*PRCP$0.18*SNDP$10.0*FRSHTT$111000*CLDC$52.7*WNDDIR$251
STN$102790*DATE$2021-02-02*TIME$19:59:17*TEMP$-2.0*DEWP$-4.6*STP$1028.4*SLP$1024.3*VISIB$5.6*WDSP$18.9*PRCP$0.02*SNDP$0.0*FRSHTT$110000*CLDC$51.2*WNDDIR$3
STN$297560*DATE$2021-02-02*TIME$19:59:17*TEMP$-18.2*DEWP$-24.1*STP$1068.4*SLP$1034.7*VISIB$47.1*WDSP$1.8*PRCP$0.00*SNDP$8.2*FRSHTT$101000*CLDC$83.9*WNDDIR$246
STN$579570*DATE$2021-02-02*TIME$19:59:17*TEMP$3.7*DEWP$-1.7*STP$1013.9*SLP$1024.1*VISIB$12.3*WDSP$9.0*PRCP$0.18*SNDP$0.0*FRSHTT$010000*CLDC$50.7*WNDDIR$16
STN$21550*DATE$2021-02-02*TIME$19:59:17*TEMP$-2.3*DEWP$-4.6*STP$1052.2*SLP$1015.0*VISIB$4.1*WDSP$4.3*PRCP$0.00*SNDP$2.5*FRSHTT$101000*CLDC$64.8*WNDDIR$183
STN$960011*DATE$2021-02-02*TIME$19:59:17*TEMP$9.8*DEWP$9.0*STP$1006.1*SLP$999.6*VISIB$9.0*WDSP$3.3*PRCP$0.00*SNDP$0.0*FRSHTT$000000*CLDC$87.2*WNDDIR$273
STN$21540*DATE$2021-02-02*TIME$19:59:17*TEMP$-8.8*DEWP$-9.2*STP$992.7*SLP$1035.7*VISIB$24.4*WDSP$4.2*PRCP$0.02*SNDP$30.1*FRSHTT$111000*CLDC$55.9*WNDDIR$203
STN$39270*DATE$2021-02-02*TIME$19:59:17*TEMP$4.0*DEWP$1.6*STP$1024.2*SLP$1015.7*VISIB$12.7*WDSP$21.0*PRCP$0.00*SNDP$0.0*FRSHTT$000000*CLDC$98.8*WNDDIR$250
STN$836810*DATE$2021-02-02*TIME$19:59:17*TEMP$14.7*DEWP$12.2*STP$1011.0*SLP$1016.9*VISIB$21.7*WDSP$12.5*PRCP$0.00*SNDP$0.0*FRSHTT$000000*CLDC$64.0*WNDDIR$257
STN$470312*DATE$2021-02-02*TIME$19:59:17*TEMP$-7.5*DEWP$-23.6*STP$1008.7*SLP$989.6*VISIB$10.3*WDSP$4.2*PRCP$0.00*SNDP$0.0*FRSHTT$100000*CLDC$50.6*WNDDIR$357
STN$268320*DATE$2021-02-02*TIME$19:59:17*TEMP$-5.2*DEWP$-7.6*STP$1003.8*SLP$1017.1*VISIB$9.2*WDSP$14.8*PRCP$0.07*SNDP$6.4*FRSHTT$111000*CLDC$52.1*WNDDIR$181
STN$715270*DATE$2021-02-02*TIME$19:59:17*TEMP$-5.1*DEWP$-8.2*STP$1001.7*SLP$1029.2*VISIB$10.6*WDSP$6.3*PRCP$0.17*SNDP$24.2*FRSHTT$111000*CLDC$75.5*WNDDIR$246
STN$316770*DATE$2021-02-02*TIME$19:59:17*TEMP$-10.0*DEWP$-10.8*STP$901.6*SLP$1017.0*VISIB$33.8*WDSP$9.7*PRCP$0.00*SNDP$25.8*FRSHTT$101000*CLDC$53.2*WNDDIR$268
STN$470311*DATE$2021-02-02*TIME$19:59:17*TEMP$7.9*DEWP$7.5*STP$1008.3*SLP$1022.4*VISIB$5.7*WDSP$7.9*PRCP$0.00*SNDP$0.0*FRSHTT$000000*CLDC$41.3*WNDDIR$67
STN$710810*DATE$2021-02-02*TIME$19:59:17*TEMP$-10.4*DEWP$-14.7*STP$1011.2*SLP$1012.4*VISIB$1.3*WDSP$23.4*PRCP$0.00*SNDP$11.3*FRSHTT$101000*CLDC$86.1*WNDDIR$63
STN$722655*DATE$2021-02-02*TIME$19:59:17*TEMP$0.1*DEWP$-9.4*STP$939.9*SLP$1017.7*VISIB$31.1*WDSP$2.1*PRCP$0.06*SNDP$0.0*FRSHTT$010000*CLDC$51.4*WNDDIR$355
STN$910660*DATE$2021-02-02*TIME$19:59:17*TEMP$16.2*DEWP$10.1*STP$1012.4*SLP$1013.5*VISIB$13.6*WDSP$28.6*PRCP$0.05*SNDP$0.0*FRSHTT$010000*CLDC$50.8*WNDDIR$85
STN$26280*DATE$2021-02-02*TIME$19:59:17*TEMP$-1.2*DEWP$-2.4*STP$994.6*SLP$973.4*VISIB$14.5*WDSP$27.7*PRCP$0.00*SNDP$0.0*FRSHTT$100000*CLDC$52.7*WNDDIR$330
STN$722640*DATE$2021-02-02*TIME$19:59:17*TEMP$-3.1*DEWP$-20.0*STP$1016.3*SLP$1042.8*VISIB$18.2*WDSP$4.6*PRCP$0.00*SNDP$0.0*FRSHTT$100000*CLDC$45.0*WNDDIR$109
STN$61230*DATE$2021-02-02*TIME$19:59:17*TEMP$0.9*DEWP$-0.7*STP$1020.5*SLP$1017.1*VISIB$10.9*WDSP$15.9*PRCP$0.00*SNDP$0.0*FRSHTT$000000*CLDC$9.1*WNDDIR$274
STN$218020*DATE$2021-02-02*TIME$19:59:17*TEMP$-27.0*DEWP$-28.0*STP$1005.1*SLP$1013.2*VISIB$36.9*WDSP$9.7*PRCP$0.04*SNDP$30.1*FRSHTT$111000*CLDC$50.2*WNDDIR$142
STN$95670*DATE$2021-02-02*TIME$19:59:17*TEMP$-1.6*DEWP$-4.3*STP$1012.6*SLP$1017.2*VISIB$8.9*WDSP$16.8*PRCP$0.18*SNDP$1.6*FRSHTT$111000*CLDC$52.7*WNDDIR$279
STN$167420*DATE$2021-02-02*TIME$19:59:17*TEMP$3.6*DEWP$-2.2*STP$985.0*SLP$999.8*VISIB$10.1*WDSP$15.7*PRCP$0.00*SNDP$0.0*FRSHTT$000000*CLDC$98.0*WNDDIR$282
STN$589440*DATE$2021-02-02*TIME$19:59:17*TEMP$4.2*DEWP$-0.7*STP$1026.5*SLP$1023.4*VISIB$16.5*WDSP$21.0*PRCP$0.34*SNDP$0.0*FRSHTT$010000*CLDC$54.4*WNDDIR$147
STN$620160*DATE$2021-02-02*TIME$19:59:17*TEMP$6.2*DEWP$0.8*STP$1020.5*SLP$1021.0*VISIB$13.7*WDSP$16.4*PRCP$0.17*SNDP$0.0*FRSHTT$010000*CLDC$95.5*WNDDIR$295
STN$726090*DATE$2021-02-02*TIME$19:59:17*TEMP$0.7*DEWP$-1.4*STP$989.4*SLP$991.5*VISIB$23.2*WDSP$55.0*PRCP$2.07*SNDP$0.0*FRSHTT$110000*CLDC$51.2*WNDDIR$73
STN$171900*DATE$2021-02-02*TIME$19:59:17*TEMP$-1.7*DEWP$-4.3*STP$948.1*SLP$978.0*VISIB$13.4*WDSP$13.2*PRCP$0.17*SNDP$2.2*FRSHTT$111000*CLDC$72.4*WNDDIR$336
STN$726088*DATE$2021-02-02*TIME$19:59:17*TEMP$-4.2*DEWP$-7.6*STP$1008.9*SLP$1011.9*VISIB$19.2*WDSP$15.6*PRCP$0.15*SNDP$4.9*FRSHTT$111000*CLDC$51.2*WNDDIR$139
STN$477660*DATE$2021-02-02*TIME$19:59:17*TEMP$0.2*DEWP$-6.5*STP$1020.7*SLP$1021.8*VISIB$24.5*WDSP$15.9*PRCP$0.17*SNDP$0.0*FRSHTT$010000*CLDC$50.7*WNDDIR$89
STN$29710*DATE$2021-02-02*TIME$19:59:17*TEMP$-2.4*DEWP$-4.3*STP$1023.8*SLP$1010.7*VISIB$20.6*WDSP$6.2*PRCP$0.15*SNDP$8.2*FRSHTT$111000*CLDC$89.9*WNDDIR$177
STN$171840*DATE$2021-02-02*TIME$19:59:17*TEMP$0.6*DEWP$-4.5*STP$1015.6*SLP$1014.9*VISIB$21.7*WDSP$5.6*PRCP$0.03*SNDP$0.0*FRSHTT$010000*CLDC$50.3*WNDDIR$276
STN$126600*DATE$2021-02-02*TIME$19:59:17*TEMP$-1.3*DEWP$-4.2*STP$984.7*SLP$1021.8*VISIB$14.9*WDSP$3.3*PRCP$0.09*SNDP$7.9*FRSHTT$111000*CLDC$83.5*WNDDIR$236
STN$655160*DATE$2021-02-02*TIME$19:59:17*TEMP$6.5*DEWP$-6.0*STP$1050.1*SLP$1008.4*VISIB$8.9*WDSP$14.1*PRCP$0.00*SNDP$0.0*FRSHTT$000000*CLDC$20.4*WNDDIR$280
STN$74700*DATE$2021-02-02*TIME$19:59:17*TEMP$-0.1*DEWP$-2.8*STP$937.6*SLP$1022.7*VISIB$16.7*WDSP$12.8*PRCP$0.10*SNDP$0.2*FRSHTT$111000*CLDC$80.6*WNDDIR$212
STN$239290*DATE$2021-02-02*TIME$19:59:17*TEMP$-19.1*DEWP$-21.8*STP$1009.9*SLP$1017.3*VISIB$26.5*WDSP$15.7*PRCP$0.05*SNDP$17.5*FRSHTT$111000*CLDC$59.0*WNDDIR$341
STN$146480*DATE$2021-02-02*TIME$19:59:17*TEMP$2.0*DEWP$-7.5*STP$1008.5*SLP$1021.9*VISIB$18.5*WDSP$5.4*PRCP$0.02*SNDP$1.0*FRSHTT$011000*CLDC$60.7*WNDDIR$167
STN$406760*DATE$2021-02-02*TIME$19:59:17*TEMP$3.4*DEWP$-1.1*STP$1022.6*SLP$1011.8*VISIB$13.3*WDSP$8.4*PRCP$0.00*SNDP$0.0*FRSHTT$000000*CLDC$44.3*WNDDIR$261
STN$319420*DATE$2021-02-02*TIME$19:59:17*TEMP$-20.1*DEWP$-25.4*STP$1037.4*SLP$1008.2*VISIB$58.2*WDSP$5.0*PRCP$0.08*SNDP$0.0*FRSHTT$110000*CLDC$61.1*WNDDIR$29
STN$24290*DATE$2021-02-02*TIME$19:59:17*TEMP$-2.5*DEWP$-2.8*STP$1005.1*SLP$998.7*VISIB$6.5*WDSP$10.8*PRCP$1.37*SNDP$0.0*FRSHTT$110000*CLDC$83.1*WNDDIR$66
STN$85480*DATE$2021-02-02*TIME$19:59:17*TEMP$5.7*DEWP$1.5*STP$1001.8*SLP$1022.8*VISIB$7.6*WDSP$0.4*PRCP$0.07*SNDP$0.0*FRSHTT$010000*CLDC$54.1*WNDDIR$30
STN$942580*DATE$2021-02-02*TIME$19:59:17*TEMP$8.4*DEWP$1.4*STP$997.5*SLP$1002.7*VISIB$51.4*WDSP$3.5*PRCP$0.18*SNDP$0.0*FRSHTT$010000*CLDC$50.2*WNDDIR$356
STN$146520*DATE$2021-02-02*TIME$19:59:17*TEMP$-3.1*DEWP$-9.0*STP$790.6*SLP$786.5*VISIB$10.2*WDSP$52.8*PRCP$0.11*SNDP$103.6*FRSHTT$111000*CLDC$50.2*WNDDIR$72
STN$839280*DATE$2021-02-02*TIME$19:59:17*TEMP$8.7*DEWP$1.4*STP$1008.8*SLP$1018.6*VISIB$11.7*WDSP$21.5*PRCP$0.00*SNDP$0.0*FRSHTT$000000*CLDC$19.8*WNDDIR$301
STN$942590*DATE$2021-02-02*TIME$19:59:17*TEMP$12.2*DEWP$5.9*STP$1005.8*SLP$1006.4*VISIB$58.0*WDSP$9.0*PRCP$0.50*SNDP$0.0*FRSHTT$010000*CLDC$62.0*WNDDIR$52
STN$362080*DATE$2021-02-02*TIME$19:59:17*TEMP$-12.3*DEWP$-17.9*STP$1032.1*SLP$1024.6*VISIB$56.2*WDSP$10.6*PRCP$0.00*SNDP$26.7*FRSHTT$101000*CLDC$67.1*WNDDIR$19
STN$595590*DATE$2021-02-02*TIME$19:59:17*TEMP$8.5*DEWP$2.4*STP$1014.1*SLP$1017.9*VISIB$19.2*WDSP$14.8*PRCP$0.49*SNDP$0.0*FRSHTT$010000*CLDC$51.7*WNDDIR$341
STN$161530*DATE$2021-02-02*TIME$19:59:17*TEMP$3.8*DEWP$-3.5*STP$1007.0*SLP$1018.7*VISIB$14.1*WDSP$3.6*PRCP$0.23*SNDP$0.0*FRSHTT$010000*CLDC$53.3*WNDDIR$50
STN$284690*DATE$2021-02-02*TIME$19:59:17*TEMP$-20.0*DEWP$-23.2*STP$1037.3*SLP$1027.1*VISIB$29.3*WDSP$9.2*PRCP$0.07*SNDP$0.7*FRSHTT$111000*CLDC$51.8*WNDDIR$331
STN$102030*DATE$2021-02-02*TIME$19:59:17*TEMP$0.0*DEWP$-2.1*STP$1014.5*SLP$1013.5*VISIB$13.5*WDSP$25.7*PRCP$0.14*SNDP$0.1*FRSHTT$111000*CLDC$50.1*WNDDIR$59
STN$67340*DATE$2021-02-02*TIME$19:59:17*TEMP$-0.5*DEWP$-3.9*STP$956.5*SLP$1026.6*VISIB$23.0*WDSP$2.9*PRCP$0.19*SNDP$3.5*FRSHTT$111000*CLDC$58.6*WNDDIR$297
STN$346910*DATE$2021-02-02*TIME$19:59:17*TEMP$-12.4*DEWP$-16.5*STP$1029.4*SLP$1025.6*VISIB$23.3*WDSP$12.7*PRCP$0.04*SNDP$1.9*FRSHTT$111000*CLDC$54.5*WNDDIR$100
STN$102020*DATE$2021-02-02*TIME$19:59:17*TEMP$1.3*DEWP$-0.1*STP$1027.8*SLP$1035.6*VISIB$4.3*WDSP$10.3*PRCP$0.00*SNDP$0.0*FRSHTT$000000*CLDC$73.8*WNDDIR$240
STN$946080*DATE$2021-02-02*TIME$19:59:17*TEMP$9.2*DEWP$-0.2*STP$1011.9*SLP$1014.0*VISIB$24.6*WDSP$17.7*PRCP$0.00*SNDP$0.0*FRSHTT$000000*CLDC$56.4*WNDDIR$86
STN$161480*DATE$2021-02-02*TIME$19:59:17*TEMP$0.4*DEWP$-3.3*STP$1007.1*SLP$1012.8*VISIB$6.4*WDSP$22.7*PRCP$0.00*SNDP$0.0*FRSHTT$100000*CLDC$4.1*WNDDIR$88
STN$729380*DATE$2021-02-02*TIME$19:59:17*TEMP$-15.6*DEWP$-16.6*STP$1027.0*SLP$1035.4*VISIB$25.7*WDSP$15.3*PRCP$0.00*SNDP$25.0*FRSHTT$101000*CLDC$97.6*WNDDIR$221
STN$265540*DATE$2021-02-02*TIME$19:59:17*TEMP$-6.0*DEWP$-7.9*STP$1011.8*SLP$1018.4*VISIB$9.9*WDSP$13.1*PRCP$0.07*SNDP$6.9*FRSHTT$111000*CLDC$51.7*WNDDIR$305
STN$350850*DATE$2021-02-02*TIME$19:59:17*TEMP$-19.0*DEWP$-21.0*STP$1018.5*SLP$1025.5*VISIB$14.0*WDSP$36.5*PRCP$0.00*SNDP$5.4*FRSHTT$101000*CLDC$51.8*WNDDIR$254
STN$71300*DATE$2021-02-02*TIME$19:59:17*TEMP$1.8*DEWP$-1.3*STP$1014.5*SLP$1019.1*VISIB$2.1*WDSP$2.1*PRCP$0.13*SNDP$0.0*FRSHTT$010000*CLDC$51.7*WNDDIR$11
STN$729400*DATE$2021-02-02*TIME$19:59:17*TEMP$0.8*DEWP$-5.2*STP$938.7*SLP$1047.7*VISIB$4.2*WDSP$39.3*PRCP$0.00*SNDP$16.7*FRSHTT$001000*CLDC$92.3*WNDDIR$81
STN$871210*DATE$2021-02-02*TIME$19:59:17*TEMP$12.3*DEWP$6.8*STP$979.9*SLP$1008.5*VISIB$13.7*WDSP$24.6*PRCP$0.37*SNDP$0.0*FRSHTT$010000*CLDC$54.6*WNDDIR$317
STN$871200*DATE$2021-02-02*TIME$19:59:17*TEMP$10.6*DEWP$5.2*STP$1004.4*SLP$1007.4*VISIB$25.0*WDSP$2.7*PRCP$0.01*SNDP$0.0*FRSHTT$010000*CLDC$51.4*WNDDIR$351
STN$703410*DATE$2021-02-02*TIME$19:59:17*TEMP$-6.2*DEWP$-9.7*STP$1002.2*SLP$1006.6*VISIB$18.5*WDSP$13.9*PRCP$0.14*SNDP$5.8*FRSHTT$111000*CLDC$53.8*WNDDIR$181
STN$949780*DATE$2021-02-02*TIME$19:59:17*TEMP$3.8*DEWP$-4.6*STP$989.6*SLP$1011.5*VISIB$15.8*WDSP$27.8*PRCP$0.01*SNDP$0.0*FRSHTT$010000*CLDC$51.8*WNDDIR$44
STN$544970*DATE$2021-02-02*TIME$19:59:17*TEMP$-6.1*DEWP$-15.1*STP$1026.2*SLP$1026.1*VISIB$9.7*WDSP$3.3*PRCP$0.02*SNDP$0.0*FRSHTT$110000*CLDC$94.6*WNDDIR$204
STN$725265*DATE$2021-02-02*TIME$19:59:17*TEMP$-1.9*DEWP$-3.7*STP$1043.8*SLP$1012.7*VISIB$2.0*WDSP$12.0*PRCP$0.00*SNDP$0.0*FRSHTT$100000*CLDC$46.0*WNDDIR$8
STN$725266*DATE$2021-02-02*TIME$19:59:17*TEMP$-5.6*DEWP$-9.6*STP$972.9*SLP$1018.3*VISIB$13.8*WDSP$1.2*PRCP$0.37*SNDP$10.2*FRSHTT$111000*CLDC$50.4*WNDDIR$273
STN$638620*DATE$2021-02-02*TIME$19:59:17*TEMP$12.9*DEWP$8.7*STP$891.3*SLP$943.4*VISIB$25.2*WDSP$9.8*PRCP$3.32*SNDP$0.0*FRSHTT$010000*CLDC$52.7*WNDDIR$24
STN$725267*DATE$2021-02-02*TIME$19:59:17*TEMP$-1.4*DEWP$-4.9*STP$1002.6*SLP$995.2*VISIB$7.4*WDSP$26.5*PRCP$0.01*SNDP$0.0*FRSHTT$110000*CLDC$96.2*WNDDIR$171
STN$400250*DATE$2021-02-02*TIME$19:59:17*TEMP$4.2*DEWP$1.3*STP$1020.4*SLP$1017.6*VISIB$1.6*WDSP$15.4*PRCP$0.34*SNDP$0.0*FRSHTT$010000*CLDC$57.2*WNDDIR$29
STN$725270*DATE$2021-02-02*TIME$19:59:17*TEMP$-10.8*DEWP$-14.8*STP$972.5*SLP$1013.8*VISIB$16.3*WDSP$41.6*PRCP$0.12*SNDP$27.5*FRSHTT$111000*CLDC$51.7*WNDDIR$197
STN$725290*DATE$2021-02-02*TIME$19:59:17*TEMP$-5.0*DEWP$-9.4*STP$1000.0*SLP$1018.9*VISIB$12.9*WDSP$28.3*PRCP$0.25*SNDP$7.7*FRSHTT$111000*CLDC$50.5*WNDDIR$127
STN$29010*DATE$2021-02-02*TIME$19:59:17*TEMP$-3.8*DEWP$-5.2*STP$1012.5*SLP$1005.2*VISIB$11.1*WDSP$26.5*PRCP$0.12*SNDP$0.0*FRSHTT$110000*CLDC$55.2*WNDDIR$192
STN$549090*DATE$2021-02-02*TIME$19:59:17*TEMP$-2.1*DEWP$-10.8*STP$1021.6*SLP$1028.3*VISIB$15.2*WDSP$5.9*PRCP$0.00*SNDP$0.0*FRSHTT$100000*CLDC$92.3*WNDDIR$229
STN$308430*DATE$2021-02-02*TIME$19:59:17*TEMP$-18.4*DEWP$-25.5*STP$910.9*SLP$1041.3*VISIB$39.0*WDSP$3.9*PRCP$0.00*SNDP$5.1*FRSHTT$101000*CLDC$50.1*WNDDIR$78
STN$787410*DATE$2021-02-02*TIME$19:59:17*TEMP$10.9*DEWP$1.7*STP$1009.2*SLP$1011.7*VISIB$35.1*WDSP$6.7*PRCP$0.00*SNDP$0.0*FRSHTT$000000*CLDC$24.2*WNDDIR$169
STN$37690*DATE$2021-02-02*TIME$19:59:17*TEMP$0.4*DEWP$-4.5*STP$990.2*SLP$1012.9*VISIB$30.4*WDSP$14.8*PRCP$0.00*SNDP$0.0*FRSHTT$000000*CLDC$67.6*WNDDIR$64
STN$85360*DATE$2021-02-02*TIME$19:59:17*TEMP$8.6*DEWP$4.0*STP$1015.8*SLP$1016.3*VISIB$14.5*WDSP$14.1*PRCP$0.09*SNDP$0.0*FRSHTT$010000*CLDC$51.1*WNDDIR$42
STN$544710*DATE$2021-02-02*TIME$19:59:17*TEMP$-6.6*DEWP$-14.0*STP$1025.9*SLP$1027.2*VISIB$3.6*WDSP$8.8*PRCP$0.00*SNDP$0.0*FRSHTT$100000*CLDC$99.6*WNDDIR$265
STN$484260*DATE$2021-02-02*TIME$19:59:17*TEMP$17.3*DEWP$8.6*STP$1000.4*SLP$1013.1*VISIB$2.7*WDSP$1.3*PRCP$0.00*SNDP$0.0*FRSHTT$000000*CLDC$77.1*WNDDIR$22
STN$24180*DATE$2021-02-02*TIME$19:59:17*TEMP$-3.0*DEWP$-4.4*STP$1017.6*SLP$1012.1*VISIB$28.6*WDSP$1.4*PRCP$0.03*SNDP$7.3*FRSHTT$111000*CLDC$51.1*WNDDIR$244
STN$37680*DATE$2021-02-02*TIME$19:59:17*TEMP$1.3*DEWP$-1.5*STP$1017.1*SLP$1018.9*VISIB$12.0*WDSP$13.5*PRCP$0.06*SNDP$0.0*FRSHTT$010000*CLDC$99.9*WNDDIR$213
STN$575040*DATE$2021-02-02*TIME$19:59:17*TEMP$2.9*DEWP$-0.1*STP$1024.5*SLP$1022.7*VISIB$9.6*WDSP$0.1*PRCP$0.07*SNDP$0.0*FRSHTT$010000*CLDC$74.3*WNDDIR$349
STN$37683*DATE$2021-02-02*TIME$19:59:17*TEMP$2.4*DEWP$-1.2*STP$993.5*SLP$989.5*VISIB$18.7*WDSP$15.1*PRCP$0.00*SNDP$0.0*FRSHTT$000000*CLDC$51.3*WNDDIR$195
STN$406650*DATE$2021-02-02*TIME$19:59:17*TEMP$4.9*DEWP$-0.1*STP$1038.7*SLP$1019.7*VISIB$20.4*WDSP$9.7*PRCP$0.00*SNDP$0.0*FRSHTT$000000*CLDC$49.8*WNDDIR$209
STN$202770*DATE$2021-02-02*TIME$19:59:17*TEMP$-21.6*DEWP$-24.4*STP$1012.8*SLP$996.4*VISIB$31.6*WDSP$18.0*PRCP$0.00*SNDP$32.6*FRSHTT$101000*CLDC$53.8*WNDDIR$297
STN$164500*DATE$2021-02-02*TIME$19:59:17*TEMP$2.3*DEWP$-11.7*STP$895.6*SLP$905.7*VISIB$14.9*WDSP$18.5*PRCP$0.00*SNDP$0.0*FRSHTT$000000*CLDC$9.2*WNDDIR$157
STN$286980*DATE$2021-02-02*TIME$19:59:17*TEMP$-18.1*DEWP$-21.2*STP$1027.5*SLP$1027.3*VISIB$4.2*WDSP$17.1*PRCP$0.02*SNDP$11.0*FRSHTT$111000*CLDC$70.4*WNDDIR$277
STN$570670*DATE$2021-02-02*TIME$19:59:17*TEMP$-3.8*DEWP$-14.9*STP$987.0*SLP$1029.1*VISIB$17.4*WDSP$8.6*PRCP$0.00*SNDP$0.0*FRSHTT$100000*CLDC$34.8*WNDDIR$177
STN$411400*DATE$2021-02-02*TIME$19:59:17*TEMP$53.3*DEWP$16.7*STP$1007.4*SLP$1012.4*VISIB$13.8*WDSP$12.3*PRCP$0.00*SNDP$0.0*FRSHTT$000000*CLDC$0.3*WNDDIR$315
STN$877500*DATE$2021-02-02*TIME$19:59:17*TEMP$5.9*DEWP$-5.5*STP$1009.2*SLP$1011.3*VISIB$15.1*WDSP$14.6*PRCP$0.35*SNDP$0.0*FRSHTT$010000*CLDC$65.5*WNDDIR$58
STN$251230*DATE$2021-02-02*TIME$19:59:17*TEMP$-20.8*DEWP$-22.7*STP$1024.2*SLP$1026.5*VISIB$22.5*WDSP$6.1*PRCP$0.02*SNDP$14.7*FRSHTT$111000*CLDC$51.8*WNDDIR$20
STN$723345*DATE$2021-02-02*TIME$19:59:17*TEMP$0.6*DEWP$-5.6*STP$1010.0*SLP$1020.3*VISIB$5.7*WDSP$2.8*PRCP$0.53*SNDP$0.8*FRSHTT$011000*CLDC$64.1*WNDDIR$292
STN$723346*DATE$2021-02-02*TIME$19:59:17*TEMP$0.9*DEWP$-3.6*STP$1023.3*SLP$1021.3*VISIB$10.8*WDSP$8.2*PRCP$0.37*SNDP$0.4*FRSHTT$011000*CLDC$52.7*WNDDIR$164
STN$723347*DATE$2021-02-02*TIME$19:59:17*TEMP$0.5*DEWP$-3.3*STP$1016.5*SLP$1010.7*VISIB$16.2*WDSP$12.9*PRCP$0.52*SNDP$0.0*FRSHTT$010000*CLDC$50.0*WNDDIR$178
STN$477641*DATE$2021-02-02*TIME$19:59:17*TEMP$-1.0*DEWP$-8.8*STP$991.0*SLP$1027.2*VISIB$5.2*WDSP$9.5*PRCP$0.00*SNDP$0.0*FRSHTT$100000*CLDC$84.1*WNDDIR$23
STN$726115*DATE$2021-02-02*TIME$19:59:17*TEMP$-1.3*DEWP$-3.5*STP$988.6*SLP$1012.8*VISIB$4.3*WDSP$1.0*PRCP$0.00*SNDP$0.0*FRSHTT$100000*CLDC$71.2*WNDDIR$17
STN$29720*DATE$2021-02-02*TIME$19:59:17*TEMP$-1.1*DEWP$-5.2*STP$1014.8*SLP$1013.2*VISIB$3.3*WDSP$7.1*PRCP$0.09*SNDP$9.0*FRSHTT$111000*CLDC$59.7*WNDDIR$79
STN$726114*DATE$2021-02-02*TIME$19:59:17*TEMP$-7.5*DEWP$-11.6*STP$1017.8*SLP$1018.9*VISIB$20.7*WDSP$14.1*PRCP$0.02*SNDP$0.0*FRSHTT$110000*CLDC$52.0*WNDDIR$312
STN$276480*DATE$2021-02-02*TIME$19:59:17*TEMP$-13.8*DEWP$-16.5*STP$1018.0*SLP$1021.1*VISIB$23.0*WDSP$16.4*PRCP$0.10*SNDP$8.7*FRSHTT$111000*CLDC$82.2*WNDDIR$17
STN$247960*DATE$2021-02-02*TIME$19:59:17*TEMP$-19.5*DEWP$-23.0*STP$1027.4*SLP$1040.3*VISIB$40.8*WDSP$5.9*PRCP$0.00*SNDP$0.0*FRSHTT$100000*CLDC$15.4*WNDDIR$33
STN$74710*DATE$2021-02-02*TIME$19:59:17*TEMP$-0.7*DEWP$-3.3*STP$939.2*SLP$939.2*VISIB$26.1*WDSP$8.4*PRCP$0.02*SNDP$2.5*FRSHTT$111000*CLDC$51.3*WNDDIR$247
STN$126700*DATE$2021-02-02*TIME$19:59:17*TEMP$-0.6*DEWP$-2.7*STP$989.0*SLP$1026.9*VISIB$8.4*WDSP$1.5*PRCP$0.00*SNDP$0.0*FRSHTT$100000*CLDC$70.0*WNDDIR$340
STN$532760*DATE$2021-02-02*TIME$19:59:17*TEMP$-11.6*DEWP$-21.1*STP$918.7*SLP$1031.7*VISIB$28.2*WDSP$19.0*PRCP$0.00*SNDP$0.0*FRSHTT$100000*CLDC$34.4*WNDDIR$264
STN$29800*DATE$2021-02-02*TIME$19:59:17*TEMP$-1.8*DEWP$-3.3*STP$1003.7*SLP$1005.3*VISIB$11.9*WDSP$35.8*PRCP$0.07*SNDP$0.0*FRSHTT$110000*CLDC$52.1*WNDDIR$234
STN$911650*DATE$2021-02-02*TIME$19:59:17*TEMP$16.9*DEWP$12.4*STP$1011.4*SLP$1015.8*VISIB$32.2*WDSP$20.3*PRCP$0.47*SNDP$0.0*FRSHTT$010000*CLDC$51.0*WNDDIR$270
STN$307030*DATE$2021-02-02*TIME$19:59:17*TEMP$-26.7*DEWP$-29.1*STP$1024.2*SLP$1023.4*VISIB$17.0*WDSP$2.7*PRCP$0.17*SNDP$0.0*FRSHTT$110000*CLDC$51.1*WNDDIR$202
STN$272080*DATE$2021-02-02*TIME$19:59:17*TEMP$-13.7*DEWP$-17.2*STP$1001.9*SLP$1018.1*VISIB$12.5*WDSP$10.9*PRCP$0.05*SNDP$24.3*FRSHTT$111000*CLDC$60.6*WNDDIR$295
STN$723635*DATE$2021-02-02*TIME$19:59:17*TEMP$-1.4*DEWP$-10.8*STP$1028.2*SLP$1019.6*VISIB$9.5*WDSP$8.3*PRCP$0.17*SNDP$0.0*FRSHTT$110000*CLDC$69.9*WNDDIR$200
STN$515730*DATE$2021-02-02*TIME$19:59:17*TEMP$-7.9*DEWP$-18.2*STP$1029.4*SLP$1031.7*VISIB$28.8*WDSP$2.7*PRCP$0.00*SNDP$0.0*FRSHTT$100000*CLDC$25.8*WNDDIR$95
STN$601270*DATE$2021-02-02*TIME$19:59:17*TEMP$9.1*DEWP$4.3*STP$1008.6*SLP$1023.0*VISIB$25.1*WDSP$11.4*PRCP$0.00*SNDP$0.0*FRSHTT$000000*CLDC$85.0*WNDDIR$16
STN$203530*DATE$2021-02-02*TIME$19:59:17*TEMP$-10.8*DEWP$-13.4*STP$1021.2*SLP$1014.4*VISIB$19.1*WDSP$15.5*PRCP$0.09*SNDP$2.7*FRSHTT$111000*CLDC$98.8*WNDDIR$122
STN$234120*DATE$2021-02-02*TIME$19:59:17*TEMP$-19.7*DEWP$-22.5*STP$1007.9*SLP$1015.3*VISIB$27.2*WDSP$20.6*PRCP$0.05*SNDP$14.2*FRSHTT$111000*CLDC$51.0*WNDDIR$299
STN$221130*DATE$2021-02-02*TIME$19:59:17*TEMP$-14.7*DEWP$-17.4*STP$1007.6*SLP$1008.1*VISIB$13.4*WDSP$16.8*PRCP$0.04*SNDP$18.2*FRSHTT$111000*CLDC$50.4*WNDDIR$348
STN$356710*DATE$2021-02-02*TIME$19:59:17*TEMP$-17.5*DEWP$-21.2*STP$998.0*SLP$1028.1*VISIB$23.0*WDSP$12.6*PRCP$0.02*SNDP$7.2*FRSHTT$111000*CLDC$51.9*WNDDIR$261
STN$841010*DATE$2021-02-02*TIME$19:59:17*TEMP$11.1*DEWP$6.4*STP$1010.6*SLP$1010.9*VISIB$12.0*WDSP$17.7*PRCP$0.00*SNDP$0.0*FRSHTT$000000*CLDC$59.2*WNDDIR$284
STN$70170*DATE$2021-02-02*TIME$19:59:17*TEMP$0.9*DEWP$-1.5*STP$1014.6*SLP$1017.0*VISIB$11.7*WDSP$20.3*PRCP$0.15*SNDP$0.0*FRSHTT$010000*CLDC$52.8*WNDDIR$226
STN$70150*DATE$2021-02-02*TIME$19:59:17*TEMP$0.9*DEWP$-1.5*STP$1018.0*SLP$1016.6*VISIB$12.3*WDSP$9.3*PRCP$0.16*SNDP$0.2*FRSHTT$011000*CLDC$51.6*WNDDIR$120
STN$528560*DATE$2021-02-02*TIME$19:59:17*TEMP$-9.7*DEWP$-24.8*STP$765.8*SLP$762.8*VISIB$33.6*WDSP$12.1*PRCP$0.09*SNDP$0.0*FRSHTT$110000*CLDC$50.5*WNDDIR$73
STN$764990*DATE$2021-02-02*TIME$19:59:17*TEMP$6.0*DEWP$2.8*STP$1009.2*SLP$1016.9*VISIB$41.8*WDSP$14.3*PRCP$0.00*SNDP$0.0*FRSHTT$000000*CLDC$7.9*WNDDIR$101
STN$34950*DATE$2021-02-02*TIME$19:59:17*TEMP$1.1*DEWP$-1.3*STP$1015.6*SLP$1012.8*VISIB$12.4*WDSP$2.2*PRCP$0.09*SNDP$0.0*FRSHTT$010000*CLDC$91.1*WNDDIR$145
STN$948910*DATE$2021-02-02*TIME$19:59:17*TEMP$10.2*DEWP$6.6*STP$996.0*SLP$954.0*VISIB$34.7*WDSP$4.7*PRCP$0.00*SNDP$0.0*FRSHTT$000000*CLDC$55.9*WNDDIR$138
STN$474330*DATE$2021-02-02*TIME$19:59:17*TEMP$-4.2*DEWP$-7.1*STP$993.8*SLP$1013.1*VISIB$0.9*WDSP$9.0*PRCP$0.51*SNDP$0.0*FRSHTT$110000*CLDC$50.1*WNDDIR$243
STN$122700*DATE$2021-02-02*TIME$19:59:17*TEMP$-2.9*DEWP$-4.6*STP$1015.0*SLP$1018.2*VISIB$13.8*WDSP$17.8*PRCP$0.05*SNDP$3.6*FRSHTT$111000*CLDC$51.3*WNDDIR$121
STN$854880*DATE$2021-02-02*TIME$19:59:17*TEMP$10.0*DEWP$4.8*STP$1003.4*SLP$1013.7*VISIB$13.0*WDSP$10.5*PRCP$0.00*SNDP$0.0*FRSHTT$000000*CLDC$53.7*WNDDIR$62
STN$983240*DATE$2021-02-02*TIME$19:59:17*TEMP$13.1*DEWP$9.5*STP$1028.7*SLP$1015.1*VISIB$18.0*WDSP$10.9*PRCP$0.04*SNDP$0.0*FRSHTT$010000*CLDC$64.6*WNDDIR$193
STN$740561*DATE$2021-02-02*TIME$19:59:17*TEMP$-0.7*DEWP$-7.5*STP$977.7*SLP$1040.6*VISIB$16.5*WDSP$44.2*PRCP$0.00*SNDP$0.0*FRSHTT$100000*CLDC$7.6*WNDDIR$109
STN$127720*DATE$2021-02-02*TIME$19:59:17*TEMP$-2.1*DEWP$-5.1*STP$1003.9*SLP$1022.9*VISIB$3.1*WDSP$8.4*PRCP$0.01*SNDP$1.4*FRSHTT$111000*CLDC$52.0*WNDDIR$177
STN$723055*DATE$2021-02-02*TIME$19:59:17*TEMP$0.0*DEWP$-0.7*STP$980.5*SLP$948.6*VISIB$2.7*WDSP$7.9*PRCP$0.00*SNDP$0.0*FRSHTT$000000*CLDC$29.7*WNDDIR$290
STN$164700*DATE$2021-02-02*TIME$19:59:17*TEMP$6.2*DEWP$2.8*STP$1008.8*SLP$1020.1*VISIB$16.4*WDSP$16.5*PRCP$0.09*SNDP$0.0*FRSHTT$010000*CLDC$85.3*WNDDIR$21
STN$26640*DATE$2021-02-02*TIME$19:59:17*TEMP$-1.5*DEWP$-4.2*STP$1012.6*SLP$1016.3*VISIB$13.9*WDSP$17.8*PRCP$0.12*SNDP$3.7*FRSHTT$111000*CLDC$59.6*WNDDIR$167
STN$321860*DATE$2021-02-02*TIME$19:59:17*TEMP$-2.8*DEWP$-5.9*STP$999.4*SLP$1003.9*VISIB$19.4*WDSP$78.0*PRCP$0.23*SNDP$10.0*FRSHTT$111000*CLDC$51.3*WNDDIR$182
STN$723046*DATE$2021-02-02*TIME$19:59:17*TEMP$3.7*DEWP$-0.2*STP$994.2*SLP$972.7*VISIB$6.7*WDSP$17.3*PRCP$0.00*SNDP$0.0*FRSHTT$000000*CLDC$26.5*WNDDIR$285
STN$133840*DATE$2021-02-02*TIME$19:59:17*TEMP$-3.3*DEWP$-6.9*STP$1009.0*SLP$1024.5*VISIB$3.8*WDSP$5.1*PRCP$0.08*SNDP$4.0*FRSHTT$111000*CLDC$50.3*WNDDIR$332
STN$723040*DATE$2021-02-02*TIME$19:59:17*TEMP$2.3*DEWP$-2.1*STP$1019.5*SLP$1019.8*VISIB$9.3*WDSP$22.7*PRCP$0.53*SNDP$0.1*FRSHTT$011000*CLDC$75.6*WNDDIR$301
STN$331350*DATE$2021-02-02*TIME$19:59:17*TEMP$-5.8*DEWP$-8.9*STP$1008.6*SLP$1017.7*VISIB$3.7*WDSP$16.5*PRCP$0.06*SNDP$6.6*FRSHTT$111000*CLDC$54.0*WNDDIR$8
STN$408410*DATE$2021-02-02*TIME$19:59:17*TEMP$0.0*DEWP$-16.0*STP$826.0*SLP$1015.4*VISIB$9.8*WDSP$18.9*PRCP$0.00*SNDP$0.0*FRSHTT$100000*CLDC$57.9*WNDDIR$55
STN$946120*DATE$2021-02-02*TIME$19:59:17*TEMP$16.8*DEWP$-1.0*STP$999.4*SLP$1005.4*VISIB$10.4*WDSP$12.9*PRCP$0.00*SNDP$0.0*FRSHTT$000000*CLDC$32.8*WNDDIR$248
STN$20650*DATE$2021-02-02*TIME$19:59:17*TEMP$-4.6*DEWP$-8.5*STP$1048.2*SLP$1016.5*VISIB$60.2*WDSP$3.7*PRCP$0.00*SNDP$30.1*FRSHTT$101000*CLDC$53.7*WNDDIR$291
STN$425590*DATE$2021-02-02*TIME$19:59:17*TEMP$8.6*DEWP$-5.9*STP$997.8*SLP$1010.6*VISIB$3.1*WDSP$3.5*PRCP$0.00*SNDP$0.0*FRSHTT$000000*CLDC$49.3*WNDDIR$193
STN$560210*DATE$2021-02-02*TIME$19:59:17*TEMP$-14.3*DEWP$-26.0*STP$616.8*SLP$616.6*VISIB$29.4*WDSP$16.1*PRCP$0.02*SNDP$0.0*FRSHTT$110000*CLDC$54.6*WNDDIR$257
STN$20640*DATE$2021-02-02*TIME$19:59:17*TEMP$-3.9*DEWP$-4.8*STP$1014.2*SLP$1027.6*VISIB$69.2*WDSP$17.0*PRCP$0.53*SNDP$0.0*FRSHTT$110000*CLDC$52.1*WNDDIR$100
STN$595670*DATE$2021-02-02*TIME$19:59:17*TEMP$7.8*DEWP$5.3*STP$1003.3*SLP$1018.0*VISIB$8.4*WDSP$33.5*PRCP$0.51*SNDP$0.0*FRSHTT$010000*CLDC$53.0*WNDDIR$47
STN$540940*DATE$2021-02-02*TIME$19:59:17*TEMP$-8.4*DEWP$-12.3*STP$1014.0*SLP$1023.5*VISIB$12.0*WDSP$12.3*PRCP$0.01*SNDP$0.0*FRSHTT$110000*CLDC$53.4*WNDDIR$144
STN$716420*DATE$2021-02-02*TIME$19:59:17*TEMP$-5.2*DEWP$-7.5*STP$*SLP$1011.5*VISIB$10.4*WDSP$19.9*PRCP$0.16*SNDP$39.9*FRSHTT$111000*CLDC$50.7*WNDDIR$221
STN$342400*DATE$2021-02-02*TIME$19:59:17*TEMP$-10.6*DEWP$-13.4*STP$1023.3*SLP$1022.7*VISIB$22.2*WDSP$9.5*PRCP$0.07*SNDP$3.8*FRSHTT$111000*CLDC$51.3*WNDDIR$122
STN$722660*DATE$2021-02-02*TIME$19:59:17*TEMP$0.1*DEWP$-6.9*STP$962.4*SLP$1019.5*VISIB$32.0*WDSP$25.0*PRCP$0.03*SNDP$0.2*FRSHTT$011000*CLDC$75.2*WNDDIR$320
STN$722590*DATE$2021-02-02*TIME$19:59:17*TEMP$1.4*DEWP$-5.3*STP$1000.1*SLP$1020.5*VISIB$14.9*WDSP$18.9*PRCP$0.07*SNDP$0.2*FRSHTT$011000*CLDC$82.2*WNDDIR$203
STN$130145*DATE$2021-02-02*TIME$19:59:17*TEMP$0.9*DEWP$-4.4*STP$1022.0*SLP$1005.5*VISIB$7.5*WDSP$9.7*PRCP$0.00*SNDP$0.0*FRSHTT$000000*CLDC$41.7*WNDDIR$28
STN$722588*DATE$2021-02-02*TIME$19:59:17*TEMP$3.3*DEWP$0.3*STP$1004.7*SLP$1007.8*VISIB$32.2*WDSP$9.4*PRCP$0.00*SNDP$0.0*FRSHTT$000000*CLDC$78.1*WNDDIR$187
STN$722589*DATE$2021-02-02*TIME$19:59:17*TEMP$0.8*DEWP$-6.4*STP$1015.6*SLP$1019.3*VISIB$17.5*WDSP$23.0*PRCP$0.10*SNDP$0.0*FRSHTT$010000*CLDC$50.6*WNDDIR$5
STN$722586*DATE$2021-02-02*TIME$19:59:17*TEMP$1.4*DEWP$-4.1*STP$998.2*SLP$1020.2*VISIB$25.2*WDSP$28.8*PRCP$0.00*SNDP$*FRSHTT$000000*CLDC$7.0*WNDDIR$133
STN$722587*DATE$2021-02-02*TIME$19:59:17*TEMP$1.6*DEWP$-0.7*STP$1025.0*SLP$1048.9*VISIB$16.2*WDSP$13.3*PRCP$0.72*SNDP$0.0*FRSHTT$010000*CLDC$99.1*WNDDIR$261
STN$411700*DATE$2021-02-02*TIME$19:59:17*TEMP$14.2*DEWP$8.2*STP$1018.2*SLP$1018.0*VISIB$14.3*WDSP$21.1*PRCP$0.03*SNDP$0.0*FRSHTT$010000*CLDC$50.4*WNDDIR$319
STN$722585*DATE$2021-02-02*TIME$19:59:17*TEMP$1.0*DEWP$-6.1*STP$1007.5*SLP$1020.6*VISIB$21.7*WDSP$13.0*PRCP$0.17*SNDP$0.3*FRSHTT$011000*CLDC$77.7*WNDDIR$220
STN$467600*DATE$2021-02-02*TIME$19:59:17*TEMP$2.0*DEWP$3.2*STP$1013.1*SLP$1018.6*VISIB$4.1*WDSP$13.9*PRCP$0.00*SNDP$0.0*FRSHTT$000000*CLDC$72.9*WNDDIR$203
STN$23430*DATE$2021-02-02*TIME$19:59:17*TEMP$-0.7*DEWP$-2.4*STP$1032.6*SLP$1029.6*VISIB$31.5*WDSP$33.6*PRCP$0.00*SNDP$0.0*FRSHTT$100000*CLDC$82.7*WNDDIR$38
STN$943330*DATE$2021-02-02*TIME$19:59:17*TEMP$18.1*DEWP$5.0*STP$988.4*SLP$1005.4*VISIB$48.6*WDSP$17.8*PRCP$0.01*SNDP$0.0*FRSHTT$010000*CLDC$67.2*WNDDIR$333
STN$207440*DATE$2021-02-02*TIME$19:59:17*TEMP$-17.3*DEWP$-20.7*STP$1014.3*SLP$1012.4*VISIB$20.0*WDSP$57.4*PRCP$0.02*SNDP$0.0*FRSHTT$110000*CLDC$66.5*WNDDIR$108
STN$38620*DATE$2021-02-02*TIME$19:59:17*TEMP$1.4*DEWP$-1.5*STP$1016.6*SLP$1018.5*VISIB$8.8*WDSP$16.6*PRCP$0.12*SNDP$0.0*FRSHTT$010000*CLDC$50.8*WNDDIR$113
STN$943350*DATE$2021-02-02*TIME$19:59:17*TEMP$14.4*DEWP$2.9*STP$986.9*SLP$982.0*VISIB$46.5*WDSP$10.8*PRCP$0.00*SNDP$0.0*FRSHTT$000000*CLDC$81.1*WNDDIR$218
STN$467590*DATE$2021-02-02*TIME$19:59:17*TEMP$11.2*DEWP$4.5*STP$1031.2*SLP$1018.4*VISIB$15.0*WDSP$12.6*PRCP$0.49*SNDP$0.0*FRSHTT$010000*CLDC$50.0*WNDDIR$266
STN$823170*DATE$2021-02-02*TIME$19:59:17*TEMP$16.5*DEWP$12.6*STP$991.6*SLP$1008.7*VISIB$14.4*WDSP$4.6*PRCP$0.66*SNDP$0.0*FRSHTT$010000*CLDC$52.6*WNDDIR$131
STN$766546*DATE$2021-02-02*TIME$19:59:17*TEMP$4.5*DEWP$0.5*STP$1002.3*SLP$983.5*VISIB$4.2*WDSP$13.6*PRCP$0.00*SNDP$0.0*FRSHTT$000000*CLDC$20.2*WNDDIR$59
STN$467640*DATE$2021-02-02*TIME$19:59:17*TEMP$7.2*DEWP$4.3*STP$1025.6*SLP$1020.5*VISIB$11.9*WDSP$10.9*PRCP$0.03*SNDP$0.0*FRSHTT$010000*CLDC$55.5*WNDDIR$205
STN$66200*DATE$2021-02-02*TIME$19:59:17*TEMP$-2.7*DEWP$-5.7*STP$1025.1*SLP$1022.2*VISIB$7.3*WDSP$10.3*PRCP$0.12*SNDP$0.0*FRSHTT$110000*CLDC$67.3*WNDDIR$128
STN$221270*DATE$2021-02-02*TIME$19:59:17*TEMP$-18.9*DEWP$-20.8*STP$997.1*SLP$1005.3*VISIB$25.6*WDSP$13.4*PRCP$0.06*SNDP$21.9*FRSHTT$111000*CLDC$54.1*WNDDIR$58
STN$470080*DATE$2021-02-02*TIME$19:59:17*TEMP$-5.4*DEWP$-13.1*STP$1025.3*SLP$1021.2*VISIB$14.7*WDSP$7.0*PRCP$0.01*SNDP$0.0*FRSHTT$110000*CLDC$52.7*WNDDIR$351
STN$378635*DATE$2021-02-02*TIME$19:59:17*TEMP$-10.7*DEWP$-16.3*STP$1006.4*SLP$1019.7*VISIB$6.1*WDSP$9.0*PRCP$0.00*SNDP$0.0*FRSHTT$100000*CLDC$37.9*WNDDIR$293
STN$629410*DATE$2021-02-02*TIME$19:59:17*TEMP$17.8*DEWP$5.0*STP$1001.3*SLP$1006.8*VISIB$20.1*WDSP$3.9*PRCP$0.00*SNDP$0.0*FRSHTT$000000*CLDC$72.5*WNDDIR$54
STN$485510*DATE$2021-02-02*TIME$19:59:17*TEMP$17.2*DEWP$12.2*STP$1006.8*SLP$1011.6*VISIB$5.2*WDSP$11.6*PRCP$0.00*SNDP$0.0*FRSHTT$000000*CLDC$66.4*WNDDIR$316
STN$576870*DATE$2021-02-02*TIME$19:59:17*TEMP$1.3*DEWP$-3.6*STP$1024.1*SLP$1027.2*VISIB$10.4*WDSP$8.9*PRCP$0.28*SNDP$0.0*FRSHTT$010000*CLDC$52.2*WNDDIR$220
STN$268630*DATE$2021-02-02*TIME$19:59:17*TEMP$-4.3*DEWP$-7.3*STP$1009.4*SLP$1019.8*VISIB$5.0*WDSP$21.6*PRCP$0.08*SNDP$8.2*FRSHTT$111000*CLDC$72.6*WNDDIR$354
STN$101130*DATE$2021-02-02*TIME$19:59:17*TEMP$0.6*DEWP$-1.6*STP$1022.8*SLP$1014.1*VISIB$9.2*WDSP$18.7*PRCP$0.14*SNDP$0.1*FRSHTT$011000*CLDC$54.4*WNDDIR$13
STN$837030*DATE$2021-02-02*TIME$19:59:17*TEMP$7.8*DEWP$0.0*STP$987.5*SLP$986.0*VISIB$14.2*WDSP$11.2*PRCP$0.00*SNDP$0.0*FRSHTT$000000*CLDC$2.2*WNDDIR$61
STN$766850*DATE$2021-02-02*TIME$19:59:17*TEMP$3.3*DEWP$-7.6*STP$785.9*SLP$1009.8*VISIB$8.9*WDSP$7.4*PRCP$0.07*SNDP$0.0*FRSHTT$010000*CLDC$52.2*WNDDIR$232
STN$943390*DATE$2021-02-02*TIME$19:59:17*TEMP$11.6*DEWP$-2.6*STP$987.3*SLP$1009.0*VISIB$43.2*WDSP$3.8*PRCP$0.27*SNDP$0.0*FRSHTT$010000*CLDC$50.2*WNDDIR$136
STN$23160*DATE$2021-02-02*TIME$19:59:17*TEMP$-14.7*DEWP$-16.8*STP$944.7*SLP$998.6*VISIB$34.7*WDSP$4.9*PRCP$0.17*SNDP$33.2*FRSHTT$111000*CLDC$50.8*WNDDIR$177
STN$766870*DATE$2021-02-02*TIME$19:59:17*TEMP$7.6*DEWP$3.2*STP$870.2*SLP$1020.4*VISIB$7.9*WDSP$3.3*PRCP$0.08*SNDP$0.0*FRSHTT$010000*CLDC$90.0*WNDDIR$143
STN$84330*DATE$2021-02-02*TIME$19:59:17*TEMP$5.9*DEWP$0.6*STP$1018.7*SLP$1021.5*VISIB$6.9*WDSP$6.8*PRCP$0.03*SNDP$0.0*FRSHTT$010000*CLDC$51.4*WNDDIR$342
STN$303090*DATE$2021-02-02*TIME$19:59:17*TEMP$-19.7*DEWP$-22.4*STP$1008.8*SLP$1021.8*VISIB$7.0*WDSP$6.7*PRCP$0.00*SNDP$0.0*FRSHTT$100000*CLDC$88.9*WNDDIR$217
STN$528360*DATE$2021-02-02*TIME$19:59:17*TEMP$-8.1*DEWP$-21.8*STP$687.3*SLP$684.3*VISIB$22.3*WDSP$2.0*PRCP$0.02*SNDP$0.0*FRSHTT$110000*CLDC$52.8*WNDDIR$356
STN$405640*DATE$2021-02-02*TIME$19:59:17*TEMP$19.5*DEWP$9.9*STP$1039.1*SLP$1021.4*VISIB$37.4*WDSP$43.3*PRCP$0.00*SNDP$0.0*FRSHTT$000000*CLDC$7.7*WNDDIR$304
STN$255510*DATE$2021-02-02*TIME$19:59:17*TEMP$-21.5*DEWP$-24.0*STP$1015.4*SLP$1020.5*VISIB$19.4*WDSP$8.2*PRCP$0.11*SNDP$25.2*FRSHTT$111000*CLDC$85.5*WNDDIR$160
STN$283210*DATE$2021-02-02*TIME$19:59:17*TEMP$-16.8*DEWP$-18.8*STP$1013.5*SLP$1018.5*VISIB$13.0*WDSP$3.0*PRCP$0.37*SNDP$13.2*FRSHTT$111000*CLDC$52.3*WNDDIR$0
STN$298220*DATE$2021-02-02*TIME$19:59:17*TEMP$-21.3*DEWP$-21.7*STP$1017.9*SLP$1039.6*VISIB$2.3*WDSP$2.0*PRCP$0.00*SNDP$25.0*FRSHTT$101000*CLDC$87.1*WNDDIR$89
STN$172600*DATE$2021-02-02*TIME$19:59:17*TEMP$0.6*DEWP$-3.8*STP$961.3*SLP$1017.5*VISIB$10.4*WDSP$5.3*PRCP$0.09*SNDP$0.5*FRSHTT$011000*CLDC$52.3*WNDDIR$174
STN$947730*DATE$2021-02-02*TIME$19:59:17*TEMP$4.8*DEWP$-7.0*STP$1044.1*SLP$1013.5*VISIB$44.7*WDSP$5.2*PRCP$0.00*SNDP$0.0*FRSHTT$000000*CLDC$37.1*WNDDIR$308
STN$33850*DATE$2021-02-02*TIME$19:59:17*TEMP$1.6*DEWP$-1.3*STP$1013.3*SLP$1008.9*VISIB$14.5*WDSP$29.0*PRCP$0.00*SNDP$0.0*FRSHTT$000000*CLDC$36.7*WNDDIR$55
STN$562570*DATE$2021-02-02*TIME$19:59:17*TEMP$-6.4*DEWP$-18.8*STP$683.8*SLP$680.6*VISIB$40.4*WDSP$0.1*PRCP$0.01*SNDP$0.0*FRSHTT$110000*CLDC$61.6*WNDDIR$73
STN$947740*DATE$2021-02-02*TIME$19:59:17*TEMP$4.4*DEWP$0.5*STP$1001.2*SLP$989.2*VISIB$35.6*WDSP$23.4*PRCP$0.00*SNDP$0.0*FRSHTT$000000*CLDC$12.8*WNDDIR$123
STN$718660*DATE$2021-02-02*TIME$19:59:17*TEMP$-7.5*DEWP$-12.1*STP$956.6*SLP$1020.6*VISIB$16.3*WDSP$19.9*PRCP$0.02*SNDP$5.9*FRSHTT$111000*CLDC$67.1*WNDDIR$78
STN$471150*DATE$2021-02-02*TIME$19:59:17*TEMP$-0.8*DEWP$-6.7*STP$1007.4*SLP$1019.6*VISIB$23.4*WDSP$15.8*PRCP$0.20*SNDP$4.5*FRSHTT$111000*CLDC$71.3*WNDDIR$41
STN$718770*DATE$2021-02-02*TIME$19:59:17*TEMP$-9.9*DEWP$-16.7*STP$888.2*SLP$1017.7*VISIB$41.4*WDSP$20.5*PRCP$0.02*SNDP$3.4*FRSHTT$111000*CLDC$50.5*WNDDIR$7
STN$333460*DATE$2021-02-02*TIME$19:59:17*TEMP$-2.0*DEWP$-8.1*STP$990.3*SLP$977.6*VISIB$10.5*WDSP$16.8*PRCP$0.00*SNDP$0.0*FRSHTT$100000*CLDC$61.3*WNDDIR$348
STN$727687*DATE$2021-02-02*TIME$19:59:17*TEMP$-21.7*DEWP$-29.3*STP$971.1*SLP$1008.3*VISIB$17.4*WDSP$0.2*PRCP$0.00*SNDP$0.0*FRSHTT$100000*CLDC$84.5*WNDDIR$243
STN$727685*DATE$2021-02-02*TIME$19:59:17*TEMP$-11.4*DEWP$-13.5*STP$1043.3*SLP$1023.8*VISIB$23.9*WDSP$23.2*PRCP$0.00*SNDP$0.0*FRSHTT$100000*CLDC$3.7*WNDDIR$165
STN$727680*DATE$2021-02-02*TIME$19:59:17*TEMP$-9.1*DEWP$-12.8*STP$952.6*SLP$1020.9*VISIB$21.5*WDSP$16.1*PRCP$0.02*SNDP$4.3*FRSHTT$111000*CLDC$61.9*WNDDIR$199
STN$107710*DATE$2021-02-02*TIME$19:59:17*TEMP$-1.5*DEWP$-4.5*STP$969.1*SLP$1021.0*VISIB$6.4*WDSP$9.6*PRCP$0.00*SNDP$2.5*FRSHTT$101000*CLDC$51.3*WNDDIR$231
STN$917840*DATE$2021-02-02*TIME$19:59:17*TEMP$25.2*DEWP$20.6*STP$1005.1*SLP$1010.5*VISIB$39.7*WDSP$8.0*PRCP$0.04*SNDP$0.0*FRSHTT$010000*CLDC$63.6*WNDDIR$207
STN$476960*DATE$2021-02-02*TIME$19:59:17*TEMP$0.7*DEWP$-7.9*STP$1008.1*SLP$1013.1*VISIB$9.5*WDSP$16.7*PRCP$0.00*SNDP$0.2*FRSHTT$001000*CLDC$54.0*WNDDIR$120
STN$745046*DATE$2021-02-02*TIME$19:59:17*TEMP$1.0*DEWP$-2.0*STP$1031.0*SLP$1020.6*VISIB$4.6*WDSP$10.5*PRCP$0.18*SNDP$0.0*FRSHTT$010000*CLDC$51.1*WNDDIR$157
STN$636190*DATE$2021-02-02*TIME$19:59:17*TEMP$7.0*DEWP$-21.1*STP$1014.1*SLP$1005.6*VISIB$27.1*WDSP$11.0*PRCP$0.00*SNDP$0.0*FRSHTT$000000*CLDC$36.6*WNDDIR$6
STN$620630*DATE$2021-02-02*TIME$19:59:17*TEMP$1.1*DEWP$-6.9*STP$1020.2*SLP$1017.6*VISIB$17.1*WDSP$36.8*PRCP$0.00*SNDP$0.0*FRSHTT$000000*CLDC$3.2*WNDDIR$189
STN$745048*DATE$2021-02-02*TIME$19:59:17*TEMP$3.3*DEWP$-1.9*STP$1044.8*SLP$1022.5*VISIB$11.7*WDSP$7.3*PRCP$0.13*SNDP$0.0*FRSHTT$010000*CLDC$63.7*WNDDIR$26
STN$670050*DATE$2021-02-02*TIME$19:59:17*TEMP$24.0*DEWP$20.7*STP$996.6*SLP$1009.3*VISIB$18.3*WDSP$13.0*PRCP$0.30*SNDP$0.0*FRSHTT$010000*CLDC$53.2*WNDDIR$215
STN$547760*DATE$2021-02-02*TIME$19:59:17*TEMP$-1.9*DEWP$-8.4*STP$1019.8*SLP$1026.1*VISIB$23.8*WDSP$20.9*PRCP$0.01*SNDP$0.0*FRSHTT$110000*CLDC$51.9*WNDDIR$158
STN$103490*DATE$2021-02-02*TIME$19:59:17*TEMP$-5.0*DEWP$-7.4*STP$1001.2*SLP$1004.4*VISIB$5.9*WDSP$10.2*PRCP$0.08*SNDP$0.0*FRSHTT$110000*CLDC$77.3*WNDDIR$254
STN$947560*DATE$2021-02-02*TIME$19:59:17*TEMP$10.5*DEWP$3.2*STP$970.1*SLP$1015.8*VISIB$27.0*WDSP$9.1*PRCP$0.00*SNDP$0.0*FRSHTT$000000*CLDC$14.2*WNDDIR$165
STN$749238*DATE$2021-02-02*TIME$19:59:17*TEMP$6.4*DEWP$1.8*STP$1016.7*SLP$1014.0*VISIB$38.2*WDSP$7.9*PRCP$0.00*SNDP$0.0*FRSHTT$000000*CLDC$8.2*WNDDIR$222
STN$964650*DATE$2021-02-02*TIME$19:59:17*TEMP$16.8*DEWP$13.5*STP$1008.2*SLP$1010.4*VISIB$21.7*WDSP$8.3*PRCP$0.17*SNDP$0.0*FRSHTT$010000*CLDC$87.6*WNDDIR$161
STN$562940*DATE$2021-02-02*TIME$19:59:17*TEMP$2.7*DEWP$-0.9*STP$997.4*SLP$1022.5*VISIB$2.3*WDSP$5.3*PRCP$0.02*SNDP$0.0*FRSHTT$010000*CLDC$79.3*WNDDIR$284
STN$73160*DATE$2021-02-02*TIME$19:59:17*TEMP$1.3*DEWP$-2.9*STP$1007.9*SLP$1006.9*VISIB$6.4*WDSP$25.0*PRCP$0.42*SNDP$0.0*FRSHTT$010000*CLDC$80.1*WNDDIR$280
STN$73140*DATE$2021-02-02*TIME$19:59:17*TEMP$2.1*DEWP$0.6*STP$1022.5*SLP$1020.2*VISIB$13.5*WDSP$21.9*PRCP$0.10*SNDP$0.0*FRSHTT$010000*CLDC$50.2*WNDDIR$134
STN$119030*DATE$2021-02-02*TIME$19:59:17*TEMP$-2.4*DEWP$-5.2*STP$984.7*SLP$1024.4*VISIB$16.7*WDSP$2.8*PRCP$0.02*SNDP$3.7*FRSHTT$111000*CLDC$84.2*WNDDIR$72
STN$84820*DATE$2021-02-02*TIME$19:59:17*TEMP$6.2*DEWP$1.3*STP$1020.1*SLP$1022.1*VISIB$14.0*WDSP$15.4*PRCP$0.19*SNDP$0.0*FRSHTT$010000*CLDC$55.3*WNDDIR$192
STN$527650*DATE$2021-02-02*TIME$19:59:17*TEMP$-17.2*DEWP$-27.4*STP$714.0*SLP$713.9*VISIB$23.6*WDSP$3.1*PRCP$0.00*SNDP$0.0*FRSHTT$100000*CLDC$47.5*WNDDIR$20
STN$406080*DATE$2021-02-02*TIME$19:59:17*TEMP$-2.6*DEWP$-6.4*STP$1068.0*SLP$1025.3*VISIB$6.8*WDSP$3.1*PRCP$0.00*SNDP$0.0*FRSHTT$100000*CLDC$1.1*WNDDIR$247
STN$115410*DATE$2021-02-02*TIME$19:59:17*TEMP$-2.8*DEWP$-5.0*STP$993.5*SLP$1021.9*VISIB$4.3*WDSP$13.0*PRCP$0.01*SNDP$1.7*FRSHTT$111000*CLDC$74.8*WNDDIR$224
STN$38170*DATE$2021-02-02*TIME$19:59:17*TEMP$3.4*DEWP$1.3*STP$1007.5*SLP$1017.3*VISIB$9.6*WDSP$23.1*PRCP$0.21*SNDP$0.0*FRSHTT$010000*CLDC$53.7*WNDDIR$134
STN$484750*DATE$2021-02-02*TIME$19:59:17*TEMP$16.8*DEWP$11.4*STP$1013.5*SLP$1012.0*VISIB$15.1*WDSP$3.7*PRCP$0.02*SNDP$0.0*FRSHTT$010000*CLDC$95.5*WNDDIR$43
STN$317700*DATE$2021-02-02*TIME$19:59:17*TEMP$-6.7*DEWP$-11.8*STP$1023.6*SLP$1013.2*VISIB$18.6*WDSP$16.7*PRCP$0.05*SNDP$15.3*FRSHTT$111000*CLDC$54.2*WNDDIR$185
STN$344990*DATE$2021-02-02*TIME$19:59:17*TEMP$-7.2*DEWP$-9.3*STP$1011.4*SLP$995.0*VISIB$17.6*WDSP$18.9*PRCP$0.08*SNDP$0.0*FRSHTT$110000*CLDC$66.2*WNDDIR$336
STN$837800*DATE$2021-02-02*TIME$19:59:17*TEMP$4.4*DEWP$11.3*STP$936.3*SLP$1000.6*VISIB$15.6*WDSP$9.2*PRCP$0.07*SNDP$0.0*FRSHTT$010000*CLDC$51.1*WNDDIR$224
STN$282780*DATE$2021-02-02*TIME$19:59:17*TEMP$-19.2*DEWP$-22.4*STP$1017.6*SLP$1009.8*VISIB$24.5*WDSP$11.4*PRCP$0.00*SNDP$0.0*FRSHTT$100000*CLDC$92.6*WNDDIR$327
STN$216470*DATE$2021-02-02*TIME$19:59:17*TEMP$-17.8*DEWP$-21.6*STP$1036.7*SLP$1026.1*VISIB$23.5*WDSP$33.6*PRCP$0.01*SNDP$2.9*FRSHTT$111000*CLDC$53.6*WNDDIR$120
STN$476490*DATE$2021-02-02*TIME$19:59:17*TEMP$-0.5*DEWP$-5.7*STP$1000.0*SLP$1020.2*VISIB$20.6*WDSP$10.7*PRCP$0.03*SNDP$0.0*FRSHTT$110000*CLDC$53.4*WNDDIR$42
STN$77650*DATE$2021-02-02*TIME$19:59:17*TEMP$6.2*DEWP$-3.4*STP$1015.6*SLP$1017.7*VISIB$31.7*WDSP$10.2*PRCP$0.00*SNDP$0.0*FRSHTT$000000*CLDC$54.0*WNDDIR$234
STN$865850*DATE$2021-02-02*TIME$19:59:17*TEMP$3.2*DEWP$-4.2*STP$1042.7*SLP$1018.2*VISIB$20.7*WDSP$3.1*PRCP$0.07*SNDP$0.0*FRSHTT$010000*CLDC$85.6*WNDDIR$51
STN$476480*DATE$2021-02-02*TIME$19:59:17*TEMP$0.6*DEWP$-7.2*STP$1009.3*SLP$1013.7*VISIB$32.8*WDSP$43.7*PRCP$0.20*SNDP$0.0*FRSHTT$010000*CLDC$76.4*WNDDIR$198
STN$415300*DATE$2021-02-02*TIME$19:59:17*TEMP$8.5*DEWP$1.1*STP$976.6*SLP$1019.1*VISIB$6.2*WDSP$1.0*PRCP$0.00*SNDP$0.0*FRSHTT$000000*CLDC$16.4*WNDDIR$305
STN$727280*DATE$2021-02-02*TIME$19:59:17*TEMP$-6.4*DEWP$-7.6*STP$972.8*SLP$985.2*VISIB$16.6*WDSP$16.1*PRCP$2.07*SNDP$53.3*FRSHTT$111000*CLDC$51.3*WNDDIR$192
STN$476500*DATE$2021-02-02*TIME$19:59:17*TEMP$0.1*DEWP$-5.2*STP$1009.7*SLP$1018.0*VISIB$44.6*WDSP$10.3*PRCP$0.27*SNDP$0.0*FRSHTT$110000*CLDC$69.8*WNDDIR$41
STN$61700*DATE$2021-02-02*TIME$19:59:17*TEMP$-0.8*DEWP$-2.6*STP$1009.7*SLP$1014.1*VISIB$15.7*WDSP$31.4*PRCP$0.04*SNDP$0.4*FRSHTT$111000*CLDC$73.9*WNDDIR$356
STN$326110*DATE$2021-02-02*TIME$19:59:17*TEMP$-10.1*DEWP$-12.3*STP$1010.1*SLP$1003.8*VISIB$28.0*WDSP$31.3*PRCP$0.63*SNDP$0.0*FRSHTT$110000*CLDC$92.0*WNDDIR$223
STN$108380*DATE$2021-02-02*TIME$19:59:17*TEMP$-2.0*DEWP$-4.5*STP$1000.3*SLP$1020.2*VISIB$6.3*WDSP$3.4*PRCP$0.19*SNDP$23.3*FRSHTT$111000*CLDC$50.2*WNDDIR$327
STN$744864*DATE$2021-02-02*TIME$19:59:17*TEMP$-0.7*DEWP$-5.6*STP$1015.9*SLP$1018.1*VISIB$13.9*WDSP$28.3*PRCP$0.09*SNDP$0.0*FRSHTT$110000*CLDC$57.3*WNDDIR$154
STN$476360*DATE$2021-02-02*TIME$19:59:17*TEMP$-0.7*DEWP$-7.0*STP$1011.2*SLP$1017.5*VISIB$11.5*WDSP$5.0*PRCP$0.13*SNDP$0.2*FRSHTT$111000*CLDC$93.6*WNDDIR$164
STN$92700*DATE$2021-02-02*TIME$19:59:17*TEMP$-1.0*DEWP$-3.6*STP$1015.3*SLP$1014.8*VISIB$4.9*WDSP$20.0*PRCP$0.08*SNDP$0.3*FRSHTT$111000*CLDC$53.1*WNDDIR$292
STN$744865*DATE$2021-02-02*TIME$19:59:17*TEMP$-3.5*DEWP$-8.4*STP$1015.2*SLP$1015.0*VISIB$13.6*WDSP$2.2*PRCP$0.04*SNDP$0.0*FRSHTT$110000*CLDC$70.8*WNDDIR$202
STN$727440*DATE$2021-02-02*TIME$19:59:17*TEMP$-6.0*DEWP$-8.5*STP$1023.9*SLP$1017.7*VISIB$12.0*WDSP$31.3*PRCP$0.14*SNDP$48.9*FRSHTT$111000*CLDC$51.0*WNDDIR$111
STN$155620*DATE$2021-02-02*TIME$19:59:17*TEMP$-0.4*DEWP$-3.7*STP$1009.4*SLP$1020.2*VISIB$19.6*WDSP$32.1*PRCP$0.13*SNDP$0.2*FRSHTT$111000*CLDC$55.1*WNDDIR$170
STN$108460*DATE$2021-02-02*TIME$19:59:17*TEMP$-8.6*DEWP$-10.8*STP$1084.0*SLP$1026.7*VISIB$5.3*WDSP$10.6*PRCP$0.02*SNDP$0.0*FRSHTT$110000*CLDC$51.3*WNDDIR$106
STN$92910*DATE$2021-02-02*TIME$19:59:17*TEMP$-0.5*DEWP$-2.6*STP$1023.6*SLP$1013.5*VISIB$5.2*WDSP$15.3*PRCP$0.09*SNDP$0.3*FRSHTT$111000*CLDC$54.4*WNDDIR$270
STN$606110*DATE$2021-02-02*TIME$19:59:17*TEMP$3.3*DEWP$-1.9*STP$1010.1*SLP$1017.5*VISIB$8.0*WDSP$12.9*PRCP$0.00*SNDP$0.0*FRSHTT$000000*CLDC$60.6*WNDDIR$79
STN$725196*DATE$2021-02-02*TIME$19:59:17*TEMP$-5.0*DEWP$-8.5*STP$1008.6*SLP$1019.9*VISIB$17.5*WDSP$4.2*PRCP$0.40*SNDP$16.8*FRSHTT$111000*CLDC$83.6*WNDDIR$113
STN$725197*DATE$2021-02-02*TIME$19:59:17*TEMP$-2.3*DEWP$-7.2*STP$1018.2*SLP$1018.9*VISIB$15.7*WDSP$14.4*PRCP$0.18*SNDP$5.5*FRSHTT$111000*CLDC$81.4*WNDDIR$192
STN$725194*DATE$2021-02-02*TIME$19:59:17*TEMP$0.3*DEWP$-2.8*STP$1024.9*SLP$1022.5*VISIB$15.5*WDSP$30.4*PRCP$0.00*SNDP$0.0*FRSHTT$000000*CLDC$25.4*WNDDIR$288
STN$478560*DATE$2021-02-02*TIME$19:59:17*TEMP$0.1*DEWP$-5.2*STP$1004.0*SLP$998.5*VISIB$6.2*WDSP$14.0*PRCP$0.00*SNDP$0.0*FRSHTT$000000*CLDC$26.6*WNDDIR$166
STN$509150*DATE$2021-02-02*TIME$19:59:17*TEMP$-13.3*DEWP$-19.1*STP$940.7*SLP$1032.4*VISIB$22.0*WDSP$2.7*PRCP$0.01*SNDP$0.0*FRSHTT$110000*CLDC$50.7*WNDDIR$169
STN$110280*DATE$2021-02-02*TIME$19:59:17*TEMP$0.1*DEWP$-4.5*STP$985.2*SLP$1023.6*VISIB$45.6*WDSP$2.9*PRCP$0.00*SNDP$0.0*FRSHTT$000000*CLDC$83.0*WNDDIR$213
STN$603900*DATE$2021-02-02*TIME$19:59:17*TEMP$4.2*DEWP$-0.8*STP$1018.0*SLP$1021.2*VISIB$11.8*WDSP$24.7*PRCP$0.01*SNDP$0.0*FRSHTT$010000*CLDC$81.0*WNDDIR$263
STN$725235*DATE$2021-02-02*TIME$19:59:17*TEMP$-4.8*DEWP$-7.9*STP$1000.5*SLP$996.2*VISIB$10.1*WDSP$15.2*PRCP$0.02*SNDP$0.0*FRSHTT$110000*CLDC$91.3*WNDDIR$51
STN$725245*DATE$2021-02-02*TIME$19:59:17*TEMP$-1.0*DEWP$-4.6*STP$1012.6*SLP$1012.0*VISIB$15.0*WDSP$11.6*PRCP$0.05*SNDP$0.0*FRSHTT$110000*CLDC$50.3*WNDDIR$39
STN$725247*DATE$2021-02-02*TIME$19:59:17*TEMP$-1.1*DEWP$-5.0*STP$1013.8*SLP$990.7*VISIB$9.0*WDSP$11.4*PRCP$0.00*SNDP$0.0*FRSHTT$100000*CLDC$38.4*WNDDIR$212
STN$432840*DATE$2021-02-02*TIME$19:59:17*TEMP$21.0*DEWP$13.7*STP$1009.9*SLP$1010.9*VISIB$6.5*WDSP$0.8*PRCP$0.01*SNDP$0.0*FRSHTT$010000*CLDC$84.3*WNDDIR$3
STN$744860*DATE$2021-02-02*TIME$19:59:17*TEMP$-1.1*DEWP$-6.4*STP$1016.6*SLP$1018.6*VISIB$18.4*WDSP$17.8*PRCP$0.29*SNDP$0.8*FRSHTT$111000*CLDC$51.6*WNDDIR$115
STN$727390*DATE$2021-02-02*TIME$19:59:17*TEMP$-14.5*DEWP$-18.7*STP$965.3*SLP$1004.5*VISIB$15.2*WDSP$14.7*PRCP$0.02*SNDP$71.7*FRSHTT$111000*CLDC$78.4*WNDDIR$267
STN$216110*DATE$2021-02-02*TIME$19:59:17*TEMP$-27.2*DEWP$-30.1*STP$999.8*SLP$1015.7*VISIB$25.2*WDSP$17.4*PRCP$0.03*SNDP$1.7*FRSHTT$111000*CLDC$53.0*WNDDIR$46
STN$987520*DATE$2021-02-02*TIME$19:59:17*TEMP$10.5*DEWP$7.1*STP$1001.1*SLP$1013.5*VISIB$11.1*WDSP$30.8*PRCP$0.42*SNDP$0.0*FRSHTT$010000*CLDC$84.4*WNDDIR$334
STN$846280*DATE$2021-02-02*TIME$19:59:17*TEMP$9.4*DEWP$5.6*STP$1006.0*SLP$1010.9*VISIB$16.6*WDSP$8.0*PRCP$0.00*SNDP$0.0*FRSHTT$000000*CLDC$68.3*WNDDIR$287
STN$61600*DATE$2021-02-02*TIME$19:59:17*TEMP$-1.1*DEWP$-3.2*STP$1002.1*SLP$1008.5*VISIB$11.2*WDSP$23.6*PRCP$0.02*SNDP$0.1*FRSHTT$111000*CLDC$54.6*WNDDIR$191
STN$77540*DATE$2021-02-02*TIME$19:59:17*TEMP$2.0*DEWP$-5.0*STP$1012.9*SLP$1019.5*VISIB$25.1*WDSP$13.6*PRCP$0.02*SNDP$0.0*FRSHTT$010000*CLDC$68.3*WNDDIR$28
STN$476400*DATE$2021-02-02*TIME$19:59:17*TEMP$-6.1*DEWP$-10.1*STP$913.1*SLP$892.8*VISIB$13.0*WDSP$10.8*PRCP$0.00*SNDP$0.0*FRSHTT$100000*CLDC$93.5*WNDDIR$98
STN$353020*DATE$2021-02-02*TIME$19:59:17*TEMP$-9.8*DEWP$-11.2*STP$980.5*SLP$997.5*VISIB$10.4*WDSP$10.2*PRCP$0.00*SNDP$0.0*FRSHTT$100000*CLDC$62.3*WNDDIR$209
STN$726958*DATE$2021-02-02*TIME$19:59:17*TEMP$3.6*DEWP$-0.1*STP$1016.0*SLP$1012.9*VISIB$3.3*WDSP$10.0*PRCP$0.12*SNDP$0.0*FRSHTT$010000*CLDC$98.1*WNDDIR$311
STN$726959*DATE$2021-02-02*TIME$19:59:17*TEMP$1.7*DEWP$-0.3*STP$1034.0*SLP$1017.4*VISIB$6.6*WDSP$11.8*PRCP$0.27*SNDP$0.0*FRSHTT$010000*CLDC$83.2*WNDDIR$330
STN$431170*DATE$2021-02-02*TIME$19:59:17*TEMP$17.1*DEWP$4.0*STP$1005.4*SLP$1012.6*VISIB$1.2*WDSP$3.8*PRCP$0.00*SNDP$0.0*FRSHTT$000000*CLDC$2.1*WNDDIR$116
STN$171160*DATE$2021-02-02*TIME$19:59:17*TEMP$1.4*DEWP$-1.5*STP$1016.5*SLP$1019.8*VISIB$7.7*WDSP$8.2*PRCP$0.17*SNDP$1.7*FRSHTT$011000*CLDC$62.8*WNDDIR$113
STN$294670*DATE$2021-02-02*TIME$19:59:17*TEMP$-13.9*DEWP$-17.8*STP$1043.3*SLP$1024.5*VISIB$11.1*WDSP$16.8*PRCP$0.05*SNDP$1.8*FRSHTT$111000*CLDC$51.5*WNDDIR$89
STN$477700*DATE$2021-02-02*TIME$19:59:17*TEMP$0.6*DEWP$-5.7*STP$1011.5*SLP$1018.2*VISIB$11.4*WDSP$15.2*PRCP$0.22*SNDP$0.0*FRSHTT$010000*CLDC$67.9*WNDDIR$121
STN$108950*DATE$2021-02-02*TIME$19:59:17*TEMP$-2.5*DEWP$-4.3*STP$964.4*SLP$1021.8*VISIB$9.8*WDSP$0.8*PRCP$0.02*SNDP$3.0*FRSHTT$111000*CLDC$73.4*WNDDIR$47
STN$726950*DATE$2021-02-02*TIME$19:59:17*TEMP$2.7*DEWP$0.0*STP$961.7*SLP$1005.0*VISIB$17.1*WDSP$21.9*PRCP$0.66*SNDP$0.0*FRSHTT$010000*CLDC$72.1*WNDDIR$33
STN$477710*DATE$2021-02-02*TIME$19:59:17*TEMP$0.1*DEWP$-6.4*STP$1003.1*SLP$1004.6*VISIB$11.7*WDSP$7.1*PRCP$0.00*SNDP$0.0*FRSHTT$000000*CLDC$11.9*WNDDIR$225
STN$619880*DATE$2021-02-02*TIME$19:59:17*TEMP$22.1*DEWP$18.7*STP$1008.0*SLP$1010.9*VISIB$17.1*WDSP$30.5*PRCP$0.27*SNDP$0.0*FRSHTT$010000*CLDC$53.8*WNDDIR$208
STN$400220*DATE$2021-02-02*TIME$19:59:17*TEMP$3.3*DEWP$-4.0*STP$1020.0*SLP$1015.8*VISIB$13.2*WDSP$5.8*PRCP$0.03*SNDP$0.0*FRSHTT$010000*CLDC$52.6*WNDDIR$315
STN$110350*DATE$2021-02-02*TIME$19:59:17*TEMP$-0.1*DEWP$-3.4*STP$1009.3*SLP$1021.2*VISIB$19.6*WDSP$7.7*PRCP$0.07*SNDP$3.0*FRSHTT$111000*CLDC$50.3*WNDDIR$75
STN$478360*DATE$2021-02-02*TIME$19:59:17*TEMP$4.8*DEWP$-0.6*STP$1016.0*SLP$1016.7*VISIB$16.2*WDSP$8.7*PRCP$0.67*SNDP$0.0*FRSHTT$010000*CLDC$94.5*WNDDIR$274
STN$170500*DATE$2021-02-02*TIME$19:59:17*TEMP$-0.3*DEWP$-3.1*STP$1018.9*SLP$1021.6*VISIB$9.5*WDSP$3.4*PRCP$0.12*SNDP$1.2*FRSHTT$111000*CLDC$58.5*WNDDIR$50
STN$914080*DATE$2021-02-02*TIME$19:59:17*TEMP$13.6*DEWP$9.9*STP$1004.1*SLP$1009.2*VISIB$29.4*WDSP$11.6*PRCP$0.48*SNDP$0.0*FRSHTT$010000*CLDC$81.1*WNDDIR$8
STN$655920*DATE$2021-02-02*TIME$19:59:17*TEMP$20.6*DEWP$16.6*STP$987.3*SLP$1009.5*VISIB$75.6*WDSP$9.0*PRCP$0.00*SNDP$0.0*FRSHTT$000000*CLDC$87.5*WNDDIR$247
STN$75400*DATE$2021-02-02*TIME$19:59:17*TEMP$0.0*DEWP$-1.6*STP$1003.5*SLP$1018.3*VISIB$8.2*WDSP$3.4*PRCP$0.00*SNDP$0.0*FRSHTT$100000*CLDC$32.9*WNDDIR$85
STN$725300*DATE$2021-02-02*TIME$19:59:17*TEMP$-6.0*DEWP$-9.3*STP$996.1*SLP$1020.9*VISIB$4.7*WDSP$31.7*PRCP$0.07*SNDP$3.7*FRSHTT$111000*CLDC$50.9*WNDDIR$94
STN$725327*DATE$2021-02-02*TIME$19:59:17*TEMP$-2.8*DEWP$-5.1*STP$1012.6*SLP$1023.1*VISIB$7.2*WDSP$4.4*PRCP$0.04*SNDP$0.0*FRSHTT$110000*CLDC$76.5*WNDDIR$87
STN$725326*DATE$2021-02-02*TIME$19:59:17*TEMP$-6.1*DEWP$-9.6*STP$1002.0*SLP$1032.0*VISIB$19.7*WDSP$27.7*PRCP$0.00*SNDP$0.0*FRSHTT$100000*CLDC$38.3*WNDDIR$333
STN$723409*DATE$2021-02-02*TIME$19:59:17*TEMP$1.5*DEWP$-2.2*STP$1021.1*SLP$1018.4*VISIB$14.1*WDSP$19.2*PRCP$0.20*SNDP$0.0*FRSHTT$010000*CLDC$55.7*WNDDIR$213
STN$983300*DATE$2021-02-02*TIME$19:59:17*TEMP$12.0*DEWP$8.9*STP$985.6*SLP$1011.2*VISIB$20.9*WDSP$6.8*PRCP$0.00*SNDP$0.0*FRSHTT$000000*CLDC$37.9*WNDDIR$232
STN$11620*DATE$2021-02-02*TIME$19:59:17*TEMP$-2.6*DEWP$-5.7*STP$1018.7*SLP$1010.0*VISIB$12.9*WDSP$8.3*PRCP$0.00*SNDP$0.0*FRSHTT$100000*CLDC$72.3*WNDDIR$134
STN$539860*DATE$2021-02-02*TIME$19:59:17*TEMP$-3.5*DEWP$-9.3*STP$1007.1*SLP$1028.6*VISIB$9.0*WDSP$6.6*PRCP$0.00*SNDP$0.0*FRSHTT$100000*CLDC$38.9*WNDDIR$189
STN$570710*DATE$2021-02-02*TIME$19:59:17*TEMP$-1.8*DEWP$-15.5*STP$1028.5*SLP$1028.1*VISIB$19.3*WDSP$13.7*PRCP$0.00*SNDP$0.0*FRSHTT$100000*CLDC$65.9*WNDDIR$103
STN$723416*DATE$2021-02-02*TIME$19:59:17*TEMP$0.9*DEWP$-4.9*STP$1014.3*SLP$1022.3*VISIB$22.4*WDSP$7.7*PRCP$0.00*SNDP$0.0*FRSHTT$000000*CLDC$52.1*WNDDIR$95
STN$723417*DATE$2021-02-02*TIME$19:59:17*TEMP$1.2*DEWP$-3.7*STP$1013.4*SLP$1007.0*VISIB$9.9*WDSP$9.7*PRCP$0.27*SNDP$0.2*FRSHTT$011000*CLDC$53.4*WNDDIR$107
STN$723418*DATE$2021-02-02*TIME$19:59:17*TEMP$1.0*DEWP$-4.7*STP$1011.2*SLP$1011.6*VISIB$14.4*WDSP$9.5*PRCP$0.14*SNDP$0.0*FRSHTT$010000*CLDC$59.5*WNDDIR$188
STN$356990*DATE$2021-02-02*TIME$19:59:17*TEMP$-15.8*DEWP$-20.0*STP$948.1*SLP$1027.9*VISIB$23.6*WDSP$21.2*PRCP$0.00*SNDP$6.6*FRSHTT$101000*CLDC$58.4*WNDDIR$145
STN$42210*DATE$2021-02-02*TIME$19:59:17*TEMP$-12.2*DEWP$-16.3*STP$1005.8*SLP$1010.0*VISIB$22.5*WDSP$8.0*PRCP$0.00*SNDP$0.0*FRSHTT$100000*CLDC$17.8*WNDDIR$298
STN$71190*DATE$2021-02-02*TIME$19:59:17*TEMP$2.7*DEWP$0.1*STP$1011.7*SLP$1017.8*VISIB$13.2*WDSP$26.5*PRCP$0.15*SNDP$0.0*FRSHTT$010000*CLDC$51.7*WNDDIR$164
STN$71180*DATE$2021-02-02*TIME$19:59:17*TEMP$3.3*DEWP$-1.4*STP$984.4*SLP$996.4*VISIB$8.4*WDSP$15.5*PRCP$0.38*SNDP$0.0*FRSHTT$010000*CLDC$60.3*WNDDIR$178
STN$729520*DATE$2021-02-02*TIME$19:59:17*TEMP$-4.7*DEWP$-10.6*STP$950.6*SLP$1039.4*VISIB$33.3*WDSP$1.2*PRCP$0.00*SNDP$53.3*FRSHTT$101000*CLDC$54.6*WNDDIR$350
STN$607100*DATE$2021-02-02*TIME$19:59:17*TEMP$5.1*DEWP$0.1*STP$1013.4*SLP$1019.7*VISIB$12.3*WDSP$23.7*PRCP$0.50*SNDP$0.3*FRSHTT$011000*CLDC$50.0*WNDDIR$304
STN$296020*DATE$2021-02-02*TIME$19:59:17*TEMP$-16.9*DEWP$-19.6*STP$1015.3*SLP$1025.9*VISIB$17.2*WDSP$5.8*PRCP$0.01*SNDP$19.7*FRSHTT$111000*CLDC$51.7*WNDDIR$65
STN$729530*DATE$2021-02-02*TIME$19:59:17*TEMP$-8.3*DEWP$-9.8*STP$941.3*SLP$1038.9*VISIB$69.2*WDSP$2.7*PRCP$1.61*SNDP$78.3*FRSHTT$111000*CLDC$91.1*WNDDIR$99
STN$106370*DATE$2021-02-02*TIME$19:59:17*TEMP$-0.6*DEWP$-2.8*STP$1014.3*SLP$1018.4*VISIB$11.2*WDSP$11.9*PRCP$0.10*SNDP$0.0*FRSHTT$110000*CLDC$58.5*WNDDIR$10
STN$421650*DATE$2021-02-02*TIME$19:59:17*TEMP$9.7*DEWP$-3.3*STP$957.2*SLP$1013.3*VISIB$3.9*WDSP$6.7*PRCP$0.00*SNDP$0.0*FRSHTT$000000*CLDC$44.9*WNDDIR$19
STN$71170*DATE$2021-02-02*TIME$19:59:17*TEMP$2.2*DEWP$0.0*STP$1014.1*SLP$1021.8*VISIB$7.1*WDSP$24.4*PRCP$0.00*SNDP$0.0*FRSHTT$000000*CLDC$33.5*WNDDIR$213
STN$208910*DATE$2021-02-02*TIME$19:59:17*TEMP$-29.3*DEWP$-33.0*STP$1012.6*SLP$1019.7*VISIB$7.7*WDSP$12.3*PRCP$0.03*SNDP$6.7*FRSHTT$111000*CLDC$53.0*WNDDIR$279
STN$81810*DATE$2021-02-02*TIME$19:59:17*TEMP$1.3*DEWP$-3.1*STP$1016.7*SLP$1019.0*VISIB$3.2*WDSP$10.8*PRCP$0.06*SNDP$0.0*FRSHTT$010000*CLDC$88.1*WNDDIR$191
STN$722976*DATE$2021-02-02*TIME$19:59:17*TEMP$3.9*DEWP$-5.2*STP$1003.4*SLP$1008.1*VISIB$23.1*WDSP$9.8*PRCP$0.00*SNDP$0.0*FRSHTT$000000*CLDC$83.1*WNDDIR$158
STN$679910*DATE$2021-02-02*TIME$19:59:17*TEMP$14.4*DEWP$6.3*STP$961.6*SLP$950.8*VISIB$40.0*WDSP$6.5*PRCP$0.11*SNDP$0.0*FRSHTT$010000*CLDC$52.4*WNDDIR$306
STN$722977*DATE$2021-02-02*TIME$19:59:17*TEMP$6.7*DEWP$-0.1*STP$1010.8*SLP$1009.7*VISIB$23.6*WDSP$0.6*PRCP$0.00*SNDP$0.0*FRSHTT$000000*CLDC$92.1*WNDDIR$306
STN$722978*DATE$2021-02-02*TIME$19:59:17*TEMP$3.2*DEWP$-8.1*STP$999.0*SLP$1014.0*VISIB$3.1*WDSP$14.1*PRCP$0.00*SNDP$0.0*FRSHTT$000000*CLDC$52.0*WNDDIR$112
STN$133780*DATE$2021-02-02*TIME$19:59:17*TEMP$-4.5*DEWP$-7.5*STP$989.2*SLP$984.9*VISIB$23.7*WDSP$12.0*PRCP$0.05*SNDP$48.5*FRSHTT$111000*CLDC$50.3*WNDDIR$76
STN$957030*DATE$2021-02-02*TIME$19:59:17*TEMP$19.5*DEWP$-1.5*STP$999.4*SLP$1011.6*VISIB$51.8*WDSP$5.6*PRCP$0.00*SNDP$0.0*FRSHTT$000000*CLDC$93.2*WNDDIR$137
STN$133770*DATE$2021-02-02*TIME$19:59:17*TEMP$-1.3*DEWP$-3.1*STP$1074.3*SLP$1016.5*VISIB$17.4*WDSP$2.7*PRCP$0.91*SNDP$0.0*FRSHTT$110000*CLDC$96.5*WNDDIR$348
STN$411280*DATE$2021-02-02*TIME$19:59:17*TEMP$13.1*DEWP$-1.2*STP$907.5*SLP$912.8*VISIB$2.6*WDSP$4.7*PRCP$0.00*SNDP$0.0*FRSHTT$000000*CLDC$14.9*WNDDIR$242
STN$983270*DATE$2021-02-02*TIME$19:59:17*TEMP$10.8*DEWP$3.5*STP$996.9*SLP$1006.6*VISIB$13.5*WDSP$17.7*PRCP$0.00*SNDP$0.0*FRSHTT$000000*CLDC$7.2*WNDDIR$234
STN$353210*DATE$2021-02-02*TIME$19:59:17*TEMP$-15.2*DEWP$-17.9*STP$1006.3*SLP$1014.3*VISIB$16.2*WDSP$12.2*PRCP$0.38*SNDP$16.7*FRSHTT$111000*CLDC$53.9*WNDDIR$131
STN$744659*DATE$2021-02-02*TIME$19:59:17*TEMP$-5.9*DEWP$-11.8*STP$1024.3*SLP$1011.4*VISIB$15.0*WDSP$15.2*PRCP$0.00*SNDP$0.0*FRSHTT$100000*CLDC$68.0*WNDDIR$169
STN$61930*DATE$2021-02-02*TIME$19:59:17*TEMP$-0.3*DEWP$-2.0*STP$1015.6*SLP$1014.2*VISIB$15.2*WDSP$12.3*PRCP$0.14*SNDP$2.5*FRSHTT$111000*CLDC$50.4*WNDDIR$287
STN$744658*DATE$2021-02-02*TIME$19:59:17*TEMP$-1.8*DEWP$-5.4*STP$990.0*SLP$991.6*VISIB$16.1*WDSP$15.3*PRCP$0.00*SNDP$0.0*FRSHTT$100000*CLDC$59.2*WNDDIR$33
STN$744657*DATE$2021-02-02*TIME$19:59:17*TEMP$-5.1*DEWP$-12.6*STP$1012.2*SLP$997.6*VISIB$12.3*WDSP$21.0*PRCP$0.00*SNDP$0.0*FRSHTT$100000*CLDC$6.2*WNDDIR$261
STN$744656*DATE$2021-02-02*TIME$19:59:17*TEMP$-2.7*DEWP$-8.1*STP$990.7*SLP$984.3*VISIB$12.4*WDSP$12.5*PRCP$0.00*SNDP$0.0*FRSHTT$100000*CLDC$18.8*WNDDIR$248
STN$476600*DATE$2021-02-02*TIME$19:59:17*TEMP$-1.0*DEWP$-9.9*STP$1001.8*SLP$1011.7*VISIB$5.7*WDSP$6.9*PRCP$0.00*SNDP$0.0*FRSHTT$100000*CLDC$14.7*WNDDIR$208
STN$744663*DATE$2021-02-02*TIME$19:59:17*TEMP$-2.4*DEWP$-5.5*STP$979.9*SLP$977.0*VISIB$9.4*WDSP$9.8*PRCP$0.00*SNDP$0.0*FRSHTT$100000*CLDC$83.0*WNDDIR$123
STN$744662*DATE$2021-02-02*TIME$19:59:17*TEMP$-2.0*DEWP$-5.3*STP$1011.0*SLP$1011.1*VISIB$11.0*WDSP$16.8*PRCP$0.00*SNDP$0.0*FRSHTT$100000*CLDC$42.8*WNDDIR$292
STN$744661*DATE$2021-02-02*TIME$19:59:17*TEMP$-1.2*DEWP$-4.6*STP$998.5*SLP$997.3*VISIB$8.0*WDSP$25.4*PRCP$0.00*SNDP$0.0*FRSHTT$100000*CLDC$82.3*WNDDIR$277
STN$134570*DATE$2021-02-02*TIME$19:59:17*TEMP$0.8*DEWP$-4.9*STP$1013.5*SLP$1012.4*VISIB$15.5*WDSP$9.5*PRCP$0.07*SNDP$0.0*FRSHTT$010000*CLDC$57.1*WNDDIR$337
STN$724767*DATE$2021-02-02*TIME$19:59:17*TEMP$-7.4*DEWP$-14.1*STP$1017.7*SLP$1022.1*VISIB$7.9*WDSP$3.9*PRCP$0.02*SNDP$0.0*FRSHTT$110000*CLDC$54.5*WNDDIR$244
STN$340090*DATE$2021-02-02*TIME$19:59:17*TEMP$-12.8*DEWP$-15.5*STP$1007.0*SLP$1021.3*VISIB$5.3*WDSP$22.1*PRCP$0.38*SNDP$8.9*FRSHTT$111000*CLDC$66.7*WNDDIR$220
STN$724760*DATE$2021-02-02*TIME$19:59:17*TEMP$-5.3*DEWP$-11.6*STP$874.2*SLP$1022.1*VISIB$49.0*WDSP$11.2*PRCP$0.02*SNDP$2.7*FRSHTT$111000*CLDC$51.0*WNDDIR$249
STN$539150*DATE$2021-02-02*TIME$19:59:17*TEMP$-5.7*DEWP$-14.8*STP$905.9*SLP$1028.4*VISIB$22.9*WDSP$7.0*PRCP$0.02*SNDP$0.0*FRSHTT$110000*CLDC$50.3*WNDDIR$339
STN$877840*DATE$2021-02-02*TIME$19:59:17*TEMP$6.4*DEWP$-7.6*STP$1008.6*SLP$1010.9*VISIB$30.8*WDSP$2.2*PRCP$0.10*SNDP$0.0*FRSHTT$010000*CLDC$62.2*WNDDIR$188
STN$600330*DATE$2021-02-02*TIME$19:59:17*TEMP$13.7*DEWP$7.5*STP$1005.1*SLP$1003.9*VISIB$9.7*WDSP$18.3*PRCP$0.00*SNDP$0.0*FRSHTT$000000*CLDC$66.4*WNDDIR$217
STN$128510*DATE$2021-02-02*TIME$19:59:17*TEMP$-2.9*DEWP$-7.3*STP$917.3*SLP$912.9*VISIB$36.6*WDSP$26.0*PRCP$0.03*SNDP$11.4*FRSHTT$111000*CLDC$75.7*WNDDIR$295
STN$570250*DATE$2021-02-02*TIME$19:59:17*TEMP$-7.7*DEWP$-13.7*STP$1013.1*SLP$1030.4*VISIB$12.3*WDSP$6.5*PRCP$0.00*SNDP$0.0*FRSHTT$100000*CLDC$61.4*WNDDIR$116
STN$724750*DATE$2021-02-02*TIME$19:59:17*TEMP$-6.7*DEWP$-12.1*STP$942.4*SLP$1022.0*VISIB$24.8*WDSP$9.5*PRCP$0.03*SNDP$1.8*FRSHTT$111000*CLDC$78.0*WNDDIR$49
STN$509780*DATE$2021-02-02*TIME$19:59:17*TEMP$-13.9*DEWP$-19.9*STP$1016.1*SLP$1023.5*VISIB$26.7*WDSP$14.2*PRCP$0.02*SNDP$0.0*FRSHTT$110000*CLDC$54.4*WNDDIR$114
STN$655480*DATE$2021-02-02*TIME$19:59:17*TEMP$19.4*DEWP$7.0*STP$977.0*SLP$1009.1*VISIB$4.1*WDSP$6.6*PRCP$0.00*SNDP$0.0*FRSHTT$000000*CLDC$72.5*WNDDIR$69
STN$135620*DATE$2021-02-02*TIME$19:59:17*TEMP$3.4*DEWP$-2.3*STP$1018.7*SLP$1019.1*VISIB$27.5*WDSP$4.8*PRCP$0.33*SNDP$0.0*FRSHTT$010000*CLDC$51.0*WNDDIR$294
STN$29450*DATE$2021-02-02*TIME$19:59:17*TEMP$-5.0*DEWP$-6.6*STP$1018.6*SLP$1012.6*VISIB$8.9*WDSP$6.7*PRCP$0.17*SNDP$25.5*FRSHTT$111000*CLDC$52.6*WNDDIR$81
STN$232260*DATE$2021-02-02*TIME$19:59:17*TEMP$-22.7*DEWP$-25.4*STP$1006.7*SLP$1014.8*VISIB$15.8*WDSP$16.4*PRCP$0.03*SNDP$17.7*FRSHTT$111000*CLDC$55.0*WNDDIR$206
STN$638200*DATE$2021-02-02*TIME$19:59:17*TEMP$4.8*DEWP$0.0*STP$1010.9*SLP$1010.5*VISIB$24.7*WDSP$8.9*PRCP$0.02*SNDP$0.0*FRSHTT$010000*CLDC$51.9*WNDDIR$14
STN$29490*DATE$2021-02-02*TIME$19:59:17*TEMP$-14.3*DEWP$-16.5*STP$1011.7*SLP$1011.8*VISIB$9.9*WDSP$9.5*PRCP$0.12*SNDP$0.0*FRSHTT$110000*CLDC$81.3*WNDDIR$20
STN$584450*DATE$2021-02-02*TIME$19:59:17*TEMP$-2.9*DEWP$-9.3*STP$875.3*SLP$948.6*VISIB$8.1*WDSP$23.5*PRCP$0.14*SNDP$0.0*FRSHTT$110000*CLDC$52.8*WNDDIR$152
STN$478950*DATE$2021-02-02*TIME$19:59:17*TEMP$0.3*DEWP$-6.8*STP$1019.3*SLP$1019.8*VISIB$38.0*WDSP$5.2*PRCP$0.02*SNDP$0.0*FRSHTT$010000*CLDC$52.9*WNDDIR$56
STN$725825*DATE$2021-02-02*TIME$19:59:17*TEMP$-7.7*DEWP$-11.5*STP$915.0*SLP$1022.9*VISIB$21.1*WDSP$8.8*PRCP$0.04*SNDP$1.1*FRSHTT$111000*CLDC$53.5*WNDDIR$226
STN$539290*DATE$2021-02-02*TIME$19:59:17*TEMP$-5.0*DEWP$-14.8*STP$884.0*SLP$858.6*VISIB$6.2*WDSP$7.2*PRCP$0.00*SNDP$0.0*FRSHTT$100000*CLDC$46.4*WNDDIR$53
STN$28650*DATE$2021-02-02*TIME$19:59:17*TEMP$-15.7*DEWP$-17.8*STP$1011.8*SLP$1008.8*VISIB$27.0*WDSP$11.9*PRCP$0.17*SNDP$0.0*FRSHTT$110000*CLDC$99.6*WNDDIR$259
STN$28660*DATE$2021-02-02*TIME$19:59:17*TEMP$-26.7*DEWP$-29.5*STP$1004.3*SLP$1013.9*VISIB$32.4*WDSP$3.2*PRCP$0.51*SNDP$0.0*FRSHTT$110000*CLDC$50.8*WNDDIR$72
STN$11060*DATE$2021-02-02*TIME$19:59:17*TEMP$0.3*DEWP$-2.4*STP$1017.4*SLP$1004.9*VISIB$40.7*WDSP$31.6*PRCP$0.13*SNDP$0.0*FRSHTT$010000*CLDC$65.3*WNDDIR$100
STN$28670*DATE$2021-02-02*TIME$19:59:17*TEMP$-11.9*DEWP$-13.4*STP$1012.1*SLP$1006.9*VISIB$21.3*WDSP$15.8*PRCP$0.02*SNDP$29.5*FRSHTT$111000*CLDC$53.9*WNDDIR$162
STN$128380*DATE$2021-02-02*TIME$19:59:17*TEMP$-0.8*DEWP$-5.4*STP$1017.4*SLP$1023.9*VISIB$9.4*WDSP$5.6*PRCP$0.12*SNDP$0.7*FRSHTT$111000*CLDC$54.1*WNDDIR$207
STN$724926*DATE$2021-02-02*TIME$19:59:17*TEMP$3.6*DEWP$0.2*STP$1002.2*SLP$1008.9*VISIB$14.3*WDSP$0.5*PRCP$0.06*SNDP$0.0*FRSHTT$010000*CLDC$70.3*WNDDIR$181
STN$724927*DATE$2021-02-02*TIME$19:59:17*TEMP$1.6*DEWP$-2.8*STP$1020.6*SLP$1021.9*VISIB$17.2*WDSP$8.0*PRCP$0.13*SNDP$0.0*FRSHTT$010000*CLDC$51.4*WNDDIR$131
STN$724920*DATE$2021-02-02*TIME$19:59:17*TEMP$2.8*DEWP$-1.4*STP$1016.0*SLP$1018.9*VISIB$23.1*WDSP$4.7*PRCP$0.07*SNDP$0.0*FRSHTT$010000*CLDC$55.2*WNDDIR$244
STN$570160*DATE$2021-02-02*TIME$19:59:17*TEMP$-1.9*DEWP$-9.5*STP$1009.6*SLP$1029.6*VISIB$8.5*WDSP$4.9*PRCP$0.02*SNDP$0.0*FRSHTT$110000*CLDC$52.6*WNDDIR$222
STN$102180*DATE$2021-02-02*TIME$19:59:17*TEMP$-0.8*DEWP$-2.9*STP$1002.3*SLP$999.5*VISIB$14.5*WDSP$13.6*PRCP$0.00*SNDP$0.0*FRSHTT$100000*CLDC$55.3*WNDDIR$117
STN$525330*DATE$2021-02-02*TIME$19:59:17*TEMP$-9.1*DEWP$-18.9*STP$894.9*SLP$1030.9*VISIB$27.8*WDSP$16.9*PRCP$0.01*SNDP$0.0*FRSHTT$110000*CLDC$50.2*WNDDIR$17
STN$525331*DATE$2021-02-02*TIME$19:59:17*TEMP$-13.9*DEWP$-18.5*STP$995.4*SLP$1006.9*VISIB$11.8*WDSP$4.8*PRCP$0.00*SNDP$0.0*FRSHTT$100000*CLDC$59.5*WNDDIR$345
STN$425910*DATE$2021-02-02*TIME$19:59:17*TEMP$7.3*DEWP$2.9*STP$1005.4*SLP$1014.5*VISIB$106.6*WDSP$17.4*PRCP$1.42*SNDP$0.0*FRSHTT$010000*CLDC$54.9*WNDDIR$329
STN$300280*DATE$2021-02-02*TIME$19:59:17*TEMP$-27.7*DEWP$-30.4*STP$1047.7*SLP$1031.4*VISIB$25.1*WDSP$0.2*PRCP$0.00*SNDP$0.0*FRSHTT$100000*CLDC$93.6*WNDDIR$292
STN$945670*DATE$2021-02-02*TIME$19:59:17*TEMP$5.7*DEWP$0.6*STP$1009.4*SLP$1013.3*VISIB$20.1*WDSP$11.4*PRCP$1.66*SNDP$0.0*FRSHTT$010000*CLDC$55.4*WNDDIR$50
STN$117740*DATE$2021-02-02*TIME$19:59:17*TEMP$-0.9*DEWP$-3.8*STP$1006.9*SLP$1021.8*VISIB$2.2*WDSP$22.7*PRCP$0.06*SNDP$2.7*FRSHTT$111000*CLDC$51.9*WNDDIR$159
STN$20840*DATE$2021-02-02*TIME$19:59:17*TEMP$-3.1*DEWP$-4.4*STP$1013.9*SLP$1021.2*VISIB$14.7*WDSP$12.3*PRCP$0.00*SNDP$0.0*FRSHTT$100000*CLDC$41.4*WNDDIR$340
STN$789700*DATE$2021-02-02*TIME$19:59:17*TEMP$11.9*DEWP$8.3*STP$1011.6*SLP$1013.8*VISIB$20.1*WDSP$16.2*PRCP$0.04*SNDP$0.0*FRSHTT$010000*CLDC$51.8*WNDDIR$98
STN$575840*DATE$2021-02-02*TIME$19:59:17*TEMP$0.4*DEWP$-3.5*STP$1025.5*SLP$1026.5*VISIB$8.0*WDSP$12.7*PRCP$0.05*SNDP$0.0*FRSHTT$010000*CLDC$52.4*WNDDIR$242
STN$949650*DATE$2021-02-02*TIME$19:59:17*TEMP$4.3*DEWP$-2.5*STP$1005.7*SLP$1006.2*VISIB$16.5*WDSP$63.9*PRCP$0.00*SNDP$0.0*FRSHTT$000000*CLDC$32.1*WNDDIR$310
STN$209670*DATE$2021-02-02*TIME$19:59:17*TEMP$-29.3*DEWP$-32.1*STP$1017.8*SLP$1010.6*VISIB$22.0*WDSP$16.7*PRCP$0.02*SNDP$7.1*FRSHTT$111000*CLDC$64.6*WNDDIR$113
STN$720113*DATE$2021-02-02*TIME$19:59:17*TEMP$-0.4*DEWP$-3.1*STP$989.6*SLP$978.9*VISIB$16.2*WDSP$0.1*PRCP$0.00*SNDP$0.0*FRSHTT$100000*CLDC$84.8*WNDDIR$48
STN$474070*DATE$2021-02-02*TIME$19:59:17*TEMP$-7.2*DEWP$-9.7*STP$999.7*SLP$1011.9*VISIB$7.1*WDSP$7.4*PRCP$0.14*SNDP$23.0*FRSHTT$111000*CLDC$51.2*WNDDIR$171
STN$720120*DATE$2021-02-02*TIME$19:59:17*TEMP$0.6*DEWP$-5.7*STP$1014.4*SLP$1002.9*VISIB$17.5*WDSP$6.2*PRCP$0.00*SNDP$0.0*FRSHTT$000000*CLDC$95.1*WNDDIR$39
STN$949670*DATE$2021-02-02*TIME$19:59:17*TEMP$7.3*DEWP$2.5*STP$1008.2*SLP$1014.4*VISIB$17.9*WDSP$34.8*PRCP$0.09*SNDP$0.0*FRSHTT$010000*CLDC$74.4*WNDDIR$191
STN$474060*DATE$2021-02-02*TIME$19:59:17*TEMP$-2.7*DEWP$-7.1*STP$1009.2*SLP$1012.8*VISIB$17.4*WDSP$32.6*PRCP$0.22*SNDP$25.3*FRSHTT$111000*CLDC$54.9*WNDDIR$73
STN$591020*DATE$2021-02-02*TIME$19:59:17*TEMP$1.9*DEWP$-2.2*STP$1015.7*SLP$1021.8*VISIB$12.3*WDSP$7.2*PRCP$0.22*SNDP$0.0*FRSHTT$010000*CLDC$55.9*WNDDIR$195
STN$949680*DATE$2021-02-02*TIME$19:59:17*TEMP$6.5*DEWP$-1.6*STP$1000.4*SLP$1004.0*VISIB$30.1*WDSP$29.0*PRCP$0.06*SNDP$0.0*FRSHTT$010000*CLDC$50.9*WNDDIR$58
STN$70930*DATE$2021-02-02*TIME$19:59:17*TEMP$0.2*DEWP$-1.1*STP$989.9*SLP$1007.5*VISIB$10.1*WDSP$16.6*PRCP$0.00*SNDP$0.0*FRSHTT$100000*CLDC$1.5*WNDDIR$21
STN$726499*DATE$2021-02-02*TIME$19:59:17*TEMP$-6.6*DEWP$-10.2*STP$1011.7*SLP$1000.7*VISIB$6.0*WDSP$19.9*PRCP$0.07*SNDP$0.0*FRSHTT$110000*CLDC$50.7*WNDDIR$36
STN$152470*DATE$2021-02-02*TIME$19:59:17*TEMP$-1.2*DEWP$-4.5*STP$1009.4*SLP$1008.6*VISIB$3.4*WDSP$10.3*PRCP$0.06*SNDP$0.7*FRSHTT$111000*CLDC$50.6*WNDDIR$23
STN$477270*DATE$2021-02-02*TIME$19:59:17*TEMP$-0.4*DEWP$-10.0*STP$998.3*SLP$1000.3*VISIB$13.7*WDSP$4.0*PRCP$0.00*SNDP$0.0*FRSHTT$100000*CLDC$82.3*WNDDIR$141
STN$726525*DATE$2021-02-02*TIME$19:59:17*TEMP$-7.5*DEWP$-12.3*STP$999.0*SLP$1007.5*VISIB$20.5*WDSP$18.4*PRCP$0.00*SNDP$0.0*FRSHTT$100000*CLDC$39.0*WNDDIR$144
STN$30080*DATE$2021-02-02*TIME$19:59:17*TEMP$2.5*DEWP$-0.7*STP$1005.3*SLP$1005.7*VISIB$13.6*WDSP$36.5*PRCP$0.25*SNDP$0.2*FRSHTT$011000*CLDC$66.1*WNDDIR$1
STN$655030*DATE$2021-02-02*TIME$19:59:17*TEMP$16.2*DEWP$-8.8*STP$997.5*SLP$1010.4*VISIB$2.9*WDSP$19.7*PRCP$0.00*SNDP$0.0*FRSHTT$000000*CLDC$78.1*WNDDIR$196
STN$637560*DATE$2021-02-02*TIME$19:59:17*TEMP$7.3*DEWP$4.8*STP$888.1*SLP$865.7*VISIB$17.3*WDSP$5.9*PRCP$0.00*SNDP$0.0*FRSHTT$000000*CLDC$61.7*WNDDIR$128
STN$726518*DATE$2021-02-02*TIME$19:59:17*TEMP$-3.9*DEWP$-10.3*STP$1007.5*SLP$1019.4*VISIB$21.2*WDSP$30.5*PRCP$0.01*SNDP$0.0*FRSHTT$110000*CLDC$51.1*WNDDIR$344
STN$508380*DATE$2021-02-02*TIME$19:59:17*TEMP$-9.6*DEWP$-14.4*STP$1040.5*SLP$1026.5*VISIB$29.3*WDSP$7.7*PRCP$0.04*SNDP$0.0*FRSHTT$110000*CLDC$52.9*WNDDIR$24
STN$726517*DATE$2021-02-02*TIME$19:59:17*TEMP$-6.7*DEWP$-11.0*STP$1025.5*SLP$1019.8*VISIB$7.3*WDSP$18.5*PRCP$0.02*SNDP$0.0*FRSHTT$110000*CLDC$53.7*WNDDIR$333
STN$374840*DATE$2021-02-02*TIME$19:59:17*TEMP$4.8*DEWP$-0.7*STP$1001.8*SLP$1019.3*VISIB$16.2*WDSP$16.2*PRCP$0.59*SNDP$0.0*FRSHTT$010000*CLDC$59.2*WNDDIR$298
STN$724700*DATE$2021-02-02*TIME$19:59:17*TEMP$-5.0*DEWP$*STP$1058.3*SLP$1028.1*VISIB$15.9*WDSP$0.7*PRCP$0.00*SNDP$0.0*FRSHTT$100000*CLDC$73.6*WNDDIR$183
STN$724690*DATE$2021-02-02*TIME$19:59:17*TEMP$-5.0*DEWP$-13.0*STP$850.1*SLP$1018.1*VISIB$47.0*WDSP$7.0*PRCP$0.07*SNDP$0.7*FRSHTT$111000*CLDC$50.7*WNDDIR$278
STN$724689*DATE$2021-02-02*TIME$19:59:17*TEMP$-6.2*DEWP$-15.0*STP$1019.3*SLP$1018.9*VISIB$7.5*WDSP$13.5*PRCP$0.00*SNDP$0.0*FRSHTT$100000*CLDC$13.5*WNDDIR$9
STN$724695*DATE$2021-02-02*TIME$19:59:17*TEMP$-4.6*DEWP$-13.8*STP$957.3*SLP$1015.9*VISIB$51.9*WDSP$1.4*PRCP$0.02*SNDP$1.2*FRSHTT$111000*CLDC$50.4*WNDDIR$325
STN$938440*DATE$2021-02-02*TIME$19:59:17*TEMP$9.5*DEWP$4.9*STP$1009.7*SLP$1009.3*VISIB$33.1*WDSP$47.9*PRCP$0.09*SNDP$0.0*FRSHTT$010000*CLDC$50.8*WNDDIR$120
STN$80210*DATE$2021-02-02*TIME$19:59:17*TEMP$5.8*DEWP$0.1*STP$1014.7*SLP$1008.1*VISIB$14.7*WDSP$4.9*PRCP$0.19*SNDP$0.0*FRSHTT$010000*CLDC$53.8*WNDDIR$206
STN$600300*DATE$2021-02-02*TIME$19:59:17*TEMP$14.6*DEWP$7.6*STP$1016.7*SLP$1020.7*VISIB$14.5*WDSP$21.8*PRCP$0.02*SNDP$0.0*FRSHTT$010000*CLDC$59.1*WNDDIR$310
STN$912750*DATE$2021-02-02*TIME$19:59:17*TEMP$22.1*DEWP$16.2*STP$1013.3*SLP$1013.7*VISIB$11.4*WDSP$23.0*PRCP$0.00*SNDP$0.0*FRSHTT$000000*CLDC$70.3*WNDDIR$310
STN$724720*DATE$2021-02-02*TIME$19:59:17*TEMP$-2.7*DEWP$-6.0*STP$819.5*SLP$1026.7*VISIB$52.0*WDSP$13.7*PRCP$0.00*SNDP$11.7*FRSHTT$101000*CLDC$77.7*WNDDIR$207
STN$109080*DATE$2021-02-02*TIME$19:59:17*TEMP$-3.6*DEWP$-8.0*STP$972.7*SLP$970.6*VISIB$29.0*WDSP$28.5*PRCP$0.50*SNDP$27.4*FRSHTT$111000*CLDC$97.8*WNDDIR$93
STN$726055*DATE$2021-02-02*TIME$19:59:17*TEMP$-3.7*DEWP$-8.5*STP$1012.1*SLP$1017.1*VISIB$23.7*WDSP$27.8*PRCP$0.32*SNDP$8.8*FRSHTT$111000*CLDC$53.4*WNDDIR$269
STN$386560*DATE$2021-02-02*TIME$19:59:17*TEMP$-1.9*DEWP$-9.1*STP$1003.4*SLP$1022.9*VISIB$16.3*WDSP$8.1*PRCP$0.03*SNDP$0.3*FRSHTT$111000*CLDC$60.1*WNDDIR$89
STN$726056*DATE$2021-02-02*TIME$19:59:17*TEMP$-2.3*DEWP$-7.1*STP$1016.0*SLP$1016.1*VISIB$14.3*WDSP$8.6*PRCP$0.52*SNDP$0.0*FRSHTT$110000*CLDC$50.1*WNDDIR$256
STN$171800*DATE$2021-02-02*TIME$19:59:17*TEMP$1.9*DEWP$-3.2*STP$1013.7*SLP$1017.2*VISIB$29.9*WDSP$4.5*PRCP$0.04*SNDP$0.6*FRSHTT$011000*CLDC$72.7*WNDDIR$216
STN$726060*DATE$2021-02-02*TIME$19:59:17*TEMP$-5.9*DEWP$-10.2*STP$1015.0*SLP$1016.3*VISIB$16.2*WDSP$10.3*PRCP$0.47*SNDP$9.7*FRSHTT$111000*CLDC$75.7*WNDDIR$178
STN$29660*DATE$2021-02-02*TIME$19:59:17*TEMP$-7.5*DEWP$-8.9*STP$1013.7*SLP$1012.4*VISIB$22.5*WDSP$12.7*PRCP$0.17*SNDP$27.0*FRSHTT$111000*CLDC$50.9*WNDDIR$136
STN$725920*DATE$2021-02-02*TIME$19:59:17*TEMP$1.8*DEWP$-3.0*STP$1005.9*SLP$1019.3*VISIB$15.6*WDSP$9.5*PRCP$0.38*SNDP$0.0*FRSHTT$010000*CLDC$96.5*WNDDIR$277
STN$509830*DATE$2021-02-02*TIME$19:59:17*TEMP$-10.5*DEWP$-15.6*STP$1017.5*SLP$1020.8*VISIB$18.7*WDSP$5.5*PRCP$0.02*SNDP$0.0*FRSHTT$110000*CLDC$72.9*WNDDIR$277
STN$64080*DATE$2021-02-02*TIME$19:59:17*TEMP$1.2*DEWP$-1.8*STP$1003.9*SLP$1012.2*VISIB$9.2*WDSP$23.8*PRCP$0.11*SNDP$0.0*FRSHTT$010000*CLDC$90.4*WNDDIR$39
STN$723086*DATE$2021-02-02*TIME$19:59:17*TEMP$0.9*DEWP$-4.2*STP$1006.1*SLP$999.4*VISIB$9.7*WDSP$11.0*PRCP$0.37*SNDP$0.0*FRSHTT$010000*CLDC$54.6*WNDDIR$212
STN$723085*DATE$2021-02-02*TIME$19:59:17*TEMP$1.0*DEWP$-5.5*STP$1021.6*SLP$1019.6*VISIB$7.9*WDSP$13.5*PRCP$0.20*SNDP$0.3*FRSHTT$011000*CLDC$83.4*WNDDIR$67
STN$723084*DATE$2021-02-02*TIME$19:59:17*TEMP$-0.7*DEWP$-8.6*STP$1013.3*SLP$1019.5*VISIB$13.7*WDSP$8.1*PRCP$0.47*SNDP$0.0*FRSHTT$110000*CLDC$54.4*WNDDIR$315
STN$710358*DATE$2021-02-02*TIME$19:59:17*TEMP$-23.7*DEWP$-26.4*STP$1041.5*SLP$1019.2*VISIB$45.3*WDSP$14.7*PRCP$0.00*SNDP$0.0*FRSHTT$100000*CLDC$89.8*WNDDIR$341
STN$723090*DATE$2021-02-02*TIME$19:59:17*TEMP$2.1*DEWP$-2.5*STP$1012.3*SLP$1019.2*VISIB$10.0*WDSP$21.8*PRCP$0.22*SNDP$0.0*FRSHTT$010000*CLDC$50.4*WNDDIR$243
STN$710356*DATE$2021-02-02*TIME$19:59:17*TEMP$-11.3*DEWP$-15.3*STP$993.6*SLP$1021.3*VISIB$22.0*WDSP$11.5*PRCP$0.00*SNDP$0.0*FRSHTT$100000*CLDC$59.5*WNDDIR$138
STN$133670*DATE$2021-02-02*TIME$19:59:17*TEMP$-4.7*DEWP$-7.0*STP$985.3*SLP$990.3*VISIB$10.9*WDSP$9.4*PRCP$0.11*SNDP$23.7*FRSHTT$111000*CLDC$77.9*WNDDIR$34
STN$723095*DATE$2021-02-02*TIME$19:59:17*TEMP$1.5*DEWP$-4.8*STP$1025.6*SLP$1020.1*VISIB$6.8*WDSP$2.5*PRCP$0.30*SNDP$0.0*FRSHTT$010000*CLDC$56.0*WNDDIR$357
STN$723098*DATE$2021-02-02*TIME$19:59:17*TEMP$-1.5*DEWP$-5.5*STP$1020.3*SLP$1014.8*VISIB$14.6*WDSP$6.5*PRCP$0.00*SNDP$0.0*FRSHTT$100000*CLDC$9.9*WNDDIR$347
STN$723096*DATE$2021-02-02*TIME$19:59:17*TEMP$1.7*DEWP$-3.5*STP$1016.0*SLP$1019.6*VISIB$0.9*WDSP$6.6*PRCP$0.35*SNDP$0.0*FRSHTT$010000*CLDC$50.4*WNDDIR$302
STN$253720*DATE$2021-02-02*TIME$19:59:17*TEMP$-22.1*DEWP$-21.0*STP$1020.9*SLP$1021.1*VISIB$23.9*WDSP$25.6*PRCP$0.08*SNDP$27.7*FRSHTT$111000*CLDC$52.2*WNDDIR$196
STN$131420*DATE$2021-02-02*TIME$19:59:17*TEMP$0.1*DEWP$-1.1*STP$1009.9*SLP$1038.0*VISIB$4.6*WDSP$2.2*PRCP$0.00*SNDP$0.0*FRSHTT$000000*CLDC$41.6*WNDDIR$92
STN$129300*DATE$2021-02-02*TIME$19:59:17*TEMP$-4.2*DEWP$-7.1*STP$1060.0*SLP$1040.4*VISIB$1.4*WDSP$0.6*PRCP$0.00*SNDP$1.7*FRSHTT$101000*CLDC$51.2*WNDDIR$149
STN$25490*DATE$2021-02-02*TIME$19:59:17*TEMP$-1.9*DEWP$-4.3*STP$989.0*SLP$983.0*VISIB$2.7*WDSP$32.7*PRCP$0.47*SNDP$0.0*FRSHTT$110000*CLDC$80.6*WNDDIR$233
STN$573280*DATE$2021-02-02*TIME$19:59:17*TEMP$2.7*DEWP$-1.7*STP$990.1*SLP$1024.6*VISIB$14.9*WDSP$0.3*PRCP$0.07*SNDP$0.0*FRSHTT$010000*CLDC$51.5*WNDDIR$31
STN$25480*DATE$2021-02-02*TIME$19:59:17*TEMP$-1.1*DEWP$-4.6*STP$975.0*SLP$916.9*VISIB$34.8*WDSP$21.0*PRCP$0.00*SNDP$0.0*FRSHTT$100000*CLDC$72.0*WNDDIR$270
STN$358490*DATE$2021-02-02*TIME$19:59:17*TEMP$-14.4*DEWP$-17.4*STP$1017.8*SLP$1028.6*VISIB$16.7*WDSP$7.5*PRCP$0.32*SNDP$1.4*FRSHTT$111000*CLDC$50.0*WNDDIR$233
STN$712010*DATE$2021-02-02*TIME$19:59:17*TEMP$2.3*DEWP$-0.4*STP$1013.7*SLP$1022.2*VISIB$9.3*WDSP$2.9*PRCP$0.00*SNDP$0.0*FRSHTT$000000*CLDC$27.8*WNDDIR$112
STN$320040*DATE$2021-02-02*TIME$19:59:17*TEMP$-12.7*DEWP$-15.8*STP$1028.6*SLP$1004.1*VISIB$5.8*WDSP$12.0*PRCP$0.34*SNDP$0.0*FRSHTT$110000*CLDC$90.0*WNDDIR$136
STN$25440*DATE$2021-02-02*TIME$19:59:17*TEMP$-1.3*DEWP$-3.3*STP$1008.4*SLP$1011.0*VISIB$23.3*WDSP$23.0*PRCP$0.02*SNDP$6.6*FRSHTT$111000*CLDC$50.6*WNDDIR$298
STN$783550*DATE$2021-02-02*TIME$19:59:17*TEMP$7.7*DEWP$0.6*STP$998.1*SLP$1018.9*VISIB$34.5*WDSP$1.9*PRCP$0.00*SNDP$0.0*FRSHTT$000000*CLDC$92.7*WNDDIR$234
STN$943840*DATE$2021-02-02*TIME$19:59:17*TEMP$14.0*DEWP$9.6*STP$1008.1*SLP$1010.6*VISIB$21.1*WDSP$28.1*PRCP$0.14*SNDP$0.0*FRSHTT$010000*CLDC$51.8*WNDDIR$308
STN$38080*DATE$2021-02-02*TIME$19:59:17*TEMP$1.5*DEWP$-0.4*STP$1015.6*SLP$1020.1*VISIB$12.6*WDSP$35.4*PRCP$0.14*SNDP$0.0*FRSHTT$010000*CLDC$85.8*WNDDIR$186
STN$406420*DATE$2021-02-02*TIME$19:59:17*TEMP$3.3*DEWP$-3.4*STP$1012.2*SLP$1020.2*VISIB$40.5*WDSP$12.7*PRCP$0.00*SNDP$0.0*FRSHTT$000000*CLDC$35.5*WNDDIR$290
STN$467080*DATE$2021-02-02*TIME$19:59:17*TEMP$5.4*DEWP$1.6*STP$1030.9*SLP$1022.3*VISIB$9.9*WDSP$16.8*PRCP$0.09*SNDP$0.0*FRSHTT$010000*CLDC$52.4*WNDDIR$344
STN$943870*DATE$2021-02-02*TIME$19:59:17*TEMP$6.1*DEWP$0.6*STP$1006.2*SLP$1010.4*VISIB$24.4*WDSP$0.1*PRCP$0.00*SNDP$0.0*FRSHTT$000000*CLDC$7.1*WNDDIR$70
STN$379850*DATE$2021-02-02*TIME$19:59:17*TEMP$0.5*DEWP$-1.4*STP$1019.3*SLP$1018.3*VISIB$0.9*WDSP$12.7*PRCP$0.37*SNDP$0.2*FRSHTT$011000*CLDC$52.5*WNDDIR$245
STN$38100*DATE$2021-02-02*TIME$19:59:17*TEMP$2.5*DEWP$0.9*STP$1030.9*SLP$1020.0*VISIB$9.2*WDSP$27.5*PRCP$0.00*SNDP$0.0*FRSHTT$000000*CLDC$0.5*WNDDIR$30
STN$22930*DATE$2021-02-02*TIME$19:59:17*TEMP$-1.8*DEWP$-3.6*STP$1007.8*SLP$1010.6*VISIB$5.1*WDSP$14.4*PRCP$0.00*SNDP$0.0*FRSHTT$100000*CLDC$11.1*WNDDIR$12
STN$238040*DATE$2021-02-02*TIME$19:59:17*TEMP$-18.8*DEWP$-21.8*STP$1013.9*SLP$1016.8*VISIB$12.9*WDSP$10.1*PRCP$0.05*SNDP$25.9*FRSHTT$111000*CLDC$60.8*WNDDIR$39
STN$507270*DATE$2021-02-02*TIME$19:59:17*TEMP$-21.5*DEWP$-24.7*STP$914.7*SLP$1032.6*VISIB$32.3*WDSP$7.2*PRCP$0.02*SNDP$0.0*FRSHTT$110000*CLDC$87.0*WNDDIR$293
STN$946800*DATE$2021-02-02*TIME$19:59:17*TEMP$6.4*DEWP$-2.2*STP$968.2*SLP$1015.1*VISIB$41.0*WDSP$6.1*PRCP$0.00*SNDP$0.0*FRSHTT$000000*CLDC$3.0*WNDDIR$62
STN$747950*DATE$2021-02-02*TIME$19:59:17*TEMP$8.1*DEWP$3.8*STP$1014.9*SLP$1018.7*VISIB$12.2*WDSP$8.8*PRCP$0.14*SNDP$0.0*FRSHTT$010000*CLDC$76.0*WNDDIR$61
STN$747945*DATE$2021-02-02*TIME$19:59:17*TEMP$4.3*DEWP$1.0*STP$1023.9*SLP$1021.0*VISIB$14.0*WDSP$7.9*PRCP$0.28*SNDP$0.0*FRSHTT$010000*CLDC$74.5*WNDDIR$72
STN$747946*DATE$2021-02-02*TIME$19:59:17*TEMP$6.8*DEWP$3.0*STP$1016.7*SLP$1018.0*VISIB$16.4*WDSP$13.0*PRCP$0.07*SNDP$0.0*FRSHTT$010000*CLDC$51.2*WNDDIR$154
STN$623320*DATE$2021-02-02*TIME$19:59:17*TEMP$6.8*DEWP$2.0*STP$1018.1*SLP$1019.9*VISIB$14.5*WDSP$8.3*PRCP$0.00*SNDP$0.0*FRSHTT$000000*CLDC$3.1*WNDDIR$227
STN$747930*DATE$2021-02-02*TIME$19:59:17*TEMP$14.0*DEWP$11.4*STP$988.7*SLP$1023.3*VISIB$18.7*WDSP$17.2*PRCP$0.70*SNDP$0.0*FRSHTT$010000*CLDC$74.6*WNDDIR$90
STN$870220*DATE$2021-02-02*TIME$19:59:17*TEMP$13.4*DEWP$11.7*STP$955.0*SLP$1008.0*VISIB$11.5*WDSP$5.9*PRCP$1.17*SNDP$0.0*FRSHTT$010000*CLDC$51.9*WNDDIR$17
STN$747910*DATE$2021-02-02*TIME$19:59:17*TEMP$1.7*DEWP$-4.1*STP$1015.7*SLP$1012.7*VISIB$17.9*WDSP$9.2*PRCP$0.09*SNDP$0.0*FRSHTT$010000*CLDC$50.1*WNDDIR$255
STN$825620*DATE$2021-02-02*TIME$19:59:17*TEMP$11.4*DEWP$8.8*STP$992.5*SLP$1001.0*VISIB$11.2*WDSP$5.7*PRCP$0.61*SNDP$0.0*FRSHTT$010000*CLDC$52.1*WNDDIR$99
STN$538630*DATE$2021-02-02*TIME$19:59:17*TEMP$-5.6*DEWP$-16.9*STP$1007.5*SLP$1028.3*VISIB$13.2*WDSP$10.8*PRCP$0.00*SNDP$0.0*FRSHTT$100000*CLDC$91.3*WNDDIR$107
STN$663050*DATE$2021-02-02*TIME$19:59:17*TEMP$10.3*DEWP$2.9*STP$1003.3*SLP$1010.3*VISIB$24.1*WDSP$10.5*PRCP$0.00*SNDP$0.0*FRSHTT$000000*CLDC$21.0*WNDDIR$320
STN$724236*DATE$2021-02-02*TIME$19:59:17*TEMP$0.3*DEWP$-7.0*STP$987.4*SLP$1019.0*VISIB$6.9*WDSP$15.2*PRCP$0.25*SNDP$1.1*FRSHTT$011000*CLDC$53.9*WNDDIR$352
STN$724237*DATE$2021-02-02*TIME$19:59:17*TEMP$-1.2*DEWP$-6.0*STP$1039.1*SLP$1020.9*VISIB$10.1*WDSP$5.9*PRCP$0.00*SNDP$0.0*FRSHTT$100000*CLDC$13.6*WNDDIR$350
STN$724238*DATE$2021-02-02*TIME$19:59:17*TEMP$0.5*DEWP$-5.2*STP$983.9*SLP$993.3*VISIB$11.1*WDSP$18.3*PRCP$0.38*SNDP$0.0*FRSHTT$010000*CLDC$63.7*WNDDIR$246
STN$80450*DATE$2021-02-02*TIME$19:59:17*TEMP$6.4*DEWP$2.5*STP$1009.6*SLP$1021.6*VISIB$9.3*WDSP$17.7*PRCP$0.59*SNDP$0.0*FRSHTT$010000*CLDC$50.5*WNDDIR$182
STN$538870*DATE$2021-02-02*TIME$19:59:17*TEMP$-8.4*DEWP$-20.3*STP$920.4*SLP$1032.7*VISIB$19.7*WDSP$5.4*PRCP$0.00*SNDP$0.0*FRSHTT$100000*CLDC$11.1*WNDDIR$207
STN$724475*DATE$2021-02-02*TIME$19:59:17*TEMP$-2.9*DEWP$-7.0*STP$1016.3*SLP$1017.6*VISIB$14.5*WDSP$15.4*PRCP$0.02*SNDP$0.0*FRSHTT$110000*CLDC$85.8*WNDDIR$145
STN$724468*DATE$2021-02-02*TIME$19:59:17*TEMP$-2.0*DEWP$-6.7*STP$1005.7*SLP$1015.2*VISIB$19.5*WDSP$2.4*PRCP$0.01*SNDP$0.0*FRSHTT$110000*CLDC$80.4*WNDDIR$335
STN$724466*DATE$2021-02-02*TIME$19:59:17*TEMP$-3.9*DEWP$-8.4*STP$1002.4*SLP$1021.7*VISIB$22.0*WDSP$8.7*PRCP$0.06*SNDP$0.8*FRSHTT$111000*CLDC$73.6*WNDDIR$63
STN$725634*DATE$2021-02-02*TIME$19:59:17*TEMP$-4.0*DEWP$-6.5*STP$1003.8*SLP$974.5*VISIB$6.6*WDSP$15.2*PRCP$0.00*SNDP$0.0*FRSHTT$100000*CLDC$66.8*WNDDIR$207
STN$725635*DATE$2021-02-02*TIME$19:59:17*TEMP$-5.2*DEWP$-12.1*STP$1008.9*SLP$1007.1*VISIB$28.3*WDSP$9.1*PRCP$0.04*SNDP$0.0*FRSHTT$110000*CLDC$81.4*WNDDIR$219
STN$170420*DATE$2021-02-02*TIME$19:59:17*TEMP$2.0*DEWP$-6.8*STP$1027.2*SLP$1032.3*VISIB$14.2*WDSP$25.7*PRCP$0.15*SNDP$0.0*FRSHTT$010000*CLDC$53.8*WNDDIR$102
STN$913691*DATE$2021-02-02*TIME$19:59:17*TEMP$23.6*DEWP$21.1*STP$989.1*SLP$1007.9*VISIB$25.0*WDSP$12.9*PRCP$0.57*SNDP$0.0*FRSHTT$010000*CLDC$50.2*WNDDIR$103
STN$725645*DATE$2021-02-02*TIME$19:59:17*TEMP$-6.2*DEWP$-11.2*STP$1014.5*SLP$1018.6*VISIB$33.3*WDSP$31.0*PRCP$0.02*SNDP$2.9*FRSHTT$111000*CLDC$50.0*WNDDIR$112
STN$29430*DATE$2021-02-02*TIME$19:59:17*TEMP$-6.8*DEWP$-9.6*STP$1040.5*SLP$1036.9*VISIB$11.4*WDSP$8.0*PRCP$0.00*SNDP$0.0*FRSHTT$100000*CLDC$29.9*WNDDIR$354
STN$690190*DATE$2021-02-02*TIME$19:59:17*TEMP$0.7*DEWP$-8.6*STP$978.6*SLP$1020.6*VISIB$22.1*WDSP$3.0*PRCP$0.00*SNDP$0.0*FRSHTT$000000*CLDC$70.3*WNDDIR$78
STN$725640*DATE$2021-02-02*TIME$19:59:17*TEMP$-5.8*DEWP$-15.5*STP$828.2*SLP$1018.7*VISIB$42.5*WDSP$20.6*PRCP$0.01*SNDP$0.9*FRSHTT$111000*CLDC$64.0*WNDDIR$11
STN$814050*DATE$2021-02-02*TIME$19:59:17*TEMP$15.6*DEWP$13.1*STP$1014.7*SLP$1011.9*VISIB$17.0*WDSP$22.2*PRCP$0.64*SNDP$0.0*FRSHTT$010000*CLDC$54.3*WNDDIR$214
STN$725745*DATE$2021-02-02*TIME$19:59:17*TEMP$-1.9*DEWP$-10.5*STP$1023.7*SLP$1019.5*VISIB$42.6*WDSP$43.5*PRCP$0.02*SNDP$4.8*FRSHTT$111000*CLDC$67.2*WNDDIR$64
STN$727834*DATE$2021-02-02*TIME$19:59:17*TEMP$-7.4*DEWP$-10.8*STP$973.7*SLP$982.0*VISIB$27.7*WDSP$3.1*PRCP$0.00*SNDP$0.0*FRSHTT$100000*CLDC$93.7*WNDDIR$12
STN$476860*DATE$2021-02-02*TIME$19:59:17*TEMP$-1.2*DEWP$-8.6*STP$1002.3*SLP$998.8*VISIB$11.6*WDSP$2.5*PRCP$0.00*SNDP$0.0*FRSHTT$100000*CLDC$22.2*WNDDIR$265
STN$745431*DATE$2021-02-02*TIME$19:59:17*TEMP$-2.0*DEWP$-7.0*STP$1024.0*SLP$1019.1*VISIB$13.9*WDSP$2.4*PRCP$0.05*SNDP$0.0*FRSHTT$110000*CLDC$66.5*WNDDIR$89
STN$727830*DATE$2021-02-02*TIME$19:59:17*TEMP$-1.4*DEWP$-6.1*STP$971.7*SLP$1021.5*VISIB$27.2*WDSP$16.0*PRCP$0.06*SNDP$0.4*FRSHTT$111000*CLDC$51.4*WNDDIR$57
STN$745430*DATE$2021-02-02*TIME$19:59:17*TEMP$0.0*DEWP$-2.6*STP$935.9*SLP$974.3*VISIB$23.8*WDSP$11.7*PRCP$0.00*SNDP$0.0*FRSHTT$000000*CLDC$94.8*WNDDIR$37
STN$727825*DATE$2021-02-02*TIME$19:59:17*TEMP$-3.0*DEWP$-4.9*STP$1019.9*SLP$1021.3*VISIB$25.6*WDSP$4.1*PRCP$0.05*SNDP$3.6*FRSHTT$111000*CLDC$81.8*WNDDIR$213
STN$727826*DATE$2021-02-02*TIME$19:59:17*TEMP$-3.1*DEWP$-6.8*STP$1023.3*SLP$1021.0*VISIB$15.6*WDSP$17.4*PRCP$0.07*SNDP$1.9*FRSHTT$111000*CLDC$52.6*WNDDIR$165
STN$727827*DATE$2021-02-02*TIME$19:59:17*TEMP$-4.0*DEWP$-7.2*STP$992.2*SLP$1018.8*VISIB$24.1*WDSP$18.3*PRCP$0.01*SNDP$0.0*FRSHTT$110000*CLDC$95.9*WNDDIR$273
STN$31600*DATE$2021-02-02*TIME$19:59:17*TEMP$1.3*DEWP$-1.5*STP$1010.1*SLP$1012.1*VISIB$10.7*WDSP$29.3*PRCP$0.08*SNDP$0.2*FRSHTT$011000*CLDC$52.5*WNDDIR$205
STN$326180*DATE$2021-02-02*TIME$19:59:17*TEMP$-3.1*DEWP$-5.5*STP$1001.1*SLP$1002.1*VISIB$11.6*WDSP$37.7*PRCP$0.14*SNDP$6.9*FRSHTT$111000*CLDC$54.5*WNDDIR$127
STN$604570*DATE$2021-02-02*TIME$19:59:17*TEMP$4.1*DEWP$1.4*STP$987.2*SLP$1017.3*VISIB$11.1*WDSP$1.0*PRCP$0.17*SNDP$0.0*FRSHTT$010000*CLDC$54.5*WNDDIR$338
STN$864600*DATE$2021-02-02*TIME$19:59:17*TEMP$9.8*DEWP$3.1*STP$1018.6*SLP$1013.0*VISIB$23.3*WDSP$15.3*PRCP$0.15*SNDP$0.0*FRSHTT$010000*CLDC$93.0*WNDDIR$47
STN$583620*DATE$2021-02-02*TIME$19:59:17*TEMP$0.2*DEWP$-6.2*STP$1026.2*SLP$1027.6*VISIB$22.6*WDSP$8.4*PRCP$0.18*SNDP$0.0*FRSHTT$010000*CLDC$56.1*WNDDIR$56
STN$728970*DATE$2021-02-02*TIME$19:59:17*TEMP$3.2*DEWP$2.5*STP$1027.1*SLP$1029.6*VISIB$10.5*WDSP$23.5*PRCP$0.74*SNDP$0.0*FRSHTT$010000*CLDC$52.0*WNDDIR$147
STN$63100*DATE$2021-02-02*TIME$19:59:17*TEMP$1.5*DEWP$-0.9*STP$1019.1*SLP$1020.2*VISIB$17.7*WDSP$23.3*PRCP$0.09*SNDP$0.0*FRSHTT$010000*CLDC$58.4*WNDDIR$135
STN$124280*DATE$2021-02-02*TIME$19:59:17*TEMP$-2.5*DEWP$-3.6*STP$1007.9*SLP$1022.9*VISIB$2.7*WDSP$9.3*PRCP$0.00*SNDP$3.4*FRSHTT$101000*CLDC$85.1*WNDDIR$184
STN$728960*DATE$2021-02-02*TIME$19:59:17*TEMP$-1.7*DEWP$-8.4*STP$945.8*SLP$1031.5*VISIB$84.4*WDSP$23.2*PRCP$0.00*SNDP$19.2*FRSHTT$101000*CLDC$50.7*WNDDIR$299
STN$916500*DATE$2021-02-02*TIME$19:59:17*TEMP$24.9*DEWP$23.0*STP$1019.5*SLP$1004.4*VISIB$38.4*WDSP$10.6*PRCP$0.21*SNDP$0.0*FRSHTT$010000*CLDC$52.3*WNDDIR$197
STN$154100*DATE$2021-02-02*TIME$19:59:17*TEMP$-1.2*DEWP$-5.1*STP$1011.8*SLP$1021.7*VISIB$8.5*WDSP$1.4*PRCP$0.12*SNDP$3.6*FRSHTT$111000*CLDC$56.9*WNDDIR$134
STN$475690*DATE$2021-02-02*TIME$19:59:17*TEMP$-1.1*DEWP$-7.5*STP$997.2*SLP$1004.6*VISIB$4.7*WDSP$10.0*PRCP$0.00*SNDP$0.0*FRSHTT$100000*CLDC$25.5*WNDDIR$2
STN$722183*DATE$2021-02-02*TIME$19:59:17*TEMP$-1.1*DEWP$-6.3*STP$1013.5*SLP$944.4*VISIB$3.2*WDSP$1.5*PRCP$0.00*SNDP$0.0*FRSHTT$100000*CLDC$0.8*WNDDIR$255
STN$722185*DATE$2021-02-02*TIME$19:59:17*TEMP$0.3*DEWP$-5.8*STP$1020.9*SLP$1020.9*VISIB$1.1*WDSP$15.1*PRCP$0.45*SNDP$0.0*FRSHTT$010000*CLDC$51.4*WNDDIR$84
STN$722186*DATE$2021-02-02*TIME$19:59:17*TEMP$-3.1*DEWP$-4.8*STP$990.9*SLP$1062.3*VISIB$15.6*WDSP$8.6*PRCP$0.00*SNDP$0.0*FRSHTT$100000*CLDC$89.2*WNDDIR$209
STN$722187*DATE$2021-02-02*TIME$19:59:17*TEMP$-4.2*DEWP$-7.7*STP$1011.6*SLP$1037.2*VISIB$13.0*WDSP$40.6*PRCP$0.00*SNDP$0.0*FRSHTT$100000*CLDC$44.2*WNDDIR$259
STN$217210*DATE$2021-02-02*TIME$19:59:17*TEMP$-19.2*DEWP$-22.4*STP$993.8*SLP$1009.8*VISIB$22.2*WDSP$46.8*PRCP$0.00*SNDP$7.4*FRSHTT$101000*CLDC$67.8*WNDDIR$186
STN$722188*DATE$2021-02-02*TIME$19:59:17*TEMP$-0.5*DEWP$-4.8*STP$1046.5*SLP$1019.4*VISIB$17.0*WDSP$10.6*PRCP$0.00*SNDP$0.0*FRSHTT$100000*CLDC$18.2*WNDDIR$220
STN$722189*DATE$2021-02-02*TIME$19:59:17*TEMP$8.7*DEWP$4.0*STP$994.1*SLP$973.9*VISIB$10.9*WDSP$13.0*PRCP$0.00*SNDP$0.0*FRSHTT$000000*CLDC$56.2*WNDDIR$49
STN$571780*DATE$2021-02-02*TIME$19:59:17*TEMP$-1.7*DEWP$-8.6*STP$1023.1*SLP$1027.3*VISIB$11.6*WDSP$7.1*PRCP$0.02*SNDP$0.0*FRSHTT$110000*CLDC$81.7*WNDDIR$35
STN$722190*DATE$2021-02-02*TIME$19:59:17*TEMP$0.7*DEWP$-6.1*STP$985.1*SLP$1019.3*VISIB$19.8*WDSP$16.8*PRCP$0.58*SNDP$0.0*FRSHTT$010000*CLDC$52.6*WNDDIR$154
STN$722191*DATE$2021-02-02*TIME$19:59:17*TEMP$1.9*DEWP$0.6*STP$984.9*SLP$946.5*VISIB$9.5*WDSP$10.2*PRCP$*SNDP$0.0*FRSHTT$000000*CLDC$57.9*WNDDIR$138
STN$726940*DATE$2021-02-02*TIME$19:59:17*TEMP$-0.1*DEWP$-3.7*STP$1013.0*SLP$1018.6*VISIB$18.4*WDSP$16.7*PRCP$0.42*SNDP$0.2*FRSHTT$111000*CLDC$54.1*WNDDIR$144
STN$619860*DATE$2021-02-02*TIME$19:59:17*TEMP$22.8*DEWP$20.3*STP$1012.9*SLP$1009.2*VISIB$19.1*WDSP$26.7*PRCP$0.38*SNDP$0.0*FRSHTT$010000*CLDC$54.7*WNDDIR$236
STN$636950*DATE$2021-02-02*TIME$19:59:17*TEMP$2.5*DEWP$-7.0*STP$997.9*SLP$1002.9*VISIB$28.7*WDSP$3.0*PRCP$0.00*SNDP$0.0*FRSHTT$000000*CLDC$90.3*WNDDIR$117
STN$294710*DATE$2021-02-02*TIME$19:59:17*TEMP$-18.3*DEWP$-23.4*STP$994.8*SLP$1023.8*VISIB$46.2*WDSP$3.5*PRCP$0.00*SNDP$0.0*FRSHTT$100000*CLDC$98.1*WNDDIR$359
STN$602520*DATE$2021-02-02*TIME$19:59:17*TEMP$12.5*DEWP$6.0*STP$1018.2*SLP$1019.6*VISIB$7.1*WDSP$10.6*PRCP$0.21*SNDP$0.0*FRSHTT$010000*CLDC$53.2*WNDDIR$337
STN$30700*DATE$2021-02-02*TIME$19:59:17*TEMP$1.5*DEWP$-1.9*STP$1011.6*SLP$1009.3*VISIB$38.9*WDSP$6.7*PRCP$0.00*SNDP$0.4*FRSHTT$001000*CLDC$53.4*WNDDIR$90
STN$13100*DATE$2021-02-02*TIME$19:59:17*TEMP$0.6*DEWP$-1.7*STP$1006.8*SLP$1001.5*VISIB$5.4*WDSP$23.0*PRCP$0.00*SNDP$0.0*FRSHTT$000000*CLDC$75.3*WNDDIR$329
STN$585690*DATE$2021-02-02*TIME$19:59:17*TEMP$1.0*DEWP$-4.3*STP$1021.9*SLP$1025.1*VISIB$14.6*WDSP$19.4*PRCP$0.21*SNDP$0.0*FRSHTT$010000*CLDC$67.5*WNDDIR$282
STN$726930*DATE$2021-02-02*TIME$19:59:17*TEMP$0.1*DEWP$-2.8*STP$1007.1*SLP$1018.9*VISIB$21.4*WDSP$4.0*PRCP$0.33*SNDP$0.2*FRSHTT$011000*CLDC$71.3*WNDDIR$123
STN$726883*DATE$2021-02-02*TIME$19:59:17*TEMP$-1.5*DEWP$-5.7*STP$1021.5*SLP$1020.4*VISIB$16.8*WDSP$7.1*PRCP$0.02*SNDP$0.0*FRSHTT$110000*CLDC$50.1*WNDDIR$24
STN$208560*DATE$2021-02-02*TIME$19:59:17*TEMP$-25.5*DEWP$-27.7*STP$999.0*SLP$1011.0*VISIB$8.9*WDSP$30.0*PRCP$0.00*SNDP$*FRSHTT$101000*CLDC$59.0*WNDDIR$63
STN$37430*DATE$2021-02-02*TIME$19:59:17*TEMP$1.7*DEWP$0.3*STP$1003.2*SLP$1018.4*VISIB$10.6*WDSP$8.7*PRCP$0.12*SNDP$0.0*FRSHTT$010000*CLDC$50.5*WNDDIR$153
STN$804380*DATE$2021-02-02*TIME$19:59:17*TEMP$9.6*DEWP$2.3*STP$851.6*SLP$856.7*VISIB$5.2*WDSP$4.5*PRCP$0.03*SNDP$0.0*FRSHTT$010000*CLDC$51.3*WNDDIR$25
STN$484006*DATE$2021-02-02*TIME$19:59:17*TEMP$14.6*DEWP$1.0*STP$1014.3*SLP$1018.1*VISIB$14.7*WDSP$23.1*PRCP$0.00*SNDP$0.0*FRSHTT$000000*CLDC$83.8*WNDDIR$350
STN$484005*DATE$2021-02-02*TIME$19:59:17*TEMP$17.8*DEWP$7.9*STP$1006.8*SLP$986.5*VISIB$18.0*WDSP$6.9*PRCP$0.00*SNDP$0.0*FRSHTT$000000*CLDC$66.6*WNDDIR$303
STN$518950*DATE$2021-02-02*TIME$19:59:17*TEMP$-5.9*DEWP$-16.1*STP$908.2*SLP$898.2*VISIB$20.8*WDSP$10.8*PRCP$0.00*SNDP$0.0*FRSHTT$100000*CLDC$14.0*WNDDIR$145
STN$484000*DATE$2021-02-02*TIME$19:59:17*TEMP$14.8*DEWP$6.0*STP$1003.9*SLP$1011.3*VISIB$7.9*WDSP$5.0*PRCP$0.44*SNDP$0.0*FRSHTT$010000*CLDC$52.2*WNDDIR$289
STN$787110*DATE$2021-02-02*TIME$19:59:17*TEMP$10.3*DEWP$1.5*STP$1014.2*SLP$1015.6*VISIB$6.4*WDSP$6.2*PRCP$0.11*SNDP$0.0*FRSHTT$010000*CLDC$53.5*WNDDIR$183
STN$24320*DATE$2021-02-02*TIME$19:59:17*TEMP$-2.7*DEWP$-6.0*STP$1011.3*SLP$1016.8*VISIB$46.4*WDSP$7.2*PRCP$0.00*SNDP$0.0*FRSHTT$100000*CLDC$11.7*WNDDIR$6
STN$484050*DATE$2021-02-02*TIME$19:59:17*TEMP$3.7*DEWP$5.2*STP$1019.2*SLP$1013.1*VISIB$5.4*WDSP$4.8*PRCP$0.00*SNDP$0.0*FRSHTT$000000*CLDC$90.4*WNDDIR$90
STN$872440*DATE$2021-02-02*TIME$19:59:17*TEMP$5.2*DEWP$1.7*STP$970.5*SLP$1009.1*VISIB$12.1*WDSP$10.6*PRCP$0.00*SNDP$0.0*FRSHTT$000000*CLDC$22.6*WNDDIR$5
STN$260380*DATE$2021-02-02*TIME$19:59:17*TEMP$-3.7*DEWP$-6.2*STP$998.5*SLP$1014.2*VISIB$10.8*WDSP$10.2*PRCP$0.28*SNDP$4.2*FRSHTT$111000*CLDC$52.3*WNDDIR$10
STN$474240*DATE$2021-02-02*TIME$19:59:17*TEMP$-7.7*DEWP$-11.9*STP$1014.5*SLP$1015.8*VISIB$39.7*WDSP$10.1*PRCP$0.00*SNDP$0.0*FRSHTT$100000*CLDC$70.4*WNDDIR$307
STN$590820*DATE$2021-02-02*TIME$19:59:17*TEMP$4.2*DEWP$-1.0*STP$1019.1*SLP$1023.9*VISIB$18.5*WDSP$9.4*PRCP$0.25*SNDP$0.0*FRSHTT$010000*CLDC$53.3*WNDDIR$260
STN$489550*DATE$2021-02-02*TIME$19:59:17*TEMP$16.1*DEWP$6.4*STP$1011.1*SLP$1012.1*VISIB$24.6*WDSP$9.3*PRCP$0.00*SNDP$0.0*FRSHTT$000000*CLDC$60.5*WNDDIR$91
STN$474250*DATE$2021-02-02*TIME$19:59:17*TEMP$-3.6*DEWP$-8.4*STP$1000.4*SLP$1003.1*VISIB$7.9*WDSP$12.5*PRCP$0.00*SNDP$0.0*FRSHTT$100000*CLDC$74.8*WNDDIR$189
STN$474260*DATE$2021-02-02*TIME$19:59:17*TEMP$-4.7*DEWP$-10.9*STP$1011.8*SLP$1011.5*VISIB$20.9*WDSP$14.1*PRCP$0.13*SNDP$3.0*FRSHTT$111000*CLDC$53.3*WNDDIR$299
STN$545840*DATE$2021-02-02*TIME$19:59:17*TEMP$-3.2*DEWP$-9.1*STP$1031.6*SLP$1027.2*VISIB$16.2*WDSP$15.6*PRCP$0.00*SNDP$0.0*FRSHTT$100000*CLDC$34.4*WNDDIR$13
STN$563570*DATE$2021-02-02*TIME$19:59:17*TEMP$-6.4*DEWP$-21.9*STP$642.3*SLP$647.0*VISIB$25.8*WDSP$19.3*PRCP$0.00*SNDP$0.0*FRSHTT$100000*CLDC$25.3*WNDDIR$38
STN$35020*DATE$2021-02-02*TIME$19:59:17*TEMP$1.9*DEWP$-0.4*STP$1009.5*SLP$1016.4*VISIB$16.9*WDSP$14.5*PRCP$0.08*SNDP$0.0*FRSHTT$010000*CLDC$53.7*WNDDIR$329
STN$320690*DATE$2021-02-02*TIME$19:59:17*TEMP$-6.4*DEWP$-8.7*STP$1011.3*SLP$1011.0*VISIB$38.5*WDSP$18.6*PRCP$0.03*SNDP$14.0*FRSHTT$111000*CLDC$84.1*WNDDIR$215
STN$722324*DATE$2021-02-02*TIME$19:59:17*TEMP$0.0*DEWP$-20.2*STP$981.8*SLP$978.9*VISIB$16.1*WDSP$4.1*PRCP$0.00*SNDP$0.0*FRSHTT$000000*CLDC$15.6*WNDDIR$212
STN$722279*DATE$2021-02-02*TIME$19:59:17*TEMP$2.2*DEWP$-4.2*STP$1024.5*SLP$1015.9*VISIB$10.0*WDSP$16.1*PRCP$0.17*SNDP$0.0*FRSHTT$010000*CLDC$76.6*WNDDIR$211
STN$95770*DATE$2021-02-02*TIME$19:59:17*TEMP$-0.6*DEWP$-3.8*STP$1020.0*SLP$1016.3*VISIB$12.7*WDSP$23.3*PRCP$0.07*SNDP$2.7*FRSHTT$111000*CLDC$65.9*WNDDIR$76
STN$217110*DATE$2021-02-02*TIME$19:59:17*TEMP$-22.5*DEWP$-23.9*STP$1017.8*SLP$1013.2*VISIB$17.8*WDSP$6.5*PRCP$0.02*SNDP$1.7*FRSHTT$111000*CLDC$50.0*WNDDIR$205
STN$722276*DATE$2021-02-02*TIME$19:59:17*TEMP$1.6*DEWP$-0.9*STP$1038.9*SLP$1020.7*VISIB$19.2*WDSP$10.0*PRCP$0.44*SNDP$0.0*FRSHTT$010000*CLDC$88.2*WNDDIR$38
STN$722275*DATE$2021-02-02*TIME$19:59:17*TEMP$0.0*DEWP$-4.8*STP$1003.4*SLP$1022.6*VISIB$13.6*WDSP$7.4*PRCP$0.00*SNDP$0.0*FRSHTT$000000*CLDC$31.5*WNDDIR$212
STN$25880*DATE$2021-02-02*TIME$19:59:17*TEMP$-1.3*DEWP$-4.3*STP$999.1*SLP$996.7*VISIB$4.2*WDSP$17.5*PRCP$0.06*SNDP$1.0*FRSHTT$111000*CLDC$50.0*WNDDIR$139
STN$722286*DATE$2021-02-02*TIME$19:59:17*TEMP$2.0*DEWP$-2.7*STP$1020.5*SLP$1020.4*VISIB$10.8*WDSP$8.4*PRCP$0.61*SNDP$0.0*FRSHTT$010000*CLDC$50.7*WNDDIR$267
STN$320590*DATE$2021-02-02*TIME$19:59:17*TEMP$-9.4*DEWP$-14.2*STP$1003.6*SLP$1011.6*VISIB$25.7*WDSP$13.7*PRCP$0.06*SNDP$12.3*FRSHTT$111000*CLDC$50.8*WNDDIR$36
STN$585270*DATE$2021-02-02*TIME$19:59:17*TEMP$0.9*DEWP$-4.8*STP$1021.8*SLP$1025.8*VISIB$12.8*WDSP$10.6*PRCP$0.12*SNDP$0.0*FRSHTT$010000*CLDC$50.3*WNDDIR$62
STN$827950*DATE$2021-02-02*TIME$19:59:17*TEMP$22.1*DEWP$13.8*STP$1014.0*SLP$1033.9*VISIB$11.2*WDSP$23.7*PRCP$0.00*SNDP$0.0*FRSHTT$000000*CLDC$93.4*WNDDIR$244
STN$726625*DATE$2021-02-02*TIME$19:59:17*TEMP$-4.7*DEWP$-10.8*STP$950.6*SLP$1019.9*VISIB$41.8*WDSP$21.4*PRCP$0.01*SNDP$0.4*FRSHTT$111000*CLDC$69.4*WNDDIR$243
STN$431500*DATE$2021-02-02*TIME$19:59:17*TEMP$17.9*DEWP$12.5*STP$1001.4*SLP$1014.1*VISIB$1.5*WDSP$3.6*PRCP$0.00*SNDP$0.0*FRSHTT$000000*CLDC$90.6*WNDDIR$181
STN$171350*DATE$2021-02-02*TIME$19:59:17*TEMP$2.7*DEWP$1.2*STP$921.1*SLP$1008.9*VISIB$18.6*WDSP$6.2*PRCP$0.25*SNDP$0.0*FRSHTT$010000*CLDC$51.1*WNDDIR$99
STN$726626*DATE$2021-02-02*TIME$19:59:17*TEMP$-7.0*DEWP$-9.6*STP$1006.5*SLP$1007.9*VISIB$17.2*WDSP$10.6*PRCP$0.00*SNDP$0.0*FRSHTT$100000*CLDC$29.8*WNDDIR$299
STN$30230*DATE$2021-02-02*TIME$19:59:17*TEMP$3.0*DEWP$1.7*STP$989.3*SLP$980.3*VISIB$16.4*WDSP$20.0*PRCP$0.04*SNDP$0.0*FRSHTT$010000*CLDC$53.7*WNDDIR$171
STN$742060*DATE$2021-02-02*TIME$19:59:17*TEMP$0.4*DEWP$-2.6*STP$1010.7*SLP$1018.6*VISIB$17.2*WDSP$2.7*PRCP$0.30*SNDP$0.6*FRSHTT$011000*CLDC$92.5*WNDDIR$260
STN$478150*DATE$2021-02-02*TIME$19:59:17*TEMP$0.1*DEWP$-7.2*STP$1017.0*SLP$1020.8*VISIB$21.9*WDSP$7.9*PRCP$0.17*SNDP$0.0*FRSHTT$010000*CLDC$63.5*WNDDIR$132
STN$30250*DATE$2021-02-02*TIME$19:59:17*TEMP$3.3*DEWP$0.2*STP$1004.8*SLP$1007.5*VISIB$26.0*WDSP$27.5*PRCP$0.00*SNDP$0.0*FRSHTT$000000*CLDC$30.3*WNDDIR$72
STN$76320*DATE$2021-02-02*TIME$19:59:17*TEMP$1.3*DEWP$-1.8*STP$1029.8*SLP$1024.4*VISIB$5.0*WDSP$16.6*PRCP$0.04*SNDP$0.0*FRSHTT$010000*CLDC$86.8*WNDDIR$48
STN$154600*DATE$2021-02-02*TIME$19:59:17*TEMP$-1.3*DEWP$-3.2*STP$1022.5*SLP$1021.0*VISIB$4.1*WDSP$10.9*PRCP$0.07*SNDP$4.2*FRSHTT$111000*CLDC$96.0*WNDDIR$167
STN$917000*DATE$2021-02-02*TIME$19:59:17*TEMP$23.5*DEWP$19.5*STP$1003.6*SLP$1009.6*VISIB$158.5*WDSP$11.9*PRCP$0.00*SNDP$0.0*FRSHTT$000000*CLDC$40.7*WNDDIR$309
STN$689940*DATE$2021-02-02*TIME$19:59:17*TEMP$1.0*DEWP$-4.0*STP$1000.9*SLP$1003.4*VISIB$7.1*WDSP$21.0*PRCP$0.47*SNDP$0.0*FRSHTT$010000*CLDC$99.9*WNDDIR$352
STN$336630*DATE$2021-02-02*TIME$19:59:17*TEMP$-2.9*DEWP$-6.1*STP$1012.7*SLP$1022.3*VISIB$11.6*WDSP$7.0*PRCP$0.02*SNDP$6.0*FRSHTT$111000*CLDC$76.4*WNDDIR$180
STN$93930*DATE$2021-02-02*TIME$19:59:17*TEMP$-1.6*DEWP$-4.6*STP$1030.4*SLP$1015.7*VISIB$10.2*WDSP$18.0*PRCP$0.14*SNDP$0.8*FRSHTT$111000*CLDC$97.6*WNDDIR$170
STN$32240*DATE$2021-02-02*TIME$19:59:17*TEMP$0.8*DEWP$-1.1*STP$978.8*SLP$1012.1*VISIB$16.6*WDSP$17.8*PRCP$0.18*SNDP$0.2*FRSHTT$011000*CLDC$53.9*WNDDIR$208
STN$14650*DATE$2021-02-02*TIME$19:59:17*TEMP$0.0*DEWP$-1.6*STP$1015.6*SLP$1013.3*VISIB$25.5*WDSP$40.8*PRCP$0.10*SNDP$0.0*FRSHTT$110000*CLDC$55.5*WNDDIR$217
STN$728450*DATE$2021-02-02*TIME$19:59:17*TEMP$-19.4*DEWP$-26.9*STP$960.6*SLP$1008.8*VISIB$21.4*WDSP$11.3*PRCP$0.00*SNDP$38.3*FRSHTT$101000*CLDC$73.8*WNDDIR$103
STN$76350*DATE$2021-02-02*TIME$19:59:17*TEMP$3.7*DEWP$0.7*STP$1013.9*SLP$1022.8*VISIB$15.2*WDSP$28.4*PRCP$0.11*SNDP$0.0*FRSHTT$010000*CLDC$65.1*WNDDIR$308
